{"type":"FeatureCollection","features":[{"type":"Feature","properties":{"ward_id":"48 RAMOL HATHIJAN","name":"48 RAMOL HATHIJAN"},"geometry":{"type":"Polygon","coordinates":[[[72.6555484,22.9898454,0.0],[72.6474424,22.9983784,0.0],[72.6471454,22.9975054,0.0],[72.6456994,22.9980064,0.0],[72.6456184,22.9977304,0.0],[72.6443584,22.9964754,0.0],[72.6423864,22.9951834,0.0],[72.6395404,22.9950454,0.0],[72.6390595,22.9947094,0.0],[72.6387995,22.9940964,0.0],[72.6388915,22.9928954,0.0],[72.6393564,22.9919094,0.0],[72.6404274,22.9910964,0.0],[72.6407054,22.9905854,0.0],[72.6408004,22.9895034,0.0],[72.6403654,22.9896644,0.0],[72.6401264,22.9894124,0.0],[72.6402244,22.9888424,0.0],[72.6399584,22.9887414,0.0],[72.6393834,22.9878034,0.0],[72.6387535,22.9871484,0.0],[72.6373825,22.9871664,0.0],[72.6368905,22.9838154,0.0],[72.6366165,22.9835904,0.0],[72.6287735,22.9879614,0.0],[72.6284065,22.9880054,0.0],[72.6231195,22.9831584,0.0],[72.6223515,22.9826614,0.0],[72.6193095,22.9813604,0.0],[72.6323965,22.9524684,0.0],[72.6340165,22.9499394,0.0],[72.6322165,22.9503014,0.0],[72.6300565,22.9501714,0.0],[72.6291765,22.9502594,0.0],[72.6253595,22.9497124,0.0],[72.62305850000001,22.9502564,0.0],[72.6219115,22.9501624,0.0],[72.6189095,22.9509744,0.0],[72.6211335,22.9451794,0.0],[72.6271785,22.9380454,0.0],[72.6302965,22.9331054,0.0],[72.6333665,22.9316804,0.0],[72.6335955,22.9313144,0.0],[72.6351355,22.9305494,0.0],[72.6364875,22.9300344,0.0],[72.6369155,22.9302424,0.0],[72.6380405,22.9299684,0.0],[72.63822250000001,22.9300614,0.0],[72.6392544,22.9295744,0.0],[72.6409744,22.9292554,0.0],[72.6412204,22.9293364,0.0],[72.6445054,22.9285614,0.0],[72.6469024,22.9263164,0.0],[72.6486684,22.9242844,0.0],[72.6562714,22.9165674,0.0],[72.6570874,22.9159284,0.0],[72.6575664,22.9159394,0.0],[72.6592234,22.9161634,0.0],[72.6593994,22.9163434,0.0],[72.6607694,22.9167054,0.0],[72.6617264,22.9166914,0.0],[72.6622254,22.9181304,0.0],[72.6623334,22.9191514,0.0],[72.6630004,22.9203584,0.0],[72.6628774,22.9206784,0.0],[72.6630424,22.9207884,0.0],[72.6631654,22.9224724,0.0],[72.6634334,22.9225534,0.0],[72.6632364,22.9239344,0.0],[72.6633404,22.9241264,0.0],[72.6630294,22.9260834,0.0],[72.66276340000002,22.9267764,0.0],[72.6631914,22.9276794,0.0],[72.6633744,22.9289254,0.0],[72.6643204,22.9302574,0.0],[72.6652914,22.9302954,0.0],[72.6653484,22.9306114,0.0],[72.6677164,22.9307284,0.0],[72.6683264,22.9304794,0.0],[72.6689314,22.9296754,0.0],[72.6706113,22.9303514,0.0],[72.67071330000002,22.9305624,0.0],[72.6723843,22.9303314,0.0],[72.6730233,22.9310444,0.0],[72.6734513,22.9312904,0.0],[72.6751913,22.9316694,0.0],[72.6753843,22.9319744,0.0],[72.6760003,22.9318874,0.0],[72.6764713,22.9320724,0.0],[72.6766263,22.9327434,0.0],[72.6788973,22.9327474,0.0],[72.6789023,22.9325504,0.0],[72.6790953,22.9324714,0.0],[72.6800993,22.9325904,0.0],[72.6802743,22.9316634,0.0],[72.6808383,22.9318684,0.0],[72.6809613,22.9320974,0.0],[72.6807983,22.9326644,0.0],[72.6803083,22.9335474,0.0],[72.6809453,22.9363954,0.0],[72.6787933,22.9371314,0.0],[72.6789103,22.9376264,0.0],[72.6791783,22.9378104,0.0],[72.6791103,22.9380664,0.0],[72.6767923,22.9385884,0.0],[72.6769163,22.9397464,0.0],[72.6768003,22.9397414,0.0],[72.6765163,22.9405304,0.0],[72.6762393,22.9417144,0.0],[72.6758363,22.9415564,0.0],[72.6752813,22.9409834,0.0],[72.6745743,22.9411824,0.0],[72.6739703,22.9424754,0.0],[72.6734633,22.9423484,0.0],[72.6738443,22.9440164,0.0],[72.6727693,22.9440934,0.0],[72.6726553,22.9444744,0.0],[72.6709543,22.9444594,0.0],[72.6711093,22.9454594,0.0],[72.6703853,22.9455754,0.0],[72.6707083,22.9466804,0.0],[72.6697974,22.9469534,0.0],[72.6693894,22.9466994,0.0],[72.6688204,22.9475304,0.0],[72.6689274,22.9488904,0.0],[72.6682804,22.9496344,0.0],[72.6678204,22.9494284,0.0],[72.6673334,22.9489504,0.0],[72.6668334,22.9480614,0.0],[72.6646894,22.9476014,0.0],[72.6641204,22.9497324,0.0],[72.6633764,22.9510464,0.0],[72.6616054,22.9534564,0.0],[72.6607624,22.9549664,0.0],[72.6591194,22.9590084,0.0],[72.6589484,22.9601634,0.0],[72.6571364,22.9600044,0.0],[72.6567234,22.9602494,0.0],[72.6567164,22.9604534,0.0],[72.6558234,22.9615504,0.0],[72.6543464,22.9624184,0.0],[72.6536804,22.9630344,0.0],[72.6529524,22.9672384,0.0],[72.6551494,22.9680084,0.0],[72.6560804,22.9680344,0.0],[72.6573644,22.9685124,0.0],[72.6589484,22.9687624,0.0],[72.6602214,22.9688904,0.0],[72.6601944,22.9679274,0.0],[72.6625294,22.9683314,0.0],[72.6627974,22.9687574,0.0],[72.6655934,22.9711704,0.0],[72.6663094,22.9713104,0.0],[72.6675844,22.9727634,0.0],[72.6677954,22.9732454,0.0],[72.6687264,22.9729774,0.0],[72.6695974,22.9731084,0.0],[72.6696904,22.9742514,0.0],[72.6726023,22.9739264,0.0],[72.6745083,22.9739224,0.0],[72.6761513,22.9747244,0.0],[72.6756903,22.9771094,0.0],[72.6761493,22.9786314,0.0],[72.6772213,22.9840024,0.0],[72.6776483,22.9844564,0.0],[72.6779813,22.9852074,0.0],[72.6770313,22.9850464,0.0],[72.6761463,22.9845204,0.0],[72.6743763,22.9842664,0.0],[72.6725643,22.9834704,0.0],[72.6716473,22.9833164,0.0],[72.6693534,22.9824874,0.0],[72.6675464,22.9836514,0.0],[72.6669884,22.9837004,0.0],[72.66640740000001,22.9844104,0.0],[72.6642334,22.9851284,0.0],[72.6643464,22.9858524,0.0],[72.66207140000002,22.9860394,0.0],[72.6555484,22.9898454,0.0]]]}},{"type":"Feature","properties":{"ward_id":"47 VATVA","name":"47 VATVA"},"geometry":{"type":"Polygon","coordinates":[[[72.6325681,22.9526462,0.0],[72.6194811,22.9815382,0.0],[72.6175551,22.9806302,0.0],[72.6148651,22.9796652,0.0],[72.6110461,22.9787902,0.0],[72.6108921,22.9786222,0.0],[72.6108701,22.9751132,0.0],[72.6106851,22.9727312,0.0],[72.6078951,22.9674492,0.0],[72.6069671,22.9633342,0.0],[72.6065681,22.9619822,0.0],[72.6059961,22.9607452,0.0],[72.6098751,22.9599012,0.0],[72.6114461,22.9597122,0.0],[72.6124981,22.9575492,0.0],[72.6121641,22.9573242,0.0],[72.6121691,22.9558352,0.0],[72.6124331,22.9550732,0.0],[72.6099271,22.9548492,0.0],[72.6096501,22.9549032,0.0],[72.6095311,22.9552172,0.0],[72.6091611,22.9552572,0.0],[72.6091661,22.9554602,0.0],[72.6082821,22.9554062,0.0],[72.6084851,22.9546742,0.0],[72.60811110000002,22.9544802,0.0],[72.6081321,22.9542562,0.0],[72.6085411,22.9542522,0.0],[72.6082181,22.9530052,0.0],[72.6082881,22.9513082,0.0],[72.6087841,22.9500512,0.0],[72.6069211,22.9494312,0.0],[72.6078541,22.9463742,0.0],[72.6086671,22.9373322,0.0],[72.6089031,22.9311892,0.0],[72.60624810000002,22.9305262,0.0],[72.6079141,22.9280772,0.0],[72.6093421,22.9255942,0.0],[72.6093861,22.9235382,0.0],[72.6101941,22.9237422,0.0],[72.6126921,22.9235482,0.0],[72.6131821,22.9230672,0.0],[72.6137011,22.9219352,0.0],[72.6140991,22.9219232,0.0],[72.6141671,22.9215502,0.0],[72.6145471,22.9215222,0.0],[72.6147521,22.9207412,0.0],[72.6167091,22.9207482,0.0],[72.6167701,22.9205842,0.0],[72.6186631,22.9203592,0.0],[72.6186471,22.9200282,0.0],[72.6203811,22.9202682,0.0],[72.6220751,22.9209712,0.0],[72.6225731,22.9212692,0.0],[72.6226251,22.9219502,0.0],[72.6238541,22.9223852,0.0],[72.6239771,22.9229702,0.0],[72.6255401,22.9232452,0.0],[72.6262711,22.9235672,0.0],[72.6270721,22.9235112,0.0],[72.6262531,22.9252742,0.0],[72.6249231,22.9270502,0.0],[72.6253841,22.9290382,0.0],[72.6245541,22.9313212,0.0],[72.6261041,22.9316142,0.0],[72.6261761,22.9320162,0.0],[72.6263971,22.9321922,0.0],[72.6283511,22.9322402,0.0],[72.6285861,22.9331152,0.0],[72.6304681,22.9332832,0.0],[72.6273501,22.9382232,0.0],[72.6213051,22.9453572,0.0],[72.6190811,22.9511522,0.0],[72.6220831,22.9503402,0.0],[72.62323010000001,22.9504342,0.0],[72.6255311,22.9498902,0.0],[72.6293481,22.9504372,0.0],[72.6302281,22.9503492,0.0],[72.6323881,22.9504792,0.0],[72.6341881,22.9501172,0.0],[72.6325681,22.9526462,0.0]]]}},{"type":"Feature","properties":{"ward_id":"46 LAMBHA","name":"46 LAMBHA"},"geometry":{"type":"Polygon","coordinates":[[[72.5882877,22.9728547,0.0],[72.5828197,22.9726227,0.0],[72.5712347,22.9736387,0.0],[72.5586948,22.9753097,0.0],[72.5500848,22.9761517,0.0],[72.5473498,22.9771607,0.0],[72.5461288,22.9779507,0.0],[72.5435408,22.9808727,0.0],[72.5427648,22.9820707,0.0],[72.5403378,22.9810127,0.0],[72.5363558,22.9784837,0.0],[72.52185290000001,22.9733697,0.0],[72.5186089,22.9701797,0.0],[72.5149489,22.9648937,0.0],[72.5122059,22.9591947,0.0],[72.5116779,22.9577607,0.0],[72.5121179,22.9551767,0.0],[72.5133779,22.9527097,0.0],[72.5158469,22.9509137,0.0],[72.5187829,22.9498717,0.0],[72.5233238,22.9493807,0.0],[72.5279098,22.9501337,0.0],[72.5340088,22.9508937,0.0],[72.5373988,22.9498347,0.0],[72.5397978,22.9477417,0.0],[72.5421628,22.9435427,0.0],[72.5428058,22.9377087,0.0],[72.5420148,22.9355427,0.0],[72.5390178,22.9322927,0.0],[72.5312448,22.9250067,0.0],[72.5335018,22.9242307,0.0],[72.5342838,22.9228467,0.0],[72.53503980000002,22.9219457,0.0],[72.5365448,22.9207097,0.0],[72.5388158,22.9192817,0.0],[72.5397518,22.9197587,0.0],[72.5403878,22.9190497,0.0],[72.5428758,22.9208467,0.0],[72.5476868,22.9223237,0.0],[72.5535298,22.9191227,0.0],[72.5572198,22.9178767,0.0],[72.5602438,22.9143907,0.0],[72.5633418,22.9156227,0.0],[72.5643438,22.9161767,0.0],[72.5670147,22.9150747,0.0],[72.5670297,22.9142407,0.0],[72.5674997,22.9139487,0.0],[72.5690297,22.9143247,0.0],[72.56998670000002,22.9142157,0.0],[72.5705667,22.9148457,0.0],[72.5717757,22.9149427,0.0],[72.5720997,22.9161267,0.0],[72.5727097,22.9175077,0.0],[72.57301270000002,22.9178437,0.0],[72.5734847,22.9178317,0.0],[72.5739617,22.9209337,0.0],[72.5741127,22.9211747,0.0],[72.5764547,22.9229457,0.0],[72.5769037,22.9229777,0.0],[72.57713570000001,22.9227287,0.0],[72.5773157,22.9227467,0.0],[72.5796737,22.9235767,0.0],[72.5814107,22.9245877,0.0],[72.5830047,22.9251897,0.0],[72.5852907,22.9267527,0.0],[72.5862107,22.9270977,0.0],[72.5869447,22.9290017,0.0],[72.58817670000002,22.9297617,0.0],[72.5876987,22.9304807,0.0],[72.5883267,22.9305747,0.0],[72.5888077,22.9309517,0.0],[72.5895467,22.9312317,0.0],[72.5895537,22.9318427,0.0],[72.5912597,22.9320257,0.0],[72.5912957,22.9324187,0.0],[72.5926117,22.9325197,0.0],[72.5925587,22.9318887,0.0],[72.5920167,22.9316537,0.0],[72.5918087,22.9312587,0.0],[72.5919557,22.9297047,0.0],[72.5910207,22.9240007,0.0],[72.5910277,22.9226297,0.0],[72.5918637,22.9226357,0.0],[72.5918487,22.9222937,0.0],[72.5943837,22.9221377,0.0],[72.5943297,22.9219927,0.0],[72.5946587,22.9219797,0.0],[72.5946167,22.9215187,0.0],[72.5949057,22.9214727,0.0],[72.5950217,22.9219097,0.0],[72.5956517,22.9219177,0.0],[72.5957507,22.9222297,0.0],[72.5962947,22.9223317,0.0],[72.59680170000001,22.9227367,0.0],[72.5988957,22.9227877,0.0],[72.5989347,22.9237437,0.0],[72.5991467,22.9237327,0.0],[72.5992917,22.9254607,0.0],[72.5991937,22.9258397,0.0],[72.5994357,22.9269517,0.0],[72.5990797,22.9270867,0.0],[72.5992187,22.9277997,0.0],[72.5995227,22.9277377,0.0],[72.5995907,22.9285407,0.0],[72.5990787,22.9286057,0.0],[72.5992977,22.9302597,0.0],[72.5994237,22.9302497,0.0],[72.5998067,22.9323017,0.0],[72.6002367,22.9324327,0.0],[72.6019747,22.9322607,0.0],[72.6031637,22.9330147,0.0],[72.6046437,22.9330937,0.0],[72.6061837,22.9304767,0.0],[72.6088387,22.9311397,0.0],[72.6086027,22.9372827,0.0],[72.6077897,22.9463247,0.0],[72.6068567,22.9493817,0.0],[72.6087197,22.9500017,0.0],[72.6082237,22.9512587,0.0],[72.60815370000002,22.9529557,0.0],[72.6084767,22.9542027,0.0],[72.6080677,22.9542067,0.0],[72.6080467,22.9544307,0.0],[72.6084207,22.9546247,0.0],[72.6082177,22.9553567,0.0],[72.6091017,22.9554107,0.0],[72.6090967,22.9552077,0.0],[72.6094667,22.9551677,0.0],[72.6095857,22.9548537,0.0],[72.6098627,22.9547997,0.0],[72.6123686,22.9550237,0.0],[72.6121046,22.9557857,0.0],[72.6120996,22.9572747,0.0],[72.6124336,22.9574997,0.0],[72.6113816,22.9596627,0.0],[72.6098107,22.9598517,0.0],[72.6059317,22.9606957,0.0],[72.60650370000002,22.9619327,0.0],[72.6069027,22.9632847,0.0],[72.6078307,22.9673997,0.0],[72.6059767,22.9705417,0.0],[72.6045667,22.9724017,0.0],[72.5996877,22.9706517,0.0],[72.5995887,22.9733787,0.0],[72.5990857,22.9750327,0.0],[72.5932667,22.9733617,0.0],[72.5882877,22.9728547,0.0]]]}},{"type":"Feature","properties":{"ward_id":"45 ISANPUR","name":"45 ISANPUR"},"geometry":{"type":"Polygon","coordinates":[[[72.6039003,22.9886004,0.0],[72.5959913,22.9889064,0.0],[72.5965933,22.9871454,0.0],[72.5944133,22.9866334,0.0],[72.5941313,22.9867304,0.0],[72.5921983,22.9865834,0.0],[72.59194530000002,22.9857074,0.0],[72.5907423,22.9840284,0.0],[72.5893683,22.9831844,0.0],[72.5878403,22.9825304,0.0],[72.5853613,22.9829994,0.0],[72.5857533,22.9812084,0.0],[72.5858463,22.9796174,0.0],[72.5856943,22.9791874,0.0],[72.5881053,22.9728774,0.0],[72.59324530000002,22.9733914,0.0],[72.5990643,22.9750624,0.0],[72.5995673,22.9734084,0.0],[72.5996663,22.9706814,0.0],[72.6045452,22.9724314,0.0],[72.6059552,22.9705714,0.0],[72.6078092,22.9674294,0.0],[72.6105992,22.9727114,0.0],[72.6107842,22.9750934,0.0],[72.6108062,22.9786024,0.0],[72.61116520000002,22.9790454,0.0],[72.6113252,22.9816414,0.0],[72.6113832,22.9870114,0.0],[72.6091982,22.9873174,0.0],[72.6039003,22.9886004,0.0]]]}},{"type":"Feature","properties":{"ward_id":"44 KHOKHRA","name":"44 KHOKHRA"},"geometry":{"type":"Polygon","coordinates":[[[72.6081287,23.013945,0.0],[72.6070717,23.014415,0.0],[72.6070757,23.013341,0.0],[72.6063407,23.013545,0.0],[72.6047658,23.013467,0.0],[72.6135517,22.993944,0.0],[72.6148577,22.990749,0.0],[72.6139667,22.990816,0.0],[72.6108667,22.991887,0.0],[72.6103367,22.990464,0.0],[72.6105327,22.990419,0.0],[72.6101877,22.989106,0.0],[72.6099427,22.989013,0.0],[72.6102607,22.988612,0.0],[72.6108107,22.98848,0.0],[72.6109197,22.988122,0.0],[72.6112697,22.987785,0.0],[72.6114807,22.986315,0.0],[72.6111867,22.979006,0.0],[72.6109817,22.978731,0.0],[72.6148007,22.979606,0.0],[72.6201157,22.981704,0.0],[72.6224587,22.98278,0.0],[72.6232267,22.983277,0.0],[72.6248227,22.984732,0.0],[72.6205527,22.985261,0.0],[72.6201217,22.986736,0.0],[72.6197767,22.987125,0.0],[72.6175567,22.988046,0.0],[72.6208337,22.991894,0.0],[72.6210477,22.991726,0.0],[72.6233877,22.991525,0.0],[72.6235407,22.994437,0.0],[72.6253107,22.993805,0.0],[72.6259627,22.993788,0.0],[72.6259437,22.995522,0.0],[72.6261127,22.996901,0.0],[72.6263427,22.997297,0.0],[72.6256937,22.997768,0.0],[72.6246517,22.998882,0.0],[72.6243087,22.999855,0.0],[72.6244087,23.000732,0.0],[72.6240727,23.001987,0.0],[72.6236217,23.002875,0.0],[72.6235287,23.003529,0.0],[72.6225367,23.003651,0.0],[72.6207597,23.004169,0.0],[72.6206357,23.003876,0.0],[72.6202757,23.004009,0.0],[72.6198157,23.002712,0.0],[72.6198037,23.002059,0.0],[72.6193717,23.001913,0.0],[72.6185037,23.001835,0.0],[72.6143207,23.002341,0.0],[72.6152667,23.004725,0.0],[72.6141517,23.005403,0.0],[72.6138867,23.005834,0.0],[72.6134277,23.006143,0.0],[72.6142737,23.007557,0.0],[72.61568970000002,23.0087,0.0],[72.6161877,23.009458,0.0],[72.6166687,23.010652,0.0],[72.6155277,23.010698,0.0],[72.6122757,23.010296,0.0],[72.6094757,23.01031,0.0],[72.6090067,23.012272,0.0],[72.6091987,23.013715,0.0],[72.6081287,23.013945,0.0]]]}},{"type":"Feature","properties":{"ward_id":"43 BHAIPURA HATKESHWAR","name":"43 BHAIPURA HATKESHWAR"},"geometry":{"type":"Polygon","coordinates":[[[72.6295941,23.0039975,0.0],[72.6271591,23.0044895,0.0],[72.6264231,23.0022375,0.0],[72.6247921,22.9991855,0.0],[72.62465910000002,22.9991645,0.0],[72.6248501,22.9986255,0.0],[72.6264071,22.9972575,0.0],[72.6261771,22.9968615,0.0],[72.6260081,22.9954825,0.0],[72.6260271,22.9937485,0.0],[72.6253751,22.9937655,0.0],[72.6236051,22.9943975,0.0],[72.6234521,22.9914855,0.0],[72.6211121,22.9916865,0.0],[72.6208981,22.9918545,0.0],[72.6176211,22.9880065,0.0],[72.6198411,22.9870855,0.0],[72.6201861,22.9866965,0.0],[72.6206171,22.9852215,0.0],[72.6248871,22.9846925,0.0],[72.6285781,22.9880845,0.0],[72.6322931,22.9917875,0.0],[72.6330071,22.9928785,0.0],[72.6338791,22.9950275,0.0],[72.6364051,23.0024375,0.0],[72.6319201,23.0031595,0.0],[72.6318651,23.0036525,0.0],[72.6307731,23.0040345,0.0],[72.6295941,23.0039975,0.0]]]}},{"type":"Feature","properties":{"ward_id":"42 INDRAPURI","name":"42 INDRAPURI"},"geometry":{"type":"Polygon","coordinates":[[[72.6407408,23.0148992,0.0],[72.6386358,23.0144972,0.0],[72.6387438,23.0134032,0.0],[72.6384978,23.0091322,0.0],[72.6379818,23.0072392,0.0],[72.6370598,23.0050812,0.0],[72.6367128,23.0049992,0.0],[72.6278479,23.0078712,0.0],[72.6276189,23.0077672,0.0],[72.6270519,23.0044302,0.0],[72.6294869,23.0039382,0.0],[72.6306658,23.0039752,0.0],[72.6317578,23.0035932,0.0],[72.6318128,23.0031002,0.0],[72.6362978,23.0023782,0.0],[72.6337718,22.9949682,0.0],[72.6328998,22.9928192,0.0],[72.6321858,22.9917282,0.0],[72.6284709,22.9880252,0.0],[72.6288379,22.9879812,0.0],[72.6366808,22.9836102,0.0],[72.6369548,22.9838352,0.0],[72.6374468,22.9871862,0.0],[72.6388178,22.9871682,0.0],[72.6394478,22.9878232,0.0],[72.64002280000001,22.9887612,0.0],[72.6402898,22.9888622,0.0],[72.6401908,22.9894322,0.0],[72.6404298,22.9896842,0.0],[72.6408648,22.9895232,0.0],[72.6407698,22.9906052,0.0],[72.64049180000002,22.9911162,0.0],[72.6394208,22.9919292,0.0],[72.6389558,22.9929152,0.0],[72.6388638,22.9941162,0.0],[72.6391238,22.9947292,0.0],[72.6396048,22.9950652,0.0],[72.6424508,22.9952032,0.0],[72.6444228,22.9964952,0.0],[72.6457588,22.9979352,0.0],[72.6455688,23.0014822,0.0],[72.6452578,23.0031322,0.0],[72.6434028,23.0055342,0.0],[72.6469708,23.0072842,0.0],[72.6494658,23.0090952,0.0],[72.6502368,23.0099642,0.0],[72.6509708,23.0101852,0.0],[72.6534468,23.0103212,0.0],[72.6451418,23.0131762,0.0],[72.6449438,23.0146132,0.0],[72.64196980000001,23.0147432,0.0],[72.6419688,23.0149382,0.0],[72.6407408,23.0148992,0.0]]]}},{"type":"Feature","properties":{"ward_id":"41 VASTRAL","name":"41 VASTRAL"},"geometry":{"type":"Polygon","coordinates":[[[72.6746474,23.0199435,0.0],[72.6740674,23.0208245,0.0],[72.6715524,23.0200895,0.0],[72.6713334,23.0193685,0.0],[72.6697244,23.0189435,0.0],[72.6695034,23.0192925,0.0],[72.6686454,23.0191355,0.0],[72.66848140000002,23.0198965,0.0],[72.6670584,23.0196975,0.0],[72.6661594,23.0192295,0.0],[72.6647964,23.0188985,0.0],[72.6606264,23.0186035,0.0],[72.6605464,23.0187715,0.0],[72.6592834,23.0185615,0.0],[72.6593894,23.0170335,0.0],[72.6585004,23.0169295,0.0],[72.6584894,23.0177585,0.0],[72.6531994,23.0177485,0.0],[72.6552284,23.0136505,0.0],[72.6554184,23.0127165,0.0],[72.6549694,23.0105155,0.0],[72.6509064,23.0102445,0.0],[72.6501724,23.0100235,0.0],[72.6494014,23.0091545,0.0],[72.6469064,23.0073435,0.0],[72.6433155,23.0055235,0.0],[72.64519350000002,23.0031915,0.0],[72.6455045,23.0015415,0.0],[72.6456995,22.9980855,0.0],[72.6471454,22.9975845,0.0],[72.6474424,22.9984575,0.0],[72.6555484,22.9899245,0.0],[72.66207140000002,22.9861185,0.0],[72.6643464,22.9859315,0.0],[72.6642334,22.9852075,0.0],[72.66640740000001,22.9844895,0.0],[72.6669884,22.9837795,0.0],[72.6675464,22.9837305,0.0],[72.6693534,22.9825665,0.0],[72.6716474,22.9833955,0.0],[72.6725644,22.9835495,0.0],[72.6743764,22.9843455,0.0],[72.6761464,22.9845995,0.0],[72.6770314,22.9851255,0.0],[72.6779814,22.9852865,0.0],[72.6788244,22.9867595,0.0],[72.6823534,22.9881685,0.0],[72.6847903,22.9886085,0.0],[72.6851623,22.9885235,0.0],[72.6864393,22.9897295,0.0],[72.6868693,22.9907515,0.0],[72.6863183,22.9909555,0.0],[72.6869493,22.9920145,0.0],[72.6868143,22.9919895,0.0],[72.6867673,22.9923865,0.0],[72.6886153,22.9930905,0.0],[72.6884853,22.9932405,0.0],[72.68886630000002,22.9939425,0.0],[72.6882463,22.9952025,0.0],[72.6880513,22.9962525,0.0],[72.6891383,22.9977965,0.0],[72.6893993,23.0000545,0.0],[72.6900413,23.0010085,0.0],[72.6923273,23.0019775,0.0],[72.6924153,23.0030305,0.0],[72.6931113,23.0033005,0.0],[72.6927223,23.0038235,0.0],[72.6904653,23.0048095,0.0],[72.6902253,23.0051915,0.0],[72.6899373,23.0052285,0.0],[72.6874433,23.0070865,0.0],[72.6859943,23.0084195,0.0],[72.6851653,23.0095335,0.0],[72.6842344,23.0098985,0.0],[72.6842294,23.0106765,0.0],[72.6830454,23.0107345,0.0],[72.6830384,23.0119495,0.0],[72.6828814,23.0119265,0.0],[72.6821284,23.0136615,0.0],[72.6826684,23.0144605,0.0],[72.6817514,23.0146855,0.0],[72.6817684,23.0154005,0.0],[72.6820534,23.0156095,0.0],[72.6822474,23.0165465,0.0],[72.6820664,23.0177735,0.0],[72.6816524,23.0182925,0.0],[72.6816574,23.0193755,0.0],[72.6794944,23.0198395,0.0],[72.6784234,23.0199125,0.0],[72.6768264,23.0196805,0.0],[72.6759364,23.0193395,0.0],[72.6747384,23.0193725,0.0],[72.6746474,23.0199435,0.0]]]}},{"type":"Feature","properties":{"ward_id":"40 ODHAV","name":"40 ODHAV"},"geometry":{"type":"Polygon","coordinates":[[[72.6610503,23.0320057,0.0],[72.6587843,23.0322027,0.0],[72.6545003,23.0318837,0.0],[72.6530103,23.0317087,0.0],[72.6486304,23.0306737,0.0],[72.6490294,23.0294707,0.0],[72.6494124,23.0292327,0.0],[72.6495764,23.0286157,0.0],[72.6495924,23.0273177,0.0],[72.6491724,23.0256487,0.0],[72.6486574,23.0245877,0.0],[72.6484134,23.0223787,0.0],[72.6481814,23.0216637,0.0],[72.6478314,23.0212937,0.0],[72.6452354,23.0201257,0.0],[72.6423514,23.0182547,0.0],[72.6420984,23.0170977,0.0],[72.6419484,23.0147827,0.0],[72.6449224,23.0146527,0.0],[72.6451204,23.0132157,0.0],[72.6534253,23.0103607,0.0],[72.6550123,23.0104957,0.0],[72.6554613,23.0126967,0.0],[72.6552713,23.0136307,0.0],[72.6532423,23.0177287,0.0],[72.6585323,23.0177387,0.0],[72.6585433,23.0169097,0.0],[72.6594323,23.0170137,0.0],[72.6593263,23.0185417,0.0],[72.6605893,23.0187517,0.0],[72.6606693,23.0185837,0.0],[72.6648393,23.0188787,0.0],[72.6662023,23.0192097,0.0],[72.6671013,23.0196777,0.0],[72.6685243,23.0198767,0.0],[72.6686883,23.0191157,0.0],[72.6695463,23.0192727,0.0],[72.6697673,23.0189237,0.0],[72.6713763,23.0193487,0.0],[72.6715953,23.0200697,0.0],[72.6741103,23.0208047,0.0],[72.6746613,23.0201077,0.0],[72.67478130000002,23.0193527,0.0],[72.6759793,23.0193197,0.0],[72.6768693,23.0196607,0.0],[72.6784663,23.0198927,0.0],[72.6795373,23.0198197,0.0],[72.6817003,23.0193557,0.0],[72.6827063,23.0208377,0.0],[72.6829793,23.0208657,0.0],[72.6830433,23.0214317,0.0],[72.6833743,23.0219207,0.0],[72.6847083,23.0232847,0.0],[72.6846623,23.0247707,0.0],[72.6820113,23.0245767,0.0],[72.6793213,23.0246317,0.0],[72.6790083,23.0275797,0.0],[72.6765903,23.0272377,0.0],[72.6762043,23.0279467,0.0],[72.6744913,23.0277247,0.0],[72.6737463,23.0279047,0.0],[72.6739653,23.0286387,0.0],[72.6728693,23.0315137,0.0],[72.6672493,23.0327377,0.0],[72.6653103,23.0327357,0.0],[72.6629703,23.0325067,0.0],[72.6610503,23.0320057,0.0]]]}},{"type":"Feature","properties":{"ward_id":"39 AMRAIWADI","name":"39 AMRAIWADI"},"geometry":{"type":"Polygon","coordinates":[[[72.6218467,23.0170812,0.0],[72.6200797,23.0173432,0.0],[72.61660270000002,23.0171382,0.0],[72.6138387,23.0172902,0.0],[72.6133127,23.0169952,0.0],[72.6128927,23.0163682,0.0],[72.6128797,23.0160762,0.0],[72.6164507,23.0158292,0.0],[72.6164477,23.0153182,0.0],[72.6189677,23.0141582,0.0],[72.6184497,23.0131162,0.0],[72.6151707,23.0132162,0.0],[72.6151417,23.0127382,0.0],[72.6091987,23.0136952,0.0],[72.6090067,23.0122522,0.0],[72.6094757,23.0102902,0.0],[72.6122757,23.0102762,0.0],[72.6155277,23.0106782,0.0],[72.6166687,23.0106322,0.0],[72.6161877,23.0094382,0.0],[72.61568970000002,23.0086802,0.0],[72.6142737,23.0075372,0.0],[72.6134277,23.0061232,0.0],[72.6138867,23.0058142,0.0],[72.6141517,23.0053832,0.0],[72.6152667,23.0047052,0.0],[72.6143207,23.0023212,0.0],[72.6185037,23.0018152,0.0],[72.6193717,23.0018932,0.0],[72.6198037,23.0020392,0.0],[72.6198157,23.0026922,0.0],[72.6202757,23.0039892,0.0],[72.6206357,23.0038562,0.0],[72.6207597,23.0041492,0.0],[72.6225367,23.0036312,0.0],[72.6235287,23.0035092,0.0],[72.6236217,23.0028552,0.0],[72.6240727,23.0019672,0.0],[72.6244087,23.0007122,0.0],[72.6243087,22.9998352,0.0],[72.6245947,22.9991842,0.0],[72.6247277,22.9992052,0.0],[72.6256207,23.0008012,0.0],[72.6266957,23.0031632,0.0],[72.6271997,23.0050162,0.0],[72.6276617,23.0078462,0.0],[72.6281077,23.0079352,0.0],[72.6302117,23.0071252,0.0],[72.6367557,23.0050782,0.0],[72.6371027,23.0051602,0.0],[72.6380247,23.0073182,0.0],[72.6385407,23.0092112,0.0],[72.63878670000001,23.0134822,0.0],[72.6386787,23.0145762,0.0],[72.6383317,23.0139882,0.0],[72.6366517,23.0128192,0.0],[72.6322727,23.0122752,0.0],[72.6322137,23.0124972,0.0],[72.6327397,23.0134292,0.0],[72.6330157,23.0144592,0.0],[72.6293057,23.0141132,0.0],[72.6272307,23.0173412,0.0],[72.6252307,23.0168922,0.0],[72.6248887,23.0176422,0.0],[72.6218467,23.0170812,0.0]]]}},{"type":"Feature","properties":{"ward_id":"38 GOMTIPUR","name":"38 GOMTIPUR"},"geometry":{"type":"Polygon","coordinates":[[[72.60590130000001,23.025435,0.0],[72.6051413,23.025681,0.0],[72.6046953,23.026408,0.0],[72.6036253,23.026926,0.0],[72.60308830000001,23.026553,0.0],[72.6012043,23.02634,0.0],[72.6012063,23.024154,0.0],[72.6014083,23.022537,0.0],[72.6017923,23.021117,0.0],[72.6047443,23.013467,0.0],[72.6063193,23.013545,0.0],[72.6070543,23.013341,0.0],[72.6070503,23.014415,0.0],[72.6081073,23.013945,0.0],[72.6092423,23.0137,0.0],[72.6151203,23.012758,0.0],[72.6151493,23.013236,0.0],[72.6184282,23.013136,0.0],[72.6189462,23.014178,0.0],[72.6164262,23.015338,0.0],[72.6164292,23.015849,0.0],[72.6128583,23.016096,0.0],[72.6128713,23.016388,0.0],[72.6132913,23.017015,0.0],[72.6138173,23.01731,0.0],[72.6165812,23.017158,0.0],[72.6200582,23.017363,0.0],[72.6218252,23.017101,0.0],[72.6248672,23.017662,0.0],[72.6252092,23.016912,0.0],[72.6272092,23.017361,0.0],[72.6292842,23.014133,0.0],[72.6329942,23.014479,0.0],[72.6327182,23.013449,0.0],[72.6321922,23.012517,0.0],[72.6322512,23.012295,0.0],[72.6366302,23.012839,0.0],[72.6383102,23.014008,0.0],[72.6386572,23.014596,0.0],[72.6385092,23.020546,0.0],[72.6358022,23.02015,0.0],[72.6337532,23.020049,0.0],[72.6283462,23.020157,0.0],[72.6258912,23.020712,0.0],[72.6258112,23.02195,0.0],[72.6235922,23.021428,0.0],[72.6216022,23.022014,0.0],[72.6200312,23.022248,0.0],[72.6140533,23.022086,0.0],[72.6145933,23.023022,0.0],[72.6140063,23.025237,0.0],[72.6134563,23.02601,0.0],[72.6097703,23.025705,0.0],[72.6090223,23.026228,0.0],[72.6065003,23.024619,0.0],[72.60590130000001,23.025435,0.0]]]}},{"type":"Feature","properties":{"ward_id":"37 MANINAGAR","name":"37 MANINAGAR"},"geometry":{"type":"Polygon","coordinates":[[[72.6135517,22.9940032,0.0],[72.6047657,23.0135262,0.0],[72.6013777,23.0125142,0.0],[72.5992248,23.0120492,0.0],[72.5978238,23.0119762,0.0],[72.5974058,23.0117772,0.0],[72.5968358,23.0123652,0.0],[72.5923798,23.0115582,0.0],[72.5928078,23.0102412,0.0],[72.5930598,23.0059772,0.0],[72.5933748,23.0040632,0.0],[72.5931998,23.0006232,0.0],[72.5932508,22.9917082,0.0],[72.5947268,22.9914672,0.0],[72.5955418,22.9890652,0.0],[72.5960348,22.9890542,0.0],[72.5960128,22.9889262,0.0],[72.6036347,22.9886662,0.0],[72.6092197,22.9873372,0.0],[72.6114047,22.9870312,0.0],[72.6112697,22.9878442,0.0],[72.6109197,22.9881812,0.0],[72.6108107,22.9885392,0.0],[72.6102607,22.9886712,0.0],[72.6099427,22.9890722,0.0],[72.6101877,22.9891652,0.0],[72.6105327,22.9904782,0.0],[72.6103367,22.9905232,0.0],[72.6108667,22.9919462,0.0],[72.6139667,22.9908752,0.0],[72.6148577,22.9908082,0.0],[72.6135517,22.9940032,0.0]]]}},{"type":"Feature","properties":{"ward_id":"36 DANILIMDA","name":"36 DANILIMDA"},"geometry":{"type":"Polygon","coordinates":[[[72.5916733,23.0134185,0.0],[72.5912863,23.0139265,0.0],[72.5889003,23.0126485,0.0],[72.5808783,23.0100445,0.0],[72.5802663,23.0079025,0.0],[72.5836873,23.0073385,0.0],[72.5864613,23.0075845,0.0],[72.5866093,23.0047545,0.0],[72.5854043,23.0047395,0.0],[72.5844783,23.0025205,0.0],[72.5835833,23.0016535,0.0],[72.5832963,23.0006885,0.0],[72.5833503,23.0001415,0.0],[72.5821903,22.9993525,0.0],[72.5819403,22.9984025,0.0],[72.5818743,22.9964005,0.0],[72.5791963,22.9956675,0.0],[72.5806363,22.9923405,0.0],[72.5817473,22.9913305,0.0],[72.5826563,22.9900345,0.0],[72.5826703,22.9895535,0.0],[72.5821313,22.9888445,0.0],[72.5819733,22.9881935,0.0],[72.5824533,22.9857655,0.0],[72.5828693,22.9848465,0.0],[72.5836423,22.9838795,0.0],[72.5846503,22.9831155,0.0],[72.5878403,22.9825305,0.0],[72.5893683,22.9831845,0.0],[72.5907423,22.9840285,0.0],[72.59194530000002,22.9857075,0.0],[72.5921983,22.9865835,0.0],[72.5941313,22.9867305,0.0],[72.5944133,22.9866335,0.0],[72.5965933,22.9871455,0.0],[72.5959583,22.9887115,0.0],[72.5960133,22.9890345,0.0],[72.5955203,22.9890455,0.0],[72.5947053,22.9914475,0.0],[72.5932293,22.9916885,0.0],[72.5931783,23.0006035,0.0],[72.5933533,23.0040435,0.0],[72.5930383,23.0059575,0.0],[72.5927863,23.0102215,0.0],[72.5916733,23.0134185,0.0]]]}},{"type":"Feature","properties":{"ward_id":"35 BAHERAMPURA","name":"35 BAHERAMPURA"},"geometry":{"type":"Polygon","coordinates":[[[72.5864613,23.0075449,0.0],[72.5836873,23.0072989,0.0],[72.5802663,23.0078629,0.0],[72.5808783,23.0100049,0.0],[72.5743093,23.0110969,0.0],[72.5727343,23.0076669,0.0],[72.5708943,23.0045799,0.0],[72.5642743,22.9964749,0.0],[72.5511553,22.9860589,0.0],[72.5480273,22.9844269,0.0],[72.5427434,22.9820609,0.0],[72.5435194,22.9808629,0.0],[72.5461073,22.9779409,0.0],[72.5473283,22.9771509,0.0],[72.5500633,22.9761419,0.0],[72.5586733,22.9752999,0.0],[72.5712133,22.9736289,0.0],[72.5827983,22.9726129,0.0],[72.5881052,22.9728379,0.0],[72.5856943,22.9791479,0.0],[72.5858463,22.9795779,0.0],[72.5857533,22.9811689,0.0],[72.5853613,22.9829599,0.0],[72.5846503,22.9830759,0.0],[72.5836423,22.9838399,0.0],[72.5828693,22.9848069,0.0],[72.5824533,22.9857259,0.0],[72.5819733,22.9881539,0.0],[72.5821313,22.9888049,0.0],[72.5826703,22.9895139,0.0],[72.5826563,22.9899949,0.0],[72.5817473,22.9912909,0.0],[72.5806363,22.9923009,0.0],[72.5791963,22.9956279,0.0],[72.5818743,22.9963609,0.0],[72.5819403,22.9983629,0.0],[72.5821903,22.9993129,0.0],[72.5833503,23.0001019,0.0],[72.5832963,23.0006489,0.0],[72.5835833,23.0016139,0.0],[72.5844783,23.0024809,0.0],[72.5854043,23.0046999,0.0],[72.5866093,23.0047149,0.0],[72.5864613,23.0075449,0.0]]]}},{"type":"Feature","properties":{"ward_id":"34 MAKTAMPURA","name":"34 MAKTAMPURA"},"geometry":{"type":"Polygon","coordinates":[[[72.523178,23.004306,0.0],[72.519505,23.003106,0.0],[72.518461,23.003253,0.0],[72.51949,22.993536,0.0],[72.520111,22.991835,0.0],[72.514226,22.98938,0.0],[72.511662,22.988764,0.0],[72.512778,22.986484,0.0],[72.513306,22.984841,0.0],[72.513359,22.978095,0.0],[72.504563,22.967107,0.0],[72.504096,22.966329,0.0],[72.503343,22.962148,0.0],[72.49363,22.960832,0.0],[72.487346,22.957474,0.0],[72.487192,22.956486,0.0],[72.486493,22.956557,0.0],[72.486396,22.954931,0.0],[72.48662,22.953802,0.0],[72.485676,22.953821,0.0],[72.485809,22.949493,0.0],[72.486887,22.948076,0.0],[72.486853,22.947605,0.0],[72.486683,22.947651,0.0],[72.486461,22.946718,0.0],[72.486329,22.94488,0.0],[72.486794,22.942864,0.0],[72.48786,22.941854,0.0],[72.487942,22.941322,0.0],[72.488427,22.940806,0.0],[72.490066,22.940393,0.0],[72.490441,22.940536,0.0],[72.491691,22.940281,0.0],[72.499226,22.942218,0.0],[72.500184,22.942579,0.0],[72.501567,22.943497,0.0],[72.50035,22.93904,0.0],[72.500014,22.93843,0.0],[72.500352,22.936543,0.0],[72.500263,22.934998,0.0],[72.499707,22.934006,0.0],[72.499165,22.933651,0.0],[72.498262,22.933378,0.0],[72.497176,22.932402,0.0],[72.496698,22.931332,0.0],[72.49671,22.929205,0.0],[72.498461,22.929297,0.0],[72.499377,22.929154,0.0],[72.500415,22.928241,0.0],[72.501234,22.927832,0.0],[72.5013,22.92747,0.0],[72.503304,22.92715,0.0],[72.50347,22.927235,0.0],[72.50447,22.926847,0.0],[72.504413,22.926493,0.0],[72.505166,22.923243,0.0],[72.504975,22.922929,0.0],[72.50531,22.92168,0.0],[72.505322,22.920808,0.0],[72.505584,22.919992,0.0],[72.506777,22.920108,0.0],[72.506894,22.918039,0.0],[72.51258,22.918798,0.0],[72.518318,22.921312,0.0],[72.520183,22.921841,0.0],[72.521695,22.922052,0.0],[72.52373,22.923561,0.0],[72.526636,22.924718,0.0],[72.529134,22.926252,0.0],[72.531867,22.925313,0.0],[72.53964,22.932599,0.0],[72.542637,22.935849,0.0],[72.543428,22.938015,0.0],[72.542785,22.943849,0.0],[72.54042,22.948048,0.0],[72.538021,22.950141,0.0],[72.534631,22.9512,0.0],[72.528532,22.95044,0.0],[72.523946,22.949687,0.0],[72.519405,22.950178,0.0],[72.516469,22.95122,0.0],[72.514,22.953016,0.0],[72.51274,22.955483,0.0],[72.5123,22.958067,0.0],[72.512828,22.959501,0.0],[72.515571,22.9652,0.0],[72.519231,22.970486,0.0],[72.522475,22.973676,0.0],[72.536978,22.97879,0.0],[72.54096,22.981319,0.0],[72.543387,22.982377,0.0],[72.540733,22.985875,0.0],[72.534025,22.995437,0.0],[72.535699,22.996015,0.0],[72.535549,22.996113,0.0],[72.535435,22.996804,0.0],[72.535423,22.998445,0.0],[72.534834,22.998493,0.0],[72.534596,22.999514,0.0],[72.536684,22.999724,0.0],[72.53617,23.000736,0.0],[72.534103,23.000422,0.0],[72.532594,22.999539,0.0],[72.531797,22.999539,0.0],[72.531201,22.999656,0.0],[72.530299,23.000757,0.0],[72.52879,23.001863,0.0],[72.527009,23.001672,0.0],[72.523451,23.001681,0.0],[72.523178,23.004306,0.0]]]}},{"type":"Feature","properties":{"ward_id":"33 SARKHEJ","name":"33 SARKHEJ"},"geometry":{"type":"Polygon","coordinates":[[[72.491665,23.009958,0.0],[72.467879,23.010329,0.0],[72.467583,23.008896,0.0],[72.466938,23.008053,0.0],[72.467047,23.007895,0.0],[72.466613,23.006541,0.0],[72.466548,23.005384,0.0],[72.46706,23.005088,0.0],[72.467019,23.004601,0.0],[72.466832,23.003894,0.0],[72.465957,23.003004,0.0],[72.46631,23.001582,0.0],[72.465677,22.99916,0.0],[72.465686,22.997393,0.0],[72.464968,22.995679,0.0],[72.464576,22.993617,0.0],[72.465298,22.993594,0.0],[72.465791,22.993811,0.0],[72.467479,22.99382,0.0],[72.468659,22.991721,0.0],[72.46944,22.989805,0.0],[72.469951,22.989233,0.0],[72.469876,22.98868,0.0],[72.470086,22.988384,0.0],[72.470154,22.987408,0.0],[72.47087,22.986987,0.0],[72.470968,22.986028,0.0],[72.470566,22.983498,0.0],[72.47053,22.981576,0.0],[72.470703,22.981361,0.0],[72.470496,22.979995,0.0],[72.470734,22.977916,0.0],[72.471037,22.976901,0.0],[72.470999,22.97625,0.0],[72.471191,22.976165,0.0],[72.471006,22.97581,0.0],[72.471277,22.975703,0.0],[72.4713,22.975434,0.0],[72.471602,22.97533,0.0],[72.471997,22.974493,0.0],[72.47325,22.973959,0.0],[72.473856,22.97301,0.0],[72.473856,22.97264,0.0],[72.474071,22.972657,0.0],[72.473581,22.971538,0.0],[72.4736,22.970581,0.0],[72.473783,22.970425,0.0],[72.475197,22.970292,0.0],[72.476151,22.970567,0.0],[72.476765,22.970956,0.0],[72.477498,22.970316,0.0],[72.477789,22.970338,0.0],[72.478082,22.970148,0.0],[72.478386,22.969659,0.0],[72.478067,22.96927,0.0],[72.478083,22.968546,0.0],[72.47863,22.968275,0.0],[72.47883,22.966841,0.0],[72.479088,22.966704,0.0],[72.479155,22.965733,0.0],[72.480712,22.965911,0.0],[72.4808,22.964168,0.0],[72.481258,22.962953,0.0],[72.482078,22.962609,0.0],[72.48251,22.9626,0.0],[72.482561,22.962362,0.0],[72.483632,22.961919,0.0],[72.483306,22.961396,0.0],[72.483105,22.961409,0.0],[72.482857,22.961063,0.0],[72.483615,22.959586,0.0],[72.484685,22.959512,0.0],[72.485169,22.959805,0.0],[72.487584,22.959728,0.0],[72.487595,22.957607,0.0],[72.49363,22.960832,0.0],[72.503343,22.962148,0.0],[72.504096,22.966329,0.0],[72.504563,22.967107,0.0],[72.513359,22.978095,0.0],[72.513306,22.984841,0.0],[72.512778,22.986484,0.0],[72.511662,22.988764,0.0],[72.514226,22.98938,0.0],[72.520111,22.991835,0.0],[72.51949,22.993536,0.0],[72.518555,23.002541,0.0],[72.517526,23.002244,0.0],[72.516192,23.001026,0.0],[72.515326,23.00059,0.0],[72.513473,22.999277,0.0],[72.511317,22.99729,0.0],[72.507495,23.002123,0.0],[72.507358,23.00253,0.0],[72.512553,23.006533,0.0],[72.5139,23.007382,0.0],[72.515446,23.007835,0.0],[72.52122,23.008409,0.0],[72.521302,23.009952,0.0],[72.52111,23.013044,0.0],[72.513602,23.012503,0.0],[72.511027,23.01204,0.0],[72.503402,23.01185,0.0],[72.502576,23.012233,0.0],[72.496545,23.011193,0.0],[72.491665,23.009958,0.0]]]}},{"type":"Feature","properties":{"ward_id":"32 VEJALPUR","name":"32 VEJALPUR"},"geometry":{"type":"Polygon","coordinates":[[[72.528726,23.014138,0.0],[72.52657,23.013584,0.0],[72.52111,23.013044,0.0],[72.521302,23.009952,0.0],[72.52122,23.008409,0.0],[72.515446,23.007835,0.0],[72.5139,23.007382,0.0],[72.512553,23.006533,0.0],[72.507358,23.00253,0.0],[72.507495,23.002123,0.0],[72.511317,22.99729,0.0],[72.513473,22.999277,0.0],[72.515326,23.00059,0.0],[72.516192,23.001026,0.0],[72.517526,23.002244,0.0],[72.518555,23.002541,0.0],[72.518461,23.003253,0.0],[72.519505,23.003106,0.0],[72.523178,23.004306,0.0],[72.523451,23.001681,0.0],[72.527009,23.001672,0.0],[72.52879,23.001863,0.0],[72.530299,23.000757,0.0],[72.531201,22.999656,0.0],[72.532594,22.999539,0.0],[72.534103,23.000422,0.0],[72.53617,23.000736,0.0],[72.539253,23.000921,0.0],[72.539852,23.002938,0.0],[72.539868,23.004731,0.0],[72.53952,23.005911,0.0],[72.538423,23.007639,0.0],[72.537613,23.007428,0.0],[72.537056,23.008076,0.0],[72.534596,23.007849,0.0],[72.534335,23.009539,0.0],[72.534039,23.009718,0.0],[72.52978,23.00923,0.0],[72.529653,23.010435,0.0],[72.529201,23.010397,0.0],[72.528726,23.014138,0.0]]]}},{"type":"Feature","properties":{"ward_id":"31 VASNA","name":"31 VASNA"},"geometry":{"type":"Polygon","coordinates":[[[72.54647,23.011434,0.0],[72.546026,23.012598,0.0],[72.543209,23.011387,0.0],[72.539801,23.01021,0.0],[72.534329,23.0096,0.0],[72.534596,23.007849,0.0],[72.537056,23.008076,0.0],[72.537613,23.007428,0.0],[72.538423,23.007639,0.0],[72.53952,23.005911,0.0],[72.539868,23.004731,0.0],[72.539876,23.003664,0.0],[72.539852,23.002938,0.0],[72.539253,23.000921,0.0],[72.53617,23.000736,0.0],[72.536684,22.999724,0.0],[72.534596,22.999514,0.0],[72.534834,22.998493,0.0],[72.535423,22.998445,0.0],[72.535435,22.996804,0.0],[72.535549,22.996113,0.0],[72.535699,22.996015,0.0],[72.534025,22.995437,0.0],[72.540733,22.985875,0.0],[72.543387,22.982377,0.0],[72.548671,22.984743,0.0],[72.551799,22.986375,0.0],[72.564694,22.996625,0.0],[72.561617,22.998677,0.0],[72.560018,22.99924,0.0],[72.558129,23.000212,0.0],[72.553807,23.004411,0.0],[72.553711,23.004679,0.0],[72.553316,23.004905,0.0],[72.549038,23.009141,0.0],[72.546852,23.010873,0.0],[72.54647,23.011434,0.0]]]}},{"type":"Feature","properties":{"ward_id":"30 PALDI","name":"30 PALDI"},"geometry":{"type":"Polygon","coordinates":[[[72.576025,23.022547,0.0],[72.572043,23.022807,0.0],[72.571572,23.022439,0.0],[72.568928,23.022265,0.0],[72.562997,23.020602,0.0],[72.558101,23.019846,0.0],[72.558091,23.019634,0.0],[72.556769,23.019452,0.0],[72.555179,23.020092,0.0],[72.554981,23.019866,0.0],[72.553577,23.019574,0.0],[72.552948,23.019266,0.0],[72.549348,23.016445,0.0],[72.547797,23.01485,0.0],[72.545557,23.01416,0.0],[72.54647,23.011434,0.0],[72.546852,23.010873,0.0],[72.549038,23.009141,0.0],[72.553316,23.004905,0.0],[72.553711,23.004679,0.0],[72.553807,23.004411,0.0],[72.558129,23.000212,0.0],[72.560018,22.99924,0.0],[72.561617,22.998677,0.0],[72.564694,22.996625,0.0],[72.571538,23.004896,0.0],[72.573378,23.007983,0.0],[72.574881,23.01118,0.0],[72.575683,23.013788,0.0],[72.576102,23.01699,0.0],[72.576231,23.020797,0.0],[72.576025,23.022547,0.0]]]}},{"type":"Feature","properties":{"ward_id":"29 JAMALPUR","name":"29 JAMALPUR"},"geometry":{"type":"Polygon","coordinates":[[[72.5795597,23.0357212,0.0],[72.5792827,23.0325132,0.0],[72.5787937,23.0313502,0.0],[72.5774537,23.0318792,0.0],[72.5775287,23.0320872,0.0],[72.5770687,23.0320992,0.0],[72.5768467,23.0344502,0.0],[72.5733927,23.0345062,0.0],[72.5739847,23.0307452,0.0],[72.5748357,23.0271092,0.0],[72.5756087,23.0205402,0.0],[72.5754797,23.0167332,0.0],[72.5750607,23.0135312,0.0],[72.5743307,23.0111562,0.0],[72.5808997,23.0100642,0.0],[72.5889217,23.0126682,0.0],[72.5913077,23.0139462,0.0],[72.5909287,23.0155882,0.0],[72.5910217,23.0167062,0.0],[72.5900657,23.0171612,0.0],[72.58926370000002,23.0183092,0.0],[72.5861917,23.0196392,0.0],[72.5862987,23.0190452,0.0],[72.5857897,23.0166902,0.0],[72.5851467,23.0167442,0.0],[72.5847677,23.0164562,0.0],[72.5838367,23.0164342,0.0],[72.5837087,23.0161232,0.0],[72.5831877,23.0159572,0.0],[72.5834027,23.0167592,0.0],[72.5834087,23.0188642,0.0],[72.5835837,23.0198942,0.0],[72.5840317,23.0211182,0.0],[72.5840537,23.0225882,0.0],[72.5840027,23.0236432,0.0],[72.5836507,23.0241512,0.0],[72.5837237,23.0247682,0.0],[72.5829037,23.0247822,0.0],[72.5830887,23.0292252,0.0],[72.5834217,23.0304152,0.0],[72.5853367,23.0337232,0.0],[72.5843847,23.0337822,0.0],[72.5829017,23.0335932,0.0],[72.5829177,23.0348172,0.0],[72.5823107,23.0353852,0.0],[72.5817177,23.0356882,0.0],[72.5795597,23.0357212,0.0]]]}},{"type":"Feature","properties":{"ward_id":"28 KHADIA","name":"28 KHADIA"},"geometry":{"type":"Polygon","coordinates":[[[72.5949446,23.029569,0.0],[72.5933156,23.031972,0.0],[72.5907796,23.032355,0.0],[72.5905466,23.032183,0.0],[72.5907976,23.030928,0.0],[72.5907866,23.029867,0.0],[72.5891196,23.02788,0.0],[72.5870526,23.027525,0.0],[72.5850246,23.026505,0.0],[72.5830596,23.02641,0.0],[72.5829466,23.024802,0.0],[72.5837666,23.024788,0.0],[72.5836936,23.024171,0.0],[72.5840456,23.023663,0.0],[72.5840966,23.022608,0.0],[72.5840746,23.021138,0.0],[72.5836266,23.019914,0.0],[72.5834516,23.018884,0.0],[72.5834456,23.016779,0.0],[72.5832306,23.015977,0.0],[72.5837516,23.016143,0.0],[72.5838796,23.016454,0.0],[72.5848106,23.016476,0.0],[72.5851896,23.016764,0.0],[72.5858326,23.01671,0.0],[72.5863416,23.019065,0.0],[72.5862346,23.019659,0.0],[72.5893066,23.018329,0.0],[72.5901086,23.017181,0.0],[72.5910646,23.016726,0.0],[72.5909716,23.015608,0.0],[72.5913506,23.013966,0.0],[72.5919646,23.012969,0.0],[72.5924226,23.011578,0.0],[72.5968786,23.012385,0.0],[72.5974486,23.011797,0.0],[72.5978666,23.011996,0.0],[72.5992676,23.012069,0.0],[72.60142060000001,23.012534,0.0],[72.6048086,23.013546,0.0],[72.6018566,23.021196,0.0],[72.6014726,23.022616,0.0],[72.6012706,23.024233,0.0],[72.6011966,23.030389,0.0],[72.6015706,23.033244,0.0],[72.6007696,23.033243,0.0],[72.6003676,23.033058,0.0],[72.5987916,23.031202,0.0],[72.5949446,23.029569,0.0]]]}},{"type":"Feature","properties":{"ward_id":"27 SARASPUR-RAKHIYAL","name":"27 SARASPUR-RAKHIYAL"},"geometry":{"type":"Polygon","coordinates":[[[72.6230971,23.0396123,0.0],[72.6232731,23.0399483,0.0],[72.6214871,23.0394513,0.0],[72.6198581,23.0393833,0.0],[72.6152551,23.0378603,0.0],[72.6127201,23.0366263,0.0],[72.6113541,23.0362353,0.0],[72.6092041,23.0348573,0.0],[72.6091091,23.0335083,0.0],[72.6070881,23.0334473,0.0],[72.6069301,23.0332933,0.0],[72.6068901,23.0327343,0.0],[72.6054941,23.0322603,0.0],[72.6034861,23.0316793,0.0],[72.6028251,23.0326183,0.0],[72.6021921,23.0331843,0.0],[72.6015921,23.0332243,0.0],[72.6012181,23.0303693,0.0],[72.6012901,23.0263993,0.0],[72.6031741,23.0266123,0.0],[72.6037111,23.0269853,0.0],[72.6039341,23.0269243,0.0],[72.6047811,23.0264673,0.0],[72.6052271,23.0257403,0.0],[72.6059871,23.0254943,0.0],[72.6065861,23.0246783,0.0],[72.60910810000001,23.0262873,0.0],[72.6098561,23.0257643,0.0],[72.6135421,23.0260693,0.0],[72.6140921,23.0252963,0.0],[72.6146791,23.0230813,0.0],[72.6141391,23.0221453,0.0],[72.6201171,23.0223073,0.0],[72.6216881,23.0220733,0.0],[72.6236781,23.0214873,0.0],[72.6248541,23.0217033,0.0],[72.6271781,23.0224703,0.0],[72.6268481,23.0244223,0.0],[72.62687210000001,23.0271983,0.0],[72.6266831,23.0276043,0.0],[72.6267011,23.0284843,0.0],[72.6220691,23.0286553,0.0],[72.6223691,23.0348213,0.0],[72.6217231,23.0348763,0.0],[72.6229561,23.0381843,0.0],[72.6219661,23.0385493,0.0],[72.6230971,23.0396123,0.0]]]}},{"type":"Feature","properties":{"ward_id":"26 BAPUNAGAR","name":"26 BAPUNAGAR"},"geometry":{"type":"Polygon","coordinates":[[[72.62996440000002,23.038843,0.0],[72.6278524,23.039394,0.0],[72.6259654,23.040241,0.0],[72.6241814,23.040748,0.0],[72.6231444,23.040047,0.0],[72.6229684,23.039711,0.0],[72.6218374,23.038648,0.0],[72.6228274,23.038283,0.0],[72.6215944,23.034975,0.0],[72.6222404,23.03492,0.0],[72.6219404,23.028754,0.0],[72.6265724,23.028583,0.0],[72.6265544,23.027703,0.0],[72.6267434,23.027297,0.0],[72.62671940000001,23.024521,0.0],[72.6270494,23.022569,0.0],[72.6306374,23.023843,0.0],[72.6327834,23.02386,0.0],[72.6328314,23.024397,0.0],[72.6388733,23.027164,0.0],[72.6391773,23.030813,0.0],[72.6402283,23.039111,0.0],[72.6378604,23.039159,0.0],[72.62996440000002,23.038843,0.0]]]}},{"type":"Feature","properties":{"ward_id":"25 VIRATNAGAR","name":"25 VIRATNAGAR"},"geometry":{"type":"Polygon","coordinates":[[[72.6563877,23.0407136,0.0],[72.6530127,23.0402556,0.0],[72.6523517,23.0399366,0.0],[72.6486487,23.0389866,0.0],[72.6472627,23.0384506,0.0],[72.6459287,23.0382786,0.0],[72.6425017,23.0383886,0.0],[72.6419557,23.0386226,0.0],[72.6402927,23.0388346,0.0],[72.6392417,23.0305366,0.0],[72.6389377,23.0268876,0.0],[72.6328958,23.0241206,0.0],[72.6328478,23.0235836,0.0],[72.6304628,23.0235076,0.0],[72.6258328,23.0218316,0.0],[72.6259128,23.0205936,0.0],[72.6283678,23.0200386,0.0],[72.6337748,23.0199306,0.0],[72.6358238,23.0200316,0.0],[72.6385307,23.0204276,0.0],[72.6386787,23.0144776,0.0],[72.6407837,23.0148796,0.0],[72.6420117,23.0149186,0.0],[72.6422437,23.0177256,0.0],[72.6424157,23.0181956,0.0],[72.6452997,23.0200666,0.0],[72.6478957,23.0212346,0.0],[72.6482457,23.0216046,0.0],[72.6484777,23.0223196,0.0],[72.6487217,23.0245286,0.0],[72.6492367,23.0255896,0.0],[72.6496567,23.0272586,0.0],[72.6496407,23.0285566,0.0],[72.6494767,23.0291736,0.0],[72.6490937,23.0294116,0.0],[72.6486947,23.0306146,0.0],[72.6530747,23.0316496,0.0],[72.6588487,23.0321436,0.0],[72.6587527,23.0337376,0.0],[72.6582507,23.0345256,0.0],[72.65857970000002,23.0346806,0.0],[72.6585997,23.0345446,0.0],[72.6592177,23.0344836,0.0],[72.6597527,23.0345776,0.0],[72.6599907,23.0354486,0.0],[72.6597557,23.0353926,0.0],[72.6596817,23.0356536,0.0],[72.6591807,23.0356496,0.0],[72.6587777,23.0374026,0.0],[72.6588347,23.0387876,0.0],[72.6577847,23.0381546,0.0],[72.6569967,23.0380026,0.0],[72.6562177,23.0380726,0.0],[72.6560097,23.0400076,0.0],[72.65611670000001,23.0405696,0.0],[72.6563877,23.0407136,0.0]]]}},{"type":"Feature","properties":{"ward_id":"24 NIKOL","name":"24 NIKOL"},"geometry":{"type":"Polygon","coordinates":[[[72.6765705,23.0680846,0.0],[72.6759255,23.0681516,0.0],[72.6761845,23.0695296,0.0],[72.6699755,23.0702456,0.0],[72.6656115,23.0709766,0.0],[72.6635195,23.0714796,0.0],[72.6631415,23.0713906,0.0],[72.6628965,23.0690596,0.0],[72.6613155,23.0682606,0.0],[72.6619515,23.0676536,0.0],[72.6623365,23.0657836,0.0],[72.6624135,23.0631006,0.0],[72.6617435,23.0630896,0.0],[72.66209150000002,23.0597046,0.0],[72.6614055,23.0596676,0.0],[72.6613895,23.0588226,0.0],[72.6608445,23.0587686,0.0],[72.6602715,23.0588566,0.0],[72.6596825,23.0594886,0.0],[72.6592285,23.0595096,0.0],[72.6584536,23.0580906,0.0],[72.6578566,23.0539466,0.0],[72.6574546,23.0496636,0.0],[72.6529066,23.0501386,0.0],[72.6535096,23.0483826,0.0],[72.6530826,23.0483176,0.0],[72.65301560000002,23.0475736,0.0],[72.65332060000001,23.0471546,0.0],[72.6543776,23.0472086,0.0],[72.6544786,23.0469056,0.0],[72.6542286,23.0462006,0.0],[72.6545186,23.0457096,0.0],[72.6537796,23.0451966,0.0],[72.6539906,23.0443566,0.0],[72.6535176,23.0437926,0.0],[72.65366260000002,23.0432456,0.0],[72.65314460000002,23.0431556,0.0],[72.6528716,23.0424136,0.0],[72.6528756,23.0418546,0.0],[72.6527156,23.0417346,0.0],[72.6528736,23.0411586,0.0],[72.6533326,23.0409936,0.0],[72.6529806,23.0402556,0.0],[72.6563556,23.0407136,0.0],[72.6560846,23.0405696,0.0],[72.6559776,23.0400076,0.0],[72.6561856,23.0380726,0.0],[72.6569646,23.0380026,0.0],[72.6577526,23.0381546,0.0],[72.6588025,23.0387876,0.0],[72.6587455,23.0374026,0.0],[72.6591485,23.0356496,0.0],[72.6596495,23.0356536,0.0],[72.6597235,23.0353926,0.0],[72.6599585,23.0354486,0.0],[72.6597205,23.0345776,0.0],[72.6591855,23.0344836,0.0],[72.6585676,23.0345446,0.0],[72.6585476,23.0346806,0.0],[72.6582186,23.0345256,0.0],[72.6587205,23.0337376,0.0],[72.6588165,23.0321436,0.0],[72.6610825,23.0319466,0.0],[72.6630025,23.0324476,0.0],[72.6653425,23.0326766,0.0],[72.6672815,23.0326786,0.0],[72.6727525,23.0315066,0.0],[72.6729015,23.0314546,0.0],[72.6739975,23.0285796,0.0],[72.6737785,23.0278456,0.0],[72.6745235,23.0276656,0.0],[72.6762365,23.0278876,0.0],[72.6766225,23.0271786,0.0],[72.6790405,23.0275206,0.0],[72.6793535,23.0245726,0.0],[72.6820435,23.0245176,0.0],[72.6846945,23.0247116,0.0],[72.6848195,23.0258956,0.0],[72.6853005,23.0260976,0.0],[72.6851455,23.0267756,0.0],[72.6853485,23.0283856,0.0],[72.6852035,23.0305456,0.0],[72.6859315,23.0307366,0.0],[72.6865055,23.0312506,0.0],[72.6869115,23.0319026,0.0],[72.6871985,23.0329736,0.0],[72.6885145,23.0332116,0.0],[72.6885135,23.0339556,0.0],[72.6887195,23.0346866,0.0],[72.6868335,23.0346826,0.0],[72.6868375,23.0357226,0.0],[72.6857415,23.0363516,0.0],[72.6852125,23.0369596,0.0],[72.6848325,23.0378086,0.0],[72.6832045,23.0387496,0.0],[72.6832705,23.0388766,0.0],[72.6828345,23.0396976,0.0],[72.6825875,23.0403836,0.0],[72.6826295,23.0432906,0.0],[72.6840435,23.0450616,0.0],[72.6841515,23.0456836,0.0],[72.6839165,23.0466336,0.0],[72.6834875,23.0469586,0.0],[72.6834095,23.0474056,0.0],[72.6827145,23.0473996,0.0],[72.6826925,23.0475466,0.0],[72.6841215,23.0512016,0.0],[72.6842015,23.0535116,0.0],[72.6846065,23.0542766,0.0],[72.6845695,23.0548646,0.0],[72.6836175,23.0564606,0.0],[72.6821305,23.0572266,0.0],[72.6800435,23.0578616,0.0],[72.6801465,23.0587186,0.0],[72.6799045,23.0599956,0.0],[72.6810975,23.0617486,0.0],[72.6809565,23.0634426,0.0],[72.6812975,23.0643726,0.0],[72.6811595,23.0647906,0.0],[72.6814505,23.0651836,0.0],[72.6809495,23.0664396,0.0],[72.6800225,23.0672576,0.0],[72.6775935,23.0679296,0.0],[72.6769745,23.0678626,0.0],[72.6765705,23.0680846,0.0]]]}},{"type":"Feature","properties":{"ward_id":"23 THAKKARBAPANAGAR","name":"23 THAKKARBAPANAGAR"},"geometry":{"type":"Polygon","coordinates":[[[72.6526567,23.0624109,0.0],[72.6520007,23.0623259,0.0],[72.6507607,23.0611579,0.0],[72.6502087,23.0603169,0.0],[72.6503437,23.0600639,0.0],[72.6498887,23.0589859,0.0],[72.6508097,23.0571819,0.0],[72.6511327,23.0569849,0.0],[72.6514887,23.0564269,0.0],[72.6478117,23.0543779,0.0],[72.6467407,23.0566509,0.0],[72.6432357,23.0570879,0.0],[72.6429707,23.0573529,0.0],[72.6412027,23.0459559,0.0],[72.6405938,23.0397549,0.0],[72.6402928,23.0388149,0.0],[72.6419557,23.0386029,0.0],[72.6425017,23.0383689,0.0],[72.6459287,23.0382589,0.0],[72.6472627,23.0384309,0.0],[72.6486487,23.0389669,0.0],[72.6523517,23.0399169,0.0],[72.6528987,23.0401189,0.0],[72.6532257,23.0404529,0.0],[72.6533647,23.0409739,0.0],[72.6529057,23.0411389,0.0],[72.6527477,23.0417149,0.0],[72.6529077,23.0418349,0.0],[72.6529037,23.0423939,0.0],[72.6531767,23.0431359,0.0],[72.6536947,23.0432259,0.0],[72.6535497,23.0437729,0.0],[72.6540227,23.0443369,0.0],[72.6538117,23.0451769,0.0],[72.6545507,23.0456899,0.0],[72.6542607,23.0461809,0.0],[72.6545107,23.0468859,0.0],[72.6544097,23.0471889,0.0],[72.6533527,23.0471349,0.0],[72.6530477,23.0475539,0.0],[72.6531147,23.0482979,0.0],[72.6535417,23.0483629,0.0],[72.6529387,23.0501189,0.0],[72.6574867,23.0496439,0.0],[72.6578887,23.0539269,0.0],[72.6584857,23.0580709,0.0],[72.6592607,23.0594899,0.0],[72.6569257,23.0593349,0.0],[72.6557877,23.0596259,0.0],[72.6556787,23.0600999,0.0],[72.6551937,23.0602449,0.0],[72.6553017,23.0614039,0.0],[72.6551877,23.0621159,0.0],[72.6526167,23.0623019,0.0],[72.6526567,23.0624109,0.0]]]}},{"type":"Feature","properties":{"ward_id":"22 INDIA COLONY","name":"22 INDIA COLONY"},"geometry":{"type":"Polygon","coordinates":[[[72.627261,23.0567931,0.0],[72.626882,23.0567941,0.0],[72.61043,23.0416041,0.0],[72.602465,23.0385451,0.0],[72.600557,23.0380121,0.0],[72.60126,23.0367891,0.0],[72.601429,23.0361921,0.0],[72.6017,23.0346111,0.0],[72.601635,23.0331651,0.0],[72.602235,23.0331251,0.0],[72.602868,23.0325591,0.0],[72.603529,23.0316201,0.0],[72.605537,23.0322011,0.0],[72.606933,23.0326751,0.0],[72.606973,23.0332341,0.0],[72.607131,23.0333881,0.0],[72.609152,23.0334491,0.0],[72.609247,23.0347981,0.0],[72.611397,23.0361761,0.0],[72.612763,23.0365671,0.0],[72.615298,23.0378011,0.0],[72.619901,23.0393241,0.0],[72.62153,23.0393921,0.0],[72.623316,23.0398891,0.0],[72.624353,23.0405901,0.0],[72.626137,23.0400831,0.0],[72.628024,23.0392361,0.0],[72.630136,23.0386851,0.0],[72.638032,23.0390011,0.0],[72.6404,23.0389531,0.0],[72.6407009,23.0398931,0.0],[72.6413099,23.0460941,0.0],[72.6410299,23.0460701,0.0],[72.639257,23.0473211,0.0],[72.636914,23.0479191,0.0],[72.635765,23.0484631,0.0],[72.632676,23.0502681,0.0],[72.632378,23.0516221,0.0],[72.628589,23.0558211,0.0],[72.627261,23.0567931,0.0]]]}},{"type":"Feature","properties":{"ward_id":"21 DARIYAPUR","name":"21 DARIYAPUR"},"geometry":{"type":"Polygon","coordinates":[[[72.5948239,23.0404502,0.0],[72.5935289,23.0407672,0.0],[72.5931509,23.0375902,0.0],[72.5895989,23.0375102,0.0],[72.5831249,23.0389362,0.0],[72.5799169,23.0393452,0.0],[72.5799119,23.0379472,0.0],[72.5795919,23.0357312,0.0],[72.5817499,23.0356982,0.0],[72.5823429,23.0353952,0.0],[72.5829499,23.0348272,0.0],[72.5829339,23.0336032,0.0],[72.5844169,23.0337922,0.0],[72.5853689,23.0337332,0.0],[72.5834539,23.0304252,0.0],[72.5831209,23.0292352,0.0],[72.5830489,23.0264002,0.0],[72.5850139,23.0264952,0.0],[72.5870419,23.0275152,0.0],[72.5891089,23.0278702,0.0],[72.5907759,23.0298572,0.0],[72.5907869,23.0309182,0.0],[72.5905359,23.0321732,0.0],[72.5907689,23.0323452,0.0],[72.5933049,23.0319622,0.0],[72.5949339,23.0295592,0.0],[72.5979499,23.0308242,0.0],[72.5969279,23.0346502,0.0],[72.5977099,23.0348732,0.0],[72.5965579,23.0403972,0.0],[72.5950919,23.0397002,0.0],[72.5948239,23.0404502,0.0]]]}},{"type":"Feature","properties":{"ward_id":"20 JODHPUR","name":"20 JODHPUR"},"geometry":{"type":"Polygon","coordinates":[[[72.494929,23.027922,0.0],[72.490817,23.028506,0.0],[72.490606,23.026227,0.0],[72.491088,23.026184,0.0],[72.491113,23.025556,0.0],[72.491778,23.025456,0.0],[72.491767,23.025073,0.0],[72.491475,23.025099,0.0],[72.491355,23.024574,0.0],[72.489223,23.024667,0.0],[72.489316,23.024228,0.0],[72.488453,23.02343,0.0],[72.486581,23.021149,0.0],[72.484315,23.01955,0.0],[72.483673,23.018528,0.0],[72.481241,23.016368,0.0],[72.479966,23.015461,0.0],[72.478166,23.01452,0.0],[72.477139,23.015247,0.0],[72.476363,23.015244,0.0],[72.474171,23.013844,0.0],[72.470134,23.012312,0.0],[72.470209,23.011828,0.0],[72.469435,23.0116,0.0],[72.469169,23.011945,0.0],[72.468501,23.011594,0.0],[72.468616,23.011118,0.0],[72.467879,23.010329,0.0],[72.491665,23.009958,0.0],[72.496545,23.011193,0.0],[72.502576,23.012233,0.0],[72.503402,23.01185,0.0],[72.511027,23.01204,0.0],[72.513602,23.012503,0.0],[72.522875,23.013167,0.0],[72.52657,23.013584,0.0],[72.528726,23.014138,0.0],[72.529201,23.010397,0.0],[72.529653,23.010435,0.0],[72.52978,23.00923,0.0],[72.534039,23.009718,0.0],[72.534247,23.011229,0.0],[72.534504,23.011303,0.0],[72.534762,23.012528,0.0],[72.535507,23.014539,0.0],[72.53576,23.014952,0.0],[72.536389,23.015228,0.0],[72.536953,23.015873,0.0],[72.536941,23.017478,0.0],[72.536739,23.018631,0.0],[72.534857,23.022292,0.0],[72.534383,23.024002,0.0],[72.532469,23.024792,0.0],[72.531162,23.026373,0.0],[72.530112,23.028432,0.0],[72.528677,23.0294,0.0],[72.527511,23.03069,0.0],[72.525658,23.031878,0.0],[72.524271,23.030433,0.0],[72.523782,23.030423,0.0],[72.523558,23.030236,0.0],[72.521624,23.027734,0.0],[72.518994,23.028017,0.0],[72.517504,23.027648,0.0],[72.515963,23.027874,0.0],[72.512282,23.027364,0.0],[72.507911,23.027159,0.0],[72.507209,23.027403,0.0],[72.501475,23.027771,0.0],[72.494929,23.027922,0.0]]]}},{"type":"Feature","properties":{"ward_id":"19 BODAKDEV","name":"19 BODAKDEV"},"geometry":{"type":"Polygon","coordinates":[[[72.538509,23.051857,0.0],[72.534263,23.052466,0.0],[72.534009,23.045811,0.0],[72.530878,23.046143,0.0],[72.528672,23.041464,0.0],[72.528314,23.040289,0.0],[72.524635,23.042398,0.0],[72.518401,23.044585,0.0],[72.516247,23.046547,0.0],[72.51688,23.047846,0.0],[72.516485,23.047868,0.0],[72.516381,23.047639,0.0],[72.514912,23.047331,0.0],[72.513549,23.04723,0.0],[72.513301,23.047337,0.0],[72.511684,23.047078,0.0],[72.511208,23.045883,0.0],[72.51,23.046223,0.0],[72.508639,23.04635,0.0],[72.506581,23.0458,0.0],[72.506112,23.045527,0.0],[72.50578,23.044524,0.0],[72.505926,23.043809,0.0],[72.504967,23.043167,0.0],[72.504988,23.042221,0.0],[72.503455,23.041974,0.0],[72.501864,23.041493,0.0],[72.501634,23.040976,0.0],[72.499529,23.040279,0.0],[72.49945,23.040431,0.0],[72.496784,23.0399,0.0],[72.495586,23.039262,0.0],[72.495469,23.039527,0.0],[72.495164,23.039292,0.0],[72.494514,23.039439,0.0],[72.493562,23.038848,0.0],[72.493231,23.037307,0.0],[72.493108,23.037245,0.0],[72.491743,23.037591,0.0],[72.488954,23.037401,0.0],[72.488871,23.039288,0.0],[72.489702,23.042565,0.0],[72.489266,23.044209,0.0],[72.488175,23.043751,0.0],[72.487523,23.043743,0.0],[72.487562,23.04299,0.0],[72.487382,23.042041,0.0],[72.486775,23.041993,0.0],[72.485426,23.042213,0.0],[72.48502,23.041933,0.0],[72.483939,23.043103,0.0],[72.483141,23.04344,0.0],[72.480321,23.043164,0.0],[72.477518,23.043195,0.0],[72.476416,23.042918,0.0],[72.475649,23.042166,0.0],[72.475671,23.041885,0.0],[72.47257,23.041214,0.0],[72.472574,23.040477,0.0],[72.472248,23.039743,0.0],[72.472689,23.037952,0.0],[72.476426,23.035685,0.0],[72.476831,23.033413,0.0],[72.476519,23.028979,0.0],[72.475319,23.029424,0.0],[72.474234,23.02505,0.0],[72.475082,23.023513,0.0],[72.475227,23.020861,0.0],[72.476242,23.019451,0.0],[72.477018,23.018844,0.0],[72.478502,23.016325,0.0],[72.478953,23.01621,0.0],[72.47924,23.015772,0.0],[72.479876,23.015499,0.0],[72.481241,23.016368,0.0],[72.483673,23.018528,0.0],[72.484315,23.01955,0.0],[72.486581,23.021149,0.0],[72.488453,23.02343,0.0],[72.489316,23.024228,0.0],[72.489223,23.024667,0.0],[72.491355,23.024574,0.0],[72.491475,23.025099,0.0],[72.491767,23.025073,0.0],[72.491778,23.025456,0.0],[72.491113,23.025556,0.0],[72.491088,23.026184,0.0],[72.490606,23.026227,0.0],[72.490817,23.028506,0.0],[72.494929,23.027922,0.0],[72.501475,23.027771,0.0],[72.507209,23.027403,0.0],[72.507911,23.027159,0.0],[72.512282,23.027364,0.0],[72.515963,23.027874,0.0],[72.517504,23.027648,0.0],[72.518994,23.028017,0.0],[72.521624,23.027734,0.0],[72.523558,23.030236,0.0],[72.523782,23.030423,0.0],[72.524271,23.030433,0.0],[72.525658,23.031878,0.0],[72.527511,23.03069,0.0],[72.528677,23.0294,0.0],[72.530112,23.028432,0.0],[72.531358,23.026076,0.0],[72.532433,23.028959,0.0],[72.5342,23.031824,0.0],[72.536194,23.034151,0.0],[72.539598,23.040906,0.0],[72.542904,23.045451,0.0],[72.544477,23.047927,0.0],[72.546732,23.050665,0.0],[72.547312,23.05194,0.0],[72.547283,23.052072,0.0],[72.546566,23.052199,0.0],[72.545897,23.052173,0.0],[72.545017,23.051879,0.0],[72.544751,23.05147,0.0],[72.544197,23.051434,0.0],[72.541333,23.052174,0.0],[72.540597,23.05198,0.0],[72.538509,23.051857,0.0]]]}},{"type":"Feature","properties":{"ward_id":"18 NAVRANGPURA","name":"18 NAVRANGPURA"},"geometry":{"type":"Polygon","coordinates":[[[72.55426,23.046964,0.0],[72.551236,23.047376,0.0],[72.54713,23.047387,0.0],[72.544477,23.047927,0.0],[72.542904,23.045451,0.0],[72.539598,23.040906,0.0],[72.536194,23.034151,0.0],[72.5342,23.031824,0.0],[72.532433,23.028959,0.0],[72.531358,23.026076,0.0],[72.532469,23.024792,0.0],[72.534383,23.024002,0.0],[72.534857,23.022292,0.0],[72.536739,23.018631,0.0],[72.536941,23.017478,0.0],[72.536953,23.015873,0.0],[72.536389,23.015228,0.0],[72.535608,23.014748,0.0],[72.534762,23.012528,0.0],[72.534504,23.011303,0.0],[72.534247,23.011229,0.0],[72.534039,23.009718,0.0],[72.534335,23.009539,0.0],[72.539801,23.01021,0.0],[72.543209,23.011387,0.0],[72.546026,23.012598,0.0],[72.545557,23.01416,0.0],[72.547797,23.01485,0.0],[72.549348,23.016445,0.0],[72.552948,23.019266,0.0],[72.553577,23.019574,0.0],[72.554981,23.019866,0.0],[72.555179,23.020092,0.0],[72.556769,23.019452,0.0],[72.558091,23.019634,0.0],[72.558101,23.019846,0.0],[72.562997,23.020602,0.0],[72.568928,23.022265,0.0],[72.571572,23.022439,0.0],[72.572043,23.022807,0.0],[72.576025,23.022547,0.0],[72.575458,23.027366,0.0],[72.574607,23.031002,0.0],[72.573977,23.035006,0.0],[72.573807,23.040263,0.0],[72.569894,23.040523,0.0],[72.567289,23.040292,0.0],[72.564612,23.039813,0.0],[72.562899,23.04373,0.0],[72.562439,23.046969,0.0],[72.562486,23.047784,0.0],[72.557224,23.047541,0.0],[72.55426,23.046964,0.0]]]}},{"type":"Feature","properties":{"ward_id":"17 SHAHPUR","name":"17 SHAHPUR"},"geometry":{"type":"Polygon","coordinates":[[[72.5897772,23.0632533,0.0],[72.5860532,23.0612073,0.0],[72.5824962,23.0585293,0.0],[72.5799502,23.0557833,0.0],[72.5783582,23.0536803,0.0],[72.5754672,23.0482113,0.0],[72.5742122,23.0448023,0.0],[72.5732022,23.0401693,0.0],[72.5734142,23.0345063,0.0],[72.5768682,23.0344503,0.0],[72.5770902,23.0320993,0.0],[72.5775502,23.0320873,0.0],[72.5774752,23.0318793,0.0],[72.5788152,23.0313503,0.0],[72.5793042,23.0325133,0.0],[72.5799012,23.0379373,0.0],[72.5799062,23.0393353,0.0],[72.5831142,23.0389263,0.0],[72.5880422,23.0378223,0.0],[72.5889402,23.0414293,0.0],[72.5898392,23.0434063,0.0],[72.5896022,23.0435973,0.0],[72.5897742,23.0480163,0.0],[72.5926922,23.0479453,0.0],[72.5933522,23.0493303,0.0],[72.5915822,23.0524003,0.0],[72.5909962,23.0536013,0.0],[72.5906162,23.0548623,0.0],[72.5898382,23.0615283,0.0],[72.5902022,23.0615313,0.0],[72.5897772,23.0632533,0.0]]]}},{"type":"Feature","properties":{"ward_id":"16 SHAHIBAG","name":"16 SHAHIBAG"},"geometry":{"type":"Polygon","coordinates":[[[72.5970472,23.0630446,0.0],[72.5962022,23.0643336,0.0],[72.5934962,23.0628106,0.0],[72.5914862,23.0619346,0.0],[72.5907732,23.0619156,0.0],[72.5907352,23.0615136,0.0],[72.5898382,23.0615086,0.0],[72.5907852,23.0541906,0.0],[72.5915822,23.0523806,0.0],[72.5933522,23.0493106,0.0],[72.5926922,23.0479256,0.0],[72.5897742,23.0479966,0.0],[72.5896022,23.0435776,0.0],[72.5898392,23.0433866,0.0],[72.5889402,23.0414096,0.0],[72.5880422,23.0378026,0.0],[72.5905492,23.0374076,0.0],[72.5931402,23.0375606,0.0],[72.5935182,23.0407376,0.0],[72.5948132,23.0404206,0.0],[72.5950812,23.0396706,0.0],[72.5965472,23.0403676,0.0],[72.5976992,23.0348436,0.0],[72.5969172,23.0346206,0.0],[72.5979392,23.0307946,0.0],[72.5987702,23.0311626,0.0],[72.6003462,23.0330186,0.0],[72.6007482,23.0332036,0.0],[72.6015492,23.0332046,0.0],[72.6016142,23.0346506,0.0],[72.6013432,23.0362316,0.0],[72.6008102,23.0375266,0.0],[72.5999742,23.0388196,0.0],[72.6002362,23.0402576,0.0],[72.6014812,23.0421456,0.0],[72.6015192,23.0454186,0.0],[72.6043512,23.0455946,0.0],[72.6048192,23.0468486,0.0],[72.6073162,23.0460676,0.0],[72.6075222,23.0486496,0.0],[72.6084332,23.0488356,0.0],[72.6089131,23.0502956,0.0],[72.6116491,23.0548846,0.0],[72.6124701,23.0560006,0.0],[72.6089281,23.0590076,0.0],[72.6051812,23.0595996,0.0],[72.6050902,23.0594066,0.0],[72.6041442,23.0595756,0.0],[72.6038912,23.0593606,0.0],[72.5983812,23.0597596,0.0],[72.5970472,23.0630446,0.0]]]}},{"type":"Feature","properties":{"ward_id":"15 ASARWA","name":"15 ASARWA"},"geometry":{"type":"Polygon","coordinates":[[[72.6180593,23.0600581,0.0],[72.6155703,23.0603721,0.0],[72.6130113,23.0555361,0.0],[72.6124203,23.0559511,0.0],[72.6116063,23.0548451,0.0],[72.6088703,23.0502561,0.0],[72.6083903,23.0487961,0.0],[72.6074793,23.0486101,0.0],[72.6072733,23.0460281,0.0],[72.6047763,23.0468091,0.0],[72.6043083,23.0455551,0.0],[72.6014763,23.0453791,0.0],[72.6014383,23.0421061,0.0],[72.6001933,23.0402181,0.0],[72.5999313,23.0387801,0.0],[72.6004283,23.0380121,0.0],[72.6023363,23.0385451,0.0],[72.6103013,23.0416041,0.0],[72.6267532,23.0567941,0.0],[72.6195563,23.0596361,0.0],[72.6180593,23.0600581,0.0]]]}},{"type":"Feature","properties":{"ward_id":"14 KUBERNAGR","name":"14 KUBERNAGR"},"geometry":{"type":"Polygon","coordinates":[[[72.6424534,23.0816641,0.0],[72.6411364,23.0816481,0.0],[72.6398794,23.0803551,0.0],[72.6392774,23.0803841,0.0],[72.6372684,23.0797261,0.0],[72.6375414,23.0789981,0.0],[72.6368014,23.0787731,0.0],[72.6368044,23.0776701,0.0],[72.6361024,23.0774281,0.0],[72.6359394,23.0763141,0.0],[72.6326184,23.0716551,0.0],[72.6325824,23.0702881,0.0],[72.6320654,23.0696591,0.0],[72.6326914,23.0669921,0.0],[72.6317384,23.0668141,0.0],[72.6318724,23.0661881,0.0],[72.6287864,23.0657231,0.0],[72.6283454,23.0652641,0.0],[72.6288184,23.0648481,0.0],[72.6292294,23.0634601,0.0],[72.6265174,23.0605251,0.0],[72.6241484,23.0599681,0.0],[72.6202684,23.0623041,0.0],[72.6205634,23.0625021,0.0],[72.6203444,23.0628241,0.0],[72.6198704,23.0624561,0.0],[72.6171845,23.0640231,0.0],[72.6153785,23.0604181,0.0],[72.6179735,23.0600581,0.0],[72.6194704,23.0596361,0.0],[72.6266674,23.0567941,0.0],[72.6473974,23.0759261,0.0],[72.6449054,23.0766351,0.0],[72.6448584,23.0773471,0.0],[72.6450884,23.0774761,0.0],[72.6455514,23.0794171,0.0],[72.6447914,23.0797271,0.0],[72.6448934,23.0799961,0.0],[72.6420924,23.0807351,0.0],[72.6424534,23.0816641,0.0]]]}},{"type":"Feature","properties":{"ward_id":"13 SAIJPUR BOGHA","name":"13 SAIJPUR BOGHA"},"geometry":{"type":"Polygon","coordinates":[[[72.6526934,23.0789166,0.0],[72.65219340000002,23.0802176,0.0],[72.6428844,23.0718316,0.0],[72.6357794,23.0650876,0.0],[72.6266675,23.0567546,0.0],[72.6270465,23.0567536,0.0],[72.6283745,23.0557816,0.0],[72.6321635,23.0515826,0.0],[72.6324615,23.0502286,0.0],[72.6355504,23.0484236,0.0],[72.6366994,23.0478796,0.0],[72.6390424,23.0472816,0.0],[72.6408154,23.0460306,0.0],[72.6410954,23.0460546,0.0],[72.6428634,23.0574516,0.0],[72.6432134,23.0621586,0.0],[72.6429724,23.0648196,0.0],[72.6433344,23.0654456,0.0],[72.6482304,23.0710746,0.0],[72.6491564,23.0727096,0.0],[72.6536104,23.0781246,0.0],[72.6526934,23.0789166,0.0]]]}},{"type":"Feature","properties":{"ward_id":"12 NARODA","name":"12 NARODA"},"geometry":{"type":"Polygon","coordinates":[[[72.6833059,23.1023867,0.0],[72.6814079,23.1033787,0.0],[72.6813319,23.1038177,0.0],[72.6817109,23.1042267,0.0],[72.6817859,23.1047007,0.0],[72.6815309,23.1047817,0.0],[72.6812409,23.1070827,0.0],[72.6783539,23.1040247,0.0],[72.65229,23.0801387,0.0],[72.65279,23.0788377,0.0],[72.653707,23.0780457,0.0],[72.649253,23.0726307,0.0],[72.648327,23.0709957,0.0],[72.643431,23.0653667,0.0],[72.643069,23.0647407,0.0],[72.64331,23.0620797,0.0],[72.64296,23.0573727,0.0],[72.643225,23.0571077,0.0],[72.64673,23.0566707,0.0],[72.647801,23.0543977,0.0],[72.651478,23.0564467,0.0],[72.651122,23.0570047,0.0],[72.650799,23.0572017,0.0],[72.649878,23.0590057,0.0],[72.650333,23.0600837,0.0],[72.650198,23.0603367,0.0],[72.65075,23.0611777,0.0],[72.652248,23.0624427,0.0],[72.655177,23.0621357,0.0],[72.655291,23.0614237,0.0],[72.655183,23.0602647,0.0],[72.655668,23.0601197,0.0],[72.655777,23.0596457,0.0],[72.656915,23.0593547,0.0],[72.659704,23.0594887,0.0],[72.660293,23.0588567,0.0],[72.661411,23.0588227,0.0],[72.661427,23.0596677,0.0],[72.662113,23.0597047,0.0],[72.661765,23.0630897,0.0],[72.662435,23.0631007,0.0],[72.662458,23.0637037,0.0],[72.66234,23.0659747,0.0],[72.661973,23.0676537,0.0],[72.661337,23.0682607,0.0],[72.662918,23.0690597,0.0],[72.663163,23.0713907,0.0],[72.663541,23.0714797,0.0],[72.665633,23.0709767,0.0],[72.669997,23.0702457,0.0],[72.6762059,23.0695297,0.0],[72.6799349,23.0692697,0.0],[72.6868449,23.0691517,0.0],[72.6944489,23.0710467,0.0],[72.6968099,23.0712547,0.0],[72.6977279,23.0721307,0.0],[72.6985509,23.0723997,0.0],[72.6990379,23.0721887,0.0],[72.7014909,23.0731027,0.0],[72.6998949,23.0772117,0.0],[72.6959549,23.0764577,0.0],[72.6959369,23.0765827,0.0],[72.6943429,23.0762947,0.0],[72.6898979,23.0759587,0.0],[72.68864890000002,23.0763097,0.0],[72.6881999,23.0768677,0.0],[72.6882299,23.0772967,0.0],[72.6879429,23.0780037,0.0],[72.6878109,23.0790697,0.0],[72.6867659,23.0811877,0.0],[72.6865439,23.0828807,0.0],[72.68596490000002,23.0830117,0.0],[72.6856719,23.0851807,0.0],[72.6847329,23.0852947,0.0],[72.6839449,23.0856207,0.0],[72.6830469,23.0864147,0.0],[72.6854589,23.0876947,0.0],[72.6940539,23.0933657,0.0],[72.6938119,23.0944937,0.0],[72.6933409,23.0953887,0.0],[72.6919739,23.0993807,0.0],[72.6904449,23.1027867,0.0],[72.6868649,23.1022137,0.0],[72.6834599,23.1025137,0.0],[72.6833059,23.1023867,0.0]]]}},{"type":"Feature","properties":{"ward_id":"11 SARDARNAGAR","name":"11 SARDARNAGAR"},"geometry":{"type":"Polygon","coordinates":[[[72.6682624,23.1068936,0.0],[72.6659024,23.1072596,0.0],[72.6656244,23.1052676,0.0],[72.6650524,23.1050556,0.0],[72.6647514,23.1042806,0.0],[72.6638104,23.1041986,0.0],[72.6637504,23.1030806,0.0],[72.6634934,23.1030996,0.0],[72.6629324,23.1016196,0.0],[72.6624354,23.0990836,0.0],[72.6617774,23.0992076,0.0],[72.6616004,23.0984086,0.0],[72.6601974,23.0987296,0.0],[72.6605794,23.0977706,0.0],[72.6602564,23.0974496,0.0],[72.6602864,23.0970526,0.0],[72.6599834,23.0971166,0.0],[72.6590144,23.0965946,0.0],[72.6590344,23.0958026,0.0],[72.6584864,23.0954206,0.0],[72.6567454,23.0947876,0.0],[72.6561924,23.0946566,0.0],[72.6539234,23.0962416,0.0],[72.6531874,23.0968296,0.0],[72.6526424,23.0977346,0.0],[72.6520964,23.0982336,0.0],[72.6517024,23.1002736,0.0],[72.6515184,23.1003786,0.0],[72.6518974,23.1010886,0.0],[72.6518044,23.1017446,0.0],[72.6495304,23.1022666,0.0],[72.6477574,23.0984306,0.0],[72.6438544,23.0932056,0.0],[72.6434434,23.0930926,0.0],[72.6434084,23.0924286,0.0],[72.64313640000002,23.0921296,0.0],[72.6434704,23.0918236,0.0],[72.6436804,23.0919956,0.0],[72.6441604,23.0915706,0.0],[72.6438204,23.0913226,0.0],[72.6439454,23.0909126,0.0],[72.6445994,23.0908716,0.0],[72.6450094,23.0905176,0.0],[72.6439594,23.0906776,0.0],[72.6438464,23.0900786,0.0],[72.6428684,23.0903286,0.0],[72.6424104,23.0902576,0.0],[72.6422794,23.0906096,0.0],[72.6420014,23.0908296,0.0],[72.6417794,23.0907576,0.0],[72.6413724,23.0911646,0.0],[72.6363445,23.0901136,0.0],[72.6334325,23.0897866,0.0],[72.63267850000001,23.0895096,0.0],[72.6294515,23.0890506,0.0],[72.6245395,23.0889666,0.0],[72.6246845,23.0883796,0.0],[72.6244695,23.0881596,0.0],[72.6244735,23.0888026,0.0],[72.62292750000002,23.0890126,0.0],[72.6220655,23.0888416,0.0],[72.6219935,23.0891666,0.0],[72.6178135,23.0892536,0.0],[72.6153235,23.0890916,0.0],[72.6150445,23.0897746,0.0],[72.6143875,23.0897406,0.0],[72.6139295,23.0895126,0.0],[72.6129885,23.0895936,0.0],[72.6123255,23.0892526,0.0],[72.6108305,23.0890576,0.0],[72.6108375,23.0892856,0.0],[72.6091565,23.0890736,0.0],[72.6083915,23.0895136,0.0],[72.6055305,23.0891516,0.0],[72.6056435,23.0887056,0.0],[72.6047285,23.0882486,0.0],[72.6045295,23.0885526,0.0],[72.6034505,23.0880666,0.0],[72.6038265,23.0873416,0.0],[72.6020855,23.0871596,0.0],[72.6016205,23.0865316,0.0],[72.6016175,23.0859936,0.0],[72.6018175,23.0859536,0.0],[72.6014115,23.0851146,0.0],[72.6019015,23.0842456,0.0],[72.6021675,23.0831186,0.0],[72.6045295,23.0857046,0.0],[72.6059995,23.0854576,0.0],[72.6127495,23.0835926,0.0],[72.6151105,23.0830846,0.0],[72.6174285,23.0794586,0.0],[72.6182765,23.0796506,0.0],[72.6219335,23.0794926,0.0],[72.6255185,23.0797546,0.0],[72.6255345,23.0788496,0.0],[72.6263785,23.0791256,0.0],[72.6267565,23.0790536,0.0],[72.6269655,23.0783786,0.0],[72.6281695,23.0784666,0.0],[72.6280525,23.0791746,0.0],[72.6282545,23.0792156,0.0],[72.6284545,23.0787126,0.0],[72.6290455,23.0787296,0.0],[72.6291305,23.0785066,0.0],[72.6298165,23.0786796,0.0],[72.6295415,23.0795466,0.0],[72.6328255,23.0800106,0.0],[72.6339835,23.0799906,0.0],[72.6349085,23.0802496,0.0],[72.6355085,23.0800696,0.0],[72.6357695,23.0780236,0.0],[72.6361055,23.0780756,0.0],[72.6361025,23.0774676,0.0],[72.6368045,23.0777096,0.0],[72.6368015,23.0788126,0.0],[72.6375415,23.0790376,0.0],[72.6372685,23.0797656,0.0],[72.6392775,23.0804236,0.0],[72.6398795,23.0803946,0.0],[72.6411365,23.0816876,0.0],[72.6422724,23.0817796,0.0],[72.6424534,23.0817036,0.0],[72.6420924,23.0807746,0.0],[72.6448934,23.0800356,0.0],[72.6447914,23.0797666,0.0],[72.6455514,23.0794566,0.0],[72.6450884,23.0775156,0.0],[72.6448584,23.0773866,0.0],[72.6449054,23.0766746,0.0],[72.6473974,23.0759656,0.0],[72.6782574,23.1041826,0.0],[72.6811444,23.1072406,0.0],[72.6811104,23.1073636,0.0],[72.6797824,23.1070606,0.0],[72.6791834,23.1071166,0.0],[72.6787544,23.1058486,0.0],[72.6782694,23.1059676,0.0],[72.6780634,23.1055006,0.0],[72.6767784,23.1058336,0.0],[72.6760834,23.1039586,0.0],[72.6754624,23.1046106,0.0],[72.6752494,23.1044336,0.0],[72.6743594,23.1050266,0.0],[72.6731624,23.1052576,0.0],[72.6726724,23.1057776,0.0],[72.6716574,23.1061406,0.0],[72.6682624,23.1068936,0.0]]]}},{"type":"Feature","properties":{"ward_id":"10 S.P.STADIUM","name":"10 S.P.STADIUM"},"geometry":{"type":"Polygon","coordinates":[[[72.572956,23.071244,0.0],[72.571236,23.073117,0.0],[72.570935,23.073657,0.0],[72.570922,23.072369,0.0],[72.566152,23.072329,0.0],[72.568419,23.064579,0.0],[72.568389,23.063622,0.0],[72.56732,23.062423,0.0],[72.567985,23.061859,0.0],[72.56817,23.061509,0.0],[72.568342,23.060433,0.0],[72.568972,23.059221,0.0],[72.570229,23.057955,0.0],[72.571413,23.05708,0.0],[72.572173,23.056725,0.0],[72.572416,23.056418,0.0],[72.572116,23.05269,0.0],[72.571481,23.052711,0.0],[72.571342,23.052924,0.0],[72.568834,23.053024,0.0],[72.566845,23.053471,0.0],[72.567318,23.055185,0.0],[72.564992,23.055616,0.0],[72.562995,23.055482,0.0],[72.565265,23.047085,0.0],[72.562486,23.047784,0.0],[72.562439,23.046969,0.0],[72.562899,23.04373,0.0],[72.564612,23.039813,0.0],[72.567289,23.040292,0.0],[72.569894,23.040523,0.0],[72.573807,23.040263,0.0],[72.574813,23.045059,0.0],[72.576068,23.048468,0.0],[72.578959,23.053937,0.0],[72.580551,23.05604,0.0],[72.583097,23.058786,0.0],[72.586654,23.061464,0.0],[72.590378,23.06351,0.0],[72.590076,23.064569,0.0],[72.589834,23.066756,0.0],[72.588609,23.069917,0.0],[72.587876,23.069723,0.0],[72.587531,23.072632,0.0],[72.587313,23.072683,0.0],[72.586793,23.07181,0.0],[72.58563,23.072285,0.0],[72.5831,23.070261,0.0],[72.577624,23.068977,0.0],[72.577198,23.068989,0.0],[72.575919,23.069484,0.0],[72.572956,23.071244,0.0]]]}},{"type":"Feature","properties":{"ward_id":"09 NARANPURA","name":"09 NARANPURA"},"geometry":{"type":"Polygon","coordinates":[[[72.559028,23.070935,0.0],[72.558254,23.070473,0.0],[72.556814,23.069941,0.0],[72.5536,23.069221,0.0],[72.55205,23.069087,0.0],[72.551231,23.069355,0.0],[72.550957,23.06928,0.0],[72.549335,23.068709,0.0],[72.548879,23.068144,0.0],[72.547,23.06747,0.0],[72.546489,23.066947,0.0],[72.545835,23.065655,0.0],[72.545389,23.063859,0.0],[72.544689,23.062447,0.0],[72.544508,23.061691,0.0],[72.541408,23.061095,0.0],[72.540337,23.060272,0.0],[72.539135,23.059777,0.0],[72.537978,23.059621,0.0],[72.537851,23.05893,0.0],[72.537,23.058956,0.0],[72.536769,23.057216,0.0],[72.53715,23.054,0.0],[72.537829,23.053007,0.0],[72.538614,23.052442,0.0],[72.538736,23.051956,0.0],[72.540597,23.05198,0.0],[72.541333,23.052174,0.0],[72.544197,23.051434,0.0],[72.544751,23.05147,0.0],[72.545017,23.051879,0.0],[72.545897,23.052173,0.0],[72.547283,23.052072,0.0],[72.546732,23.050665,0.0],[72.544477,23.047927,0.0],[72.546616,23.04745,0.0],[72.551236,23.047376,0.0],[72.554497,23.046931,0.0],[72.557224,23.047541,0.0],[72.562433,23.047794,0.0],[72.565265,23.047085,0.0],[72.560923,23.063105,0.0],[72.559028,23.070935,0.0]]]}},{"type":"Feature","properties":{"ward_id":"08 THALTEJ","name":"08 THALTEJ"},"geometry":{"type":"Polygon","coordinates":[[[72.498639,23.10063,0.0],[72.498248,23.100643,0.0],[72.497087,23.099812,0.0],[72.496755,23.099754,0.0],[72.495565,23.099872,0.0],[72.493745,23.09953,0.0],[72.492968,23.099658,0.0],[72.492332,23.09894,0.0],[72.491634,23.098566,0.0],[72.486864,23.098072,0.0],[72.483109,23.097494,0.0],[72.482328,23.097228,0.0],[72.48196,23.096493,0.0],[72.480315,23.09587,0.0],[72.478772,23.094613,0.0],[72.479031,23.093912,0.0],[72.478712,23.092231,0.0],[72.478702,23.089985,0.0],[72.478058,23.088794,0.0],[72.476844,23.087729,0.0],[72.475418,23.087115,0.0],[72.472289,23.085096,0.0],[72.470122,23.084571,0.0],[72.466521,23.084023,0.0],[72.46632,23.083363,0.0],[72.465812,23.083386,0.0],[72.465603,23.083221,0.0],[72.46281,23.0832,0.0],[72.460866,23.084109,0.0],[72.46051,23.08287,0.0],[72.46063,23.082344,0.0],[72.460283,23.08129,0.0],[72.460743,23.080492,0.0],[72.460961,23.079267,0.0],[72.461717,23.079447,0.0],[72.461965,23.079121,0.0],[72.463239,23.079904,0.0],[72.464283,23.080325,0.0],[72.464301,23.080682,0.0],[72.464776,23.080878,0.0],[72.465152,23.080248,0.0],[72.466762,23.08093,0.0],[72.467279,23.079221,0.0],[72.469074,23.076512,0.0],[72.469915,23.075679,0.0],[72.471088,23.074862,0.0],[72.472494,23.074193,0.0],[72.473291,23.073557,0.0],[72.474799,23.071644,0.0],[72.475502,23.068825,0.0],[72.475027,23.068379,0.0],[72.474548,23.068373,0.0],[72.473623,23.068906,0.0],[72.473212,23.067305,0.0],[72.473366,23.066509,0.0],[72.472799,23.063298,0.0],[72.472117,23.06329,0.0],[72.471548,23.06308,0.0],[72.471348,23.062755,0.0],[72.469067,23.062458,0.0],[72.468997,23.061982,0.0],[72.468621,23.061765,0.0],[72.467518,23.061532,0.0],[72.466964,23.061661,0.0],[72.46564,23.061494,0.0],[72.465292,23.061184,0.0],[72.463418,23.060704,0.0],[72.461794,23.061145,0.0],[72.458641,23.062484,0.0],[72.458145,23.06236,0.0],[72.457571,23.062693,0.0],[72.456723,23.062786,0.0],[72.455878,23.062521,0.0],[72.45464,23.063085,0.0],[72.453726,23.062259,0.0],[72.452061,23.061748,0.0],[72.450594,23.060984,0.0],[72.450183,23.055008,0.0],[72.449281,23.052317,0.0],[72.450868,23.05191,0.0],[72.450912,23.051011,0.0],[72.450115,23.049371,0.0],[72.4498,23.047662,0.0],[72.451982,23.046582,0.0],[72.452849,23.046439,0.0],[72.454007,23.046673,0.0],[72.454875,23.046292,0.0],[72.455829,23.046779,0.0],[72.458154,23.047214,0.0],[72.458487,23.047031,0.0],[72.459019,23.047326,0.0],[72.460364,23.047154,0.0],[72.460805,23.047329,0.0],[72.463879,23.04624,0.0],[72.464593,23.046639,0.0],[72.465868,23.046161,0.0],[72.466215,23.046521,0.0],[72.46621,23.047149,0.0],[72.466884,23.048006,0.0],[72.467246,23.048859,0.0],[72.469108,23.048608,0.0],[72.469011,23.047674,0.0],[72.469301,23.045996,0.0],[72.470169,23.043874,0.0],[72.471137,23.042594,0.0],[72.471372,23.041008,0.0],[72.472515,23.041089,0.0],[72.47257,23.041214,0.0],[72.475671,23.041885,0.0],[72.475649,23.042166,0.0],[72.476416,23.042918,0.0],[72.477518,23.043195,0.0],[72.480321,23.043164,0.0],[72.483141,23.04344,0.0],[72.483939,23.043103,0.0],[72.48502,23.041933,0.0],[72.485426,23.042213,0.0],[72.486775,23.041993,0.0],[72.487382,23.042041,0.0],[72.487562,23.04299,0.0],[72.487523,23.043743,0.0],[72.488175,23.043751,0.0],[72.489266,23.044209,0.0],[72.489702,23.042565,0.0],[72.488871,23.039288,0.0],[72.488954,23.037401,0.0],[72.491743,23.037591,0.0],[72.493108,23.037245,0.0],[72.493231,23.037307,0.0],[72.493562,23.038848,0.0],[72.494514,23.039439,0.0],[72.495164,23.039292,0.0],[72.495469,23.039527,0.0],[72.495586,23.039262,0.0],[72.496784,23.0399,0.0],[72.49945,23.040431,0.0],[72.499529,23.040279,0.0],[72.501634,23.040976,0.0],[72.501864,23.041493,0.0],[72.503455,23.041974,0.0],[72.504988,23.042221,0.0],[72.504967,23.043167,0.0],[72.505926,23.043809,0.0],[72.50578,23.044524,0.0],[72.506208,23.045598,0.0],[72.508639,23.04635,0.0],[72.51,23.046223,0.0],[72.511208,23.045883,0.0],[72.511684,23.047078,0.0],[72.513301,23.047337,0.0],[72.513549,23.04723,0.0],[72.514912,23.047331,0.0],[72.516381,23.047639,0.0],[72.516485,23.047868,0.0],[72.51688,23.047846,0.0],[72.516247,23.046547,0.0],[72.518401,23.044585,0.0],[72.524635,23.042398,0.0],[72.528314,23.040289,0.0],[72.528672,23.041464,0.0],[72.530878,23.046143,0.0],[72.534009,23.045811,0.0],[72.534263,23.052466,0.0],[72.538509,23.051857,0.0],[72.538736,23.051956,0.0],[72.538614,23.052442,0.0],[72.537829,23.053007,0.0],[72.53715,23.054,0.0],[72.536769,23.057216,0.0],[72.537,23.058956,0.0],[72.536595,23.058933,0.0],[72.533935,23.059687,0.0],[72.531467,23.061084,0.0],[72.531262,23.061518,0.0],[72.531654,23.06377,0.0],[72.53071,23.064291,0.0],[72.527039,23.067898,0.0],[72.503134,23.057548,0.0],[72.502148,23.058127,0.0],[72.499359,23.059168,0.0],[72.502393,23.060683,0.0],[72.502925,23.061489,0.0],[72.502813,23.061999,0.0],[72.503066,23.062666,0.0],[72.50215,23.064415,0.0],[72.500494,23.064046,0.0],[72.500232,23.064136,0.0],[72.498744,23.066943,0.0],[72.498606,23.067565,0.0],[72.498046,23.068146,0.0],[72.499054,23.07053,0.0],[72.499201,23.071625,0.0],[72.499048,23.073922,0.0],[72.499446,23.074765,0.0],[72.499557,23.075571,0.0],[72.499111,23.075775,0.0],[72.499895,23.078703,0.0],[72.500005,23.080307,0.0],[72.493038,23.083947,0.0],[72.494392,23.086887,0.0],[72.498972,23.099538,0.0],[72.498639,23.10063,0.0]]]}},{"type":"Feature","properties":{"ward_id":"07 GHATLODIA","name":"07 GHATLODIA"},"geometry":{"type":"Polygon","coordinates":[[[72.556814,23.069941,0.0],[72.558254,23.070473,0.0],[72.559324,23.071069,0.0],[72.556775,23.080701,0.0],[72.550542,23.077825,0.0],[72.537557,23.072312,0.0],[72.537136,23.070238,0.0],[72.53732,23.069638,0.0],[72.533807,23.068171,0.0],[72.532929,23.066512,0.0],[72.535053,23.065632,0.0],[72.536316,23.065462,0.0],[72.534316,23.06238,0.0],[72.531654,23.06377,0.0],[72.531262,23.061518,0.0],[72.531467,23.061084,0.0],[72.533935,23.059687,0.0],[72.536595,23.058933,0.0],[72.537851,23.05893,0.0],[72.537978,23.059621,0.0],[72.539135,23.059777,0.0],[72.540337,23.060272,0.0],[72.541408,23.061095,0.0],[72.544508,23.061691,0.0],[72.544689,23.062447,0.0],[72.545389,23.063859,0.0],[72.545835,23.065655,0.0],[72.546489,23.066947,0.0],[72.547,23.06747,0.0],[72.549043,23.068229,0.0],[72.549335,23.068709,0.0],[72.551231,23.069355,0.0],[72.55205,23.069087,0.0],[72.5536,23.069221,0.0],[72.556814,23.069941,0.0]]]}},{"type":"Feature","properties":{"ward_id":"06 NEW WADAJ","name":"06 NEW WADAJ"},"geometry":{"type":"Polygon","coordinates":[[[72.572099,23.086338,0.0],[72.570415,23.086153,0.0],[72.568125,23.085592,0.0],[72.556807,23.080588,0.0],[72.559324,23.071069,0.0],[72.559028,23.070935,0.0],[72.560368,23.065238,0.0],[72.562995,23.055482,0.0],[72.564992,23.055616,0.0],[72.567318,23.055185,0.0],[72.566845,23.053471,0.0],[72.568834,23.053024,0.0],[72.571342,23.052924,0.0],[72.571481,23.052711,0.0],[72.572116,23.05269,0.0],[72.572355,23.05659,0.0],[72.570964,23.057365,0.0],[72.568972,23.059221,0.0],[72.568342,23.060433,0.0],[72.56817,23.061509,0.0],[72.567985,23.061859,0.0],[72.56732,23.062423,0.0],[72.568389,23.063622,0.0],[72.568419,23.064579,0.0],[72.566152,23.072329,0.0],[72.570922,23.072369,0.0],[72.570935,23.073657,0.0],[72.569711,23.07616,0.0],[72.569974,23.076209,0.0],[72.56985,23.076658,0.0],[72.569703,23.076914,0.0],[72.569111,23.076933,0.0],[72.568785,23.077208,0.0],[72.568185,23.078185,0.0],[72.572099,23.086338,0.0]]]}},{"type":"Feature","properties":{"ward_id":"05 RANIP","name":"05 RANIP"},"geometry":{"type":"Polygon","coordinates":[[[72.583165,23.086316,0.0],[72.578294,23.095084,0.0],[72.576339,23.097881,0.0],[72.574245,23.10033,0.0],[72.570438,23.102194,0.0],[72.568403,23.103437,0.0],[72.564076,23.104799,0.0],[72.563042,23.104942,0.0],[72.561335,23.104765,0.0],[72.559464,23.103674,0.0],[72.558717,23.102837,0.0],[72.558039,23.101841,0.0],[72.554732,23.094671,0.0],[72.554257,23.093313,0.0],[72.554218,23.091524,0.0],[72.556807,23.080588,0.0],[72.568125,23.085592,0.0],[72.570415,23.086153,0.0],[72.572099,23.086338,0.0],[72.568185,23.078185,0.0],[72.569111,23.076933,0.0],[72.569703,23.076914,0.0],[72.569974,23.076209,0.0],[72.569711,23.07616,0.0],[72.571236,23.073117,0.0],[72.572956,23.071244,0.0],[72.575919,23.069484,0.0],[72.577198,23.068989,0.0],[72.578281,23.069088,0.0],[72.5831,23.070261,0.0],[72.58563,23.072285,0.0],[72.586793,23.07181,0.0],[72.587708,23.073126,0.0],[72.58603,23.078859,0.0],[72.584515,23.081355,0.0],[72.582989,23.083447,0.0],[72.582046,23.084213,0.0],[72.582666,23.086199,0.0],[72.583165,23.086316,0.0]]]}},{"type":"Feature","properties":{"ward_id":"04 SABARMATI","name":"04 SABARMATI"},"geometry":{"type":"Polygon","coordinates":[[[72.614672,23.105557,0.0],[72.614709,23.106736,0.0],[72.615395,23.10735,0.0],[72.617981,23.108293,0.0],[72.618303,23.110345,0.0],[72.618786,23.111143,0.0],[72.620218,23.112819,0.0],[72.620362,23.113856,0.0],[72.619346,23.11399,0.0],[72.617063,23.113852,0.0],[72.615781,23.113969,0.0],[72.614748,23.114251,0.0],[72.614903,23.116508,0.0],[72.611475,23.114471,0.0],[72.604029,23.109041,0.0],[72.5893,23.09873,0.0],[72.588421,23.101465,0.0],[72.587097,23.100899,0.0],[72.586464,23.100996,0.0],[72.586031,23.100809,0.0],[72.586215,23.101216,0.0],[72.586375,23.10302,0.0],[72.585472,23.103125,0.0],[72.585091,23.101385,0.0],[72.584163,23.101616,0.0],[72.583987,23.10145,0.0],[72.582047,23.101695,0.0],[72.581712,23.101285,0.0],[72.581057,23.101351,0.0],[72.58047,23.101618,0.0],[72.580098,23.101306,0.0],[72.579287,23.101581,0.0],[72.578806,23.101562,0.0],[72.576838,23.102612,0.0],[72.576688,23.101933,0.0],[72.574245,23.10033,0.0],[72.576339,23.097881,0.0],[72.578294,23.095084,0.0],[72.583165,23.086316,0.0],[72.582666,23.086199,0.0],[72.582046,23.084213,0.0],[72.582989,23.083447,0.0],[72.584515,23.081355,0.0],[72.58603,23.078859,0.0],[72.587708,23.073126,0.0],[72.587418,23.072659,0.0],[72.587531,23.072632,0.0],[72.587876,23.069723,0.0],[72.588609,23.069917,0.0],[72.589834,23.066756,0.0],[72.590076,23.064569,0.0],[72.590378,23.06351,0.0],[72.593318,23.065311,0.0],[72.595228,23.066753,0.0],[72.596475,23.068016,0.0],[72.598051,23.070385,0.0],[72.599912,23.074944,0.0],[72.601441,23.083315,0.0],[72.601629,23.086283,0.0],[72.598531,23.089203,0.0],[72.598733,23.08956,0.0],[72.601335,23.091168,0.0],[72.601746,23.092111,0.0],[72.604314,23.09351,0.0],[72.610027,23.09339,0.0],[72.609795,23.095188,0.0],[72.61076,23.096975,0.0],[72.610216,23.099381,0.0],[72.610409,23.100147,0.0],[72.611226,23.101509,0.0],[72.611561,23.101516,0.0],[72.612288,23.103237,0.0],[72.613886,23.103259,0.0],[72.614672,23.105557,0.0]]]}},{"type":"Feature","properties":{"ward_id":"03 CHANDKHEDA","name":"03 CHANDKHEDA"},"geometry":{"type":"Polygon","coordinates":[[[72.584192,23.129448,0.0],[72.583315,23.129845,0.0],[72.583111,23.129591,0.0],[72.582911,23.12743,0.0],[72.5822,23.127471,0.0],[72.581707,23.12652,0.0],[72.580406,23.121802,0.0],[72.580215,23.121781,0.0],[72.579774,23.120392,0.0],[72.578586,23.118392,0.0],[72.578116,23.118496,0.0],[72.577506,23.117596,0.0],[72.577057,23.117739,0.0],[72.575485,23.119593,0.0],[72.57082,23.122128,0.0],[72.569699,23.119094,0.0],[72.569653,23.11825,0.0],[72.569013,23.118012,0.0],[72.568561,23.116213,0.0],[72.567653,23.116088,0.0],[72.567556,23.115786,0.0],[72.566497,23.115684,0.0],[72.564259,23.116176,0.0],[72.564112,23.116042,0.0],[72.563102,23.116348,0.0],[72.562728,23.116298,0.0],[72.562663,23.115401,0.0],[72.56247,23.115305,0.0],[72.567036,23.103894,0.0],[72.568403,23.103437,0.0],[72.570438,23.102194,0.0],[72.574245,23.10033,0.0],[72.576688,23.101933,0.0],[72.576838,23.102612,0.0],[72.578806,23.101562,0.0],[72.579287,23.101581,0.0],[72.580098,23.101306,0.0],[72.58047,23.101618,0.0],[72.581057,23.101351,0.0],[72.581712,23.101285,0.0],[72.582047,23.101695,0.0],[72.583987,23.10145,0.0],[72.584163,23.101616,0.0],[72.585091,23.101385,0.0],[72.585472,23.103125,0.0],[72.586375,23.10302,0.0],[72.586215,23.101216,0.0],[72.586031,23.100809,0.0],[72.586464,23.100996,0.0],[72.587097,23.100899,0.0],[72.588421,23.101465,0.0],[72.5893,23.09873,0.0],[72.604029,23.109041,0.0],[72.611475,23.114471,0.0],[72.614903,23.116508,0.0],[72.614938,23.117195,0.0],[72.615143,23.117645,0.0],[72.615086,23.119752,0.0],[72.6165,23.122251,0.0],[72.614198,23.121987,0.0],[72.614183,23.125095,0.0],[72.613292,23.125429,0.0],[72.612542,23.12548,0.0],[72.612616,23.126304,0.0],[72.610718,23.127255,0.0],[72.610393,23.128176,0.0],[72.608736,23.128482,0.0],[72.606704,23.129337,0.0],[72.602769,23.130137,0.0],[72.601538,23.130315,0.0],[72.601334,23.130179,0.0],[72.601027,23.130337,0.0],[72.599165,23.130142,0.0],[72.598493,23.131187,0.0],[72.59604,23.130091,0.0],[72.595356,23.130192,0.0],[72.59163,23.129748,0.0],[72.591488,23.129436,0.0],[72.589706,23.129021,0.0],[72.589562,23.128764,0.0],[72.588914,23.128649,0.0],[72.588559,23.129332,0.0],[72.587972,23.129247,0.0],[72.587617,23.129941,0.0],[72.585433,23.12932,0.0],[72.585054,23.129651,0.0],[72.584192,23.129448,0.0]]]}},{"type":"Feature","properties":{"ward_id":"02 CHANDLODIA","name":"02 CHANDLODIA"},"geometry":{"type":"Polygon","coordinates":[[[72.56032,23.139035,0.0],[72.558819,23.139322,0.0],[72.55884,23.137894,0.0],[72.558576,23.138135,0.0],[72.557823,23.137901,0.0],[72.557814,23.137416,0.0],[72.557395,23.136784,0.0],[72.557533,23.136176,0.0],[72.556803,23.136229,0.0],[72.553243,23.134697,0.0],[72.551694,23.13432,0.0],[72.551081,23.133597,0.0],[72.549824,23.133172,0.0],[72.549087,23.131137,0.0],[72.546718,23.132212,0.0],[72.546126,23.131085,0.0],[72.542379,23.131852,0.0],[72.542411,23.131968,0.0],[72.54202,23.132201,0.0],[72.535677,23.111041,0.0],[72.53804,23.110339,0.0],[72.541114,23.108342,0.0],[72.543991,23.106115,0.0],[72.547871,23.105177,0.0],[72.547261,23.103008,0.0],[72.545687,23.098782,0.0],[72.540477,23.085957,0.0],[72.540229,23.084575,0.0],[72.540311,23.083677,0.0],[72.538151,23.083001,0.0],[72.536183,23.08196,0.0],[72.535593,23.081411,0.0],[72.534682,23.082033,0.0],[72.532842,23.083923,0.0],[72.531609,23.075894,0.0],[72.531857,23.075607,0.0],[72.534675,23.075851,0.0],[72.538689,23.076722,0.0],[72.539352,23.076668,0.0],[72.539633,23.076497,0.0],[72.541576,23.074068,0.0],[72.550542,23.077825,0.0],[72.556775,23.080701,0.0],[72.554218,23.091524,0.0],[72.554257,23.093313,0.0],[72.554732,23.094671,0.0],[72.558039,23.101841,0.0],[72.559464,23.103674,0.0],[72.561335,23.104765,0.0],[72.56215,23.104924,0.0],[72.564076,23.104799,0.0],[72.567036,23.103894,0.0],[72.56247,23.115305,0.0],[72.562663,23.115401,0.0],[72.562728,23.116298,0.0],[72.563102,23.116348,0.0],[72.563546,23.116925,0.0],[72.564559,23.119259,0.0],[72.565471,23.12039,0.0],[72.566143,23.12253,0.0],[72.566462,23.122707,0.0],[72.567504,23.124004,0.0],[72.568029,23.125332,0.0],[72.567994,23.126208,0.0],[72.568458,23.127492,0.0],[72.568371,23.12818,0.0],[72.568629,23.12874,0.0],[72.568484,23.131028,0.0],[72.568267,23.131277,0.0],[72.567694,23.133278,0.0],[72.566755,23.133849,0.0],[72.566208,23.134785,0.0],[72.565916,23.13474,0.0],[72.56599,23.13622,0.0],[72.562154,23.138285,0.0],[72.560697,23.138709,0.0],[72.560739,23.138821,0.0],[72.56032,23.139035,0.0]]]}},{"type":"Feature","properties":{"ward_id":"01 GOTA","name":"01 GOTA"},"geometry":{"type":"Polygon","coordinates":[[[72.510832,23.13876,0.0],[72.507136,23.138867,0.0],[72.506774,23.138723,0.0],[72.506671,23.138246,0.0],[72.50566,23.138037,0.0],[72.50575,23.136938,0.0],[72.505967,23.136912,0.0],[72.505966,23.134807,0.0],[72.506851,23.133859,0.0],[72.506994,23.133233,0.0],[72.506949,23.131814,0.0],[72.506579,23.131497,0.0],[72.505584,23.131397,0.0],[72.505528,23.130604,0.0],[72.504262,23.129586,0.0],[72.503765,23.129481,0.0],[72.503049,23.126768,0.0],[72.501159,23.124927,0.0],[72.500958,23.124434,0.0],[72.500421,23.123949,0.0],[72.499757,23.12373,0.0],[72.500292,23.122522,0.0],[72.500361,23.122007,0.0],[72.500084,23.121044,0.0],[72.500431,23.11831,0.0],[72.500073,23.116002,0.0],[72.498573,23.115429,0.0],[72.497282,23.114012,0.0],[72.497677,23.113153,0.0],[72.498203,23.112722,0.0],[72.499005,23.112487,0.0],[72.499354,23.11123,0.0],[72.499251,23.110119,0.0],[72.499836,23.10834,0.0],[72.49987,23.107796,0.0],[72.499529,23.106591,0.0],[72.498454,23.104532,0.0],[72.498506,23.101911,0.0],[72.498468,23.101213,0.0],[72.498248,23.100643,0.0],[72.498639,23.10063,0.0],[72.498972,23.099538,0.0],[72.494392,23.086887,0.0],[72.493038,23.083947,0.0],[72.500005,23.080307,0.0],[72.499895,23.078703,0.0],[72.499111,23.075775,0.0],[72.499557,23.075571,0.0],[72.499446,23.074765,0.0],[72.499048,23.073922,0.0],[72.499201,23.071625,0.0],[72.499054,23.07053,0.0],[72.498046,23.068146,0.0],[72.498606,23.067565,0.0],[72.498744,23.066943,0.0],[72.500232,23.064136,0.0],[72.500494,23.064046,0.0],[72.50215,23.064415,0.0],[72.503066,23.062666,0.0],[72.502813,23.061999,0.0],[72.502925,23.061489,0.0],[72.502393,23.060683,0.0],[72.499359,23.059168,0.0],[72.502148,23.058127,0.0],[72.503134,23.057548,0.0],[72.527039,23.067898,0.0],[72.53071,23.064291,0.0],[72.534316,23.06238,0.0],[72.536316,23.065462,0.0],[72.535053,23.065632,0.0],[72.532929,23.066512,0.0],[72.533807,23.068171,0.0],[72.53732,23.069638,0.0],[72.537136,23.070238,0.0],[72.537557,23.072312,0.0],[72.541576,23.074068,0.0],[72.539633,23.076497,0.0],[72.539352,23.076668,0.0],[72.538689,23.076722,0.0],[72.534675,23.075851,0.0],[72.531857,23.075607,0.0],[72.531609,23.075894,0.0],[72.532842,23.083923,0.0],[72.534682,23.082033,0.0],[72.535593,23.081411,0.0],[72.536183,23.08196,0.0],[72.538151,23.083001,0.0],[72.540311,23.083677,0.0],[72.540229,23.084575,0.0],[72.540477,23.085957,0.0],[72.545687,23.098782,0.0],[72.547261,23.103008,0.0],[72.547871,23.105177,0.0],[72.543991,23.106115,0.0],[72.541114,23.108342,0.0],[72.53804,23.110339,0.0],[72.535677,23.111041,0.0],[72.54202,23.132201,0.0],[72.541628,23.132434,0.0],[72.540765,23.131913,0.0],[72.540763,23.131756,0.0],[72.538626,23.13159,0.0],[72.537564,23.131736,0.0],[72.537034,23.132374,0.0],[72.535824,23.131752,0.0],[72.533796,23.130163,0.0],[72.533953,23.131232,0.0],[72.533883,23.131824,0.0],[72.533147,23.133618,0.0],[72.532317,23.137175,0.0],[72.531909,23.138201,0.0],[72.530364,23.138309,0.0],[72.529895,23.139476,0.0],[72.526981,23.140211,0.0],[72.5253,23.140458,0.0],[72.523394,23.138594,0.0],[72.5206,23.137751,0.0],[72.518859,23.137496,0.0],[72.513467,23.137662,0.0],[72.511788,23.137522,0.0],[72.511329,23.13759,0.0],[72.510832,23.13876,0.0]]]}}],"bbox":[72.449281,22.9139487,72.7014909,23.140458]}