{"type":"FeatureCollection","features":[{"type":"Feature","properties":{"ward_id":"1","name":"01 Dhanori - Vishrantwadi"},"geometry":{"type":"Polygon","coordinates":[[[73.90806,18.60183],[73.90774,18.60102],[73.90818,18.60102],[73.90813,18.60054],[73.90774,18.59968],[73.90798,18.59946],[73.90829,18.5986],[73.90786,18.59825],[73.9078,18.59712],[73.90679,18.59677],[73.90577,18.59586],[73.9054,18.59527],[73.90502,18.59416],[73.90473,18.59384],[73.9036,18.59355],[73.90303,18.59319],[73.90285,18.5926],[73.90324,18.59186],[73.90322,18.5914],[73.90269,18.58956],[73.90207,18.5893],[73.90168,18.58878],[73.90036,18.5889],[73.90027,18.58832],[73.89573,18.58858],[73.89447,18.58438],[73.8946,18.5837],[73.89503,18.58297],[73.89474,18.58222],[73.89395,18.5816],[73.89344,18.58145],[73.89294,18.58095],[73.89067,18.58064],[73.88859,18.57955],[73.8878,18.57962],[73.88675,18.57845],[73.88582,18.57804],[73.88541,18.57791],[73.88533,18.57833],[73.88398,18.5784],[73.88397,18.5781],[73.88222,18.57754],[73.88217,18.57587],[73.88241,18.57558],[73.88239,18.57466],[73.88183,18.57342],[73.88184,18.57311],[73.87817,18.57276],[73.87677,18.57545],[73.8764,18.5799],[73.87622,18.58055],[73.87535,18.58208],[73.8766,18.5821],[73.87663,18.58292],[73.87511,18.58296],[73.87512,18.58227],[73.87337,18.5824],[73.87344,18.58295],[73.87239,18.5828],[73.87252,18.5825],[73.87185,18.58241],[73.87166,18.58207],[73.87191,18.58208],[73.87188,18.58099],[73.87165,18.58098],[73.87168,18.57937],[73.8723,18.57923],[73.87235,18.57909],[73.87182,18.57898],[73.87052,18.57609],[73.867,18.57944],[73.86529,18.58192],[73.86423,18.58281],[73.86314,18.58319],[73.86097,18.58315],[73.8606,18.58577],[73.86041,18.58646],[73.85988,18.58732],[73.85994,18.58753],[73.86022,18.58793],[73.86273,18.58771],[73.8627,18.58922],[73.86357,18.59173],[73.8641,18.59389],[73.86579,18.59699],[73.86873,18.60181],[73.87276,18.59968],[73.87476,18.59993],[73.87747,18.59952],[73.8863,18.59928],[73.8867,18.59943],[73.88791,18.60694],[73.88923,18.61111],[73.88991,18.61134],[73.89078,18.61289],[73.8921,18.61727],[73.89212,18.61819],[73.89335,18.62185],[73.89662,18.62091],[73.89775,18.62014],[73.89844,18.62002],[73.90042,18.61914],[73.9042,18.61707],[73.90602,18.61654],[73.906,18.61558],[73.90655,18.61269],[73.90643,18.61146],[73.90677,18.61136],[73.90668,18.61087],[73.90642,18.61079],[73.90622,18.61023],[73.90747,18.60666],[73.90787,18.60333],[73.9083,18.60305],[73.90806,18.60183]]]}},{"type":"Feature","properties":{"ward_id":"2","name":"02 Tingrenagar - Sanjay Park"},"geometry":{"type":"Polygon","coordinates":[[[73.91178,18.59201],[73.91281,18.59194],[73.91328,18.59165],[73.91257,18.58766],[73.91243,18.58714],[73.91215,18.58686],[73.91015,18.58611],[73.90519,18.58536],[73.90432,18.58458],[73.90268,18.58358],[73.90251,18.58323],[73.90393,18.57856],[73.90796,18.57813],[73.90794,18.57737],[73.91239,18.57717],[73.9124,18.57675],[73.91474,18.57632],[73.91418,18.57354],[73.91214,18.57394],[73.91114,18.57061],[73.91093,18.56874],[73.91083,18.56511],[73.91092,18.56446],[73.91191,18.56455],[73.91193,18.56425],[73.91093,18.56419],[73.91081,18.56198],[73.91033,18.56204],[73.91032,18.55961],[73.90938,18.55967],[73.90937,18.55881],[73.90899,18.5588],[73.90896,18.55861],[73.90904,18.558],[73.90929,18.55753],[73.90783,18.55661],[73.90685,18.55574],[73.90646,18.55621],[73.90644,18.55936],[73.90696,18.56388],[73.90701,18.565],[73.90668,18.56669],[73.90683,18.56807],[73.9051,18.56813],[73.90519,18.56964],[73.90505,18.56951],[73.90393,18.56945],[73.90137,18.5696],[73.90097,18.57004],[73.90096,18.57038],[73.90117,18.57044],[73.90081,18.5716],[73.90037,18.57177],[73.89989,18.57269],[73.89852,18.57092],[73.89702,18.56817],[73.89365,18.56424],[73.89204,18.56106],[73.88492,18.5647],[73.8849,18.56493],[73.88525,18.56552],[73.88541,18.5669],[73.88541,18.56909],[73.8848,18.57205],[73.88482,18.57218],[73.88507,18.57221],[73.88513,18.5735],[73.88379,18.57337],[73.88379,18.57307],[73.88262,18.57203],[73.88246,18.57122],[73.88152,18.57135],[73.88014,18.57041],[73.87921,18.56893],[73.87881,18.57086],[73.87811,18.57265],[73.87817,18.57276],[73.88184,18.57311],[73.88183,18.57342],[73.88239,18.57466],[73.88241,18.57558],[73.88217,18.57587],[73.88222,18.57754],[73.88397,18.5781],[73.88398,18.5784],[73.88533,18.57833],[73.88541,18.57791],[73.88582,18.57804],[73.88675,18.57845],[73.8878,18.57962],[73.88859,18.57955],[73.89067,18.58064],[73.89294,18.58095],[73.89344,18.58145],[73.89395,18.5816],[73.89474,18.58222],[73.89503,18.58297],[73.8946,18.5837],[73.89447,18.58438],[73.89573,18.58858],[73.90027,18.58832],[73.90029,18.58884],[73.90052,18.58894],[73.90174,18.58884],[73.90181,18.58856],[73.90494,18.58818],[73.90767,18.58848],[73.90748,18.5909],[73.90982,18.59184],[73.91178,18.59201]]]}},{"type":"Feature","properties":{"ward_id":"3","name":"03 Lohegaon - Vimannagar"},"geometry":{"type":"Polygon","coordinates":[[[73.92685,18.6209],[73.93448,18.61977],[73.93577,18.62003],[73.93938,18.62017],[73.94091,18.61931],[73.94181,18.61928],[73.94253,18.61948],[73.94287,18.61984],[73.94327,18.61998],[73.94427,18.61983],[73.94582,18.62024],[73.94734,18.62038],[73.95244,18.62001],[73.95392,18.62055],[73.95488,18.62056],[73.95689,18.62015],[73.9574,18.61969],[73.95988,18.61994],[73.96074,18.62023],[73.96329,18.62036],[73.96404,18.6194],[73.96561,18.61878],[73.96549,18.61836],[73.96479,18.61816],[73.96419,18.61749],[73.96588,18.60974],[73.96597,18.60775],[73.96583,18.60732],[73.96473,18.60724],[73.96408,18.60703],[73.96409,18.60717],[73.96182,18.60668],[73.96163,18.6063],[73.96177,18.60429],[73.96129,18.59824],[73.95901,18.59779],[73.95902,18.5965],[73.95857,18.59418],[73.95811,18.59246],[73.95784,18.59238],[73.95748,18.59018],[73.9574,18.58993],[73.95682,18.58996],[73.95667,18.58982],[73.95671,18.58319],[73.95613,18.57775],[73.95611,18.57605],[73.95569,18.57502],[73.95569,18.57425],[73.95414,18.57016],[73.94844,18.56755],[73.94688,18.5664],[73.94383,18.56488],[73.94353,18.56496],[73.94358,18.56515],[73.94459,18.56632],[73.94525,18.5667],[73.94813,18.56774],[73.94658,18.57006],[73.94359,18.57398],[73.94679,18.57398],[73.94678,18.57662],[73.94133,18.57688],[73.94127,18.57649],[73.94341,18.57594],[73.94341,18.57445],[73.93779,18.57379],[73.93746,18.5759],[73.93451,18.57595],[73.93455,18.57546],[73.93602,18.57347],[73.93467,18.57295],[73.93411,18.57255],[73.93382,18.57277],[73.93364,18.57341],[73.93226,18.57484],[73.93136,18.57498],[73.93089,18.57413],[73.93083,18.57329],[73.93045,18.57296],[73.93139,18.57211],[73.93114,18.57187],[73.93021,18.57274],[73.92868,18.57135],[73.92811,18.57168],[73.92732,18.56988],[73.92745,18.56847],[73.93025,18.56843],[73.93028,18.56814],[73.93076,18.56822],[73.93083,18.5684],[73.93125,18.5684],[73.93132,18.56825],[73.93242,18.56831],[73.9342,18.56866],[73.93445,18.5636],[73.92769,18.56301],[73.92469,18.56291],[73.91545,18.56031],[73.91075,18.55864],[73.90915,18.55779],[73.90896,18.55861],[73.90899,18.5588],[73.90937,18.55881],[73.90938,18.55967],[73.91032,18.55961],[73.91033,18.56204],[73.91081,18.56198],[73.91093,18.56419],[73.91193,18.56425],[73.91191,18.56455],[73.91092,18.56446],[73.91083,18.56511],[73.91107,18.57015],[73.91196,18.57364],[73.91214,18.57394],[73.91418,18.57354],[73.91474,18.57632],[73.9124,18.57675],[73.91239,18.57717],[73.90794,18.57737],[73.90796,18.57813],[73.90393,18.57856],[73.90255,18.58288],[73.90251,18.58323],[73.90268,18.58358],[73.90432,18.58458],[73.90519,18.58536],[73.91015,18.58611],[73.91215,18.58686],[73.91243,18.58714],[73.91257,18.58766],[73.91328,18.59165],[73.91304,18.59188],[73.91243,18.592],[73.91047,18.59198],[73.90748,18.5909],[73.90767,18.58848],[73.90494,18.58818],[73.90181,18.58856],[73.90174,18.58884],[73.90207,18.5893],[73.90269,18.58956],[73.90292,18.59],[73.90324,18.59186],[73.90285,18.5926],[73.90303,18.59319],[73.9036,18.59355],[73.90473,18.59384],[73.90502,18.59416],[73.9054,18.59527],[73.90577,18.59586],[73.90679,18.59677],[73.9078,18.59712],[73.90786,18.59825],[73.90829,18.5986],[73.90798,18.59946],[73.90774,18.59968],[73.90813,18.60054],[73.90818,18.60102],[73.90774,18.60102],[73.90771,18.60121],[73.90806,18.60183],[73.9083,18.60305],[73.90787,18.60333],[73.90747,18.60666],[73.90622,18.61023],[73.90642,18.61079],[73.90668,18.61087],[73.90677,18.61136],[73.90643,18.61146],[73.90655,18.61269],[73.90587,18.61705],[73.90665,18.61705],[73.90994,18.61768],[73.91138,18.61827],[73.91385,18.61841],[73.91559,18.61831],[73.9191,18.61892],[73.92228,18.62003],[73.9236,18.62067],[73.92685,18.6209]]]}},{"type":"Feature","properties":{"ward_id":"4","name":"04 East Kharadi - Wagholi"},"geometry":{"type":"Polygon","coordinates":[[[74.00909,18.60617],[74.01084,18.6036],[74.01304,18.6023],[74.01341,18.60146],[74.01404,18.60108],[74.01492,18.60082],[74.01574,18.59625],[74.01611,18.59584],[74.01816,18.5951],[74.01838,18.59469],[74.01661,18.59442],[74.01713,18.59253],[74.0167,18.59168],[74.01579,18.59091],[74.0078,18.5787],[74.005,18.57644],[74.00348,18.57144],[74.00074,18.56381],[73.99651,18.56449],[73.99606,18.56446],[73.99594,18.56403],[73.99349,18.56413],[73.99196,18.56493],[73.98947,18.5675],[73.98529,18.56859],[73.98524,18.56914],[73.98243,18.56935],[73.98222,18.56842],[73.98099,18.5684],[73.9802,18.56671],[73.97967,18.56595],[73.97853,18.56267],[73.97769,18.56136],[73.97615,18.56024],[73.97524,18.55844],[73.97517,18.55323],[73.97543,18.55303],[73.97507,18.5526],[73.975,18.55073],[73.97437,18.55064],[73.97404,18.55034],[73.97213,18.5461],[73.97045,18.54315],[73.97048,18.54296],[73.97157,18.54225],[73.97252,18.54114],[73.97231,18.54102],[73.96932,18.54303],[73.96697,18.54331],[73.9642,18.5442],[73.96104,18.54589],[73.96085,18.54628],[73.95972,18.5467],[73.95838,18.54688],[73.95681,18.54677],[73.95437,18.54593],[73.95349,18.54579],[73.94956,18.54566],[73.94985,18.54669],[73.9497,18.54706],[73.94903,18.54773],[73.94888,18.54837],[73.94769,18.54859],[73.94545,18.54856],[73.93708,18.55081],[73.93735,18.55169],[73.93755,18.55414],[73.93873,18.5624],[73.93822,18.56234],[73.93543,18.56343],[73.93457,18.56346],[73.93445,18.5636],[73.9342,18.56866],[73.93242,18.56831],[73.93132,18.56825],[73.93125,18.5684],[73.93083,18.5684],[73.93076,18.56822],[73.93028,18.56814],[73.93025,18.56843],[73.92745,18.56847],[73.92732,18.56988],[73.92745,18.57035],[73.92811,18.57168],[73.92868,18.57135],[73.93021,18.57274],[73.93114,18.57187],[73.93139,18.57211],[73.93045,18.57296],[73.93083,18.57329],[73.93089,18.57413],[73.93136,18.57498],[73.93226,18.57484],[73.93364,18.57341],[73.93382,18.57277],[73.93411,18.57255],[73.93467,18.57295],[73.93602,18.57347],[73.93455,18.57546],[73.93451,18.57595],[73.93746,18.5759],[73.93779,18.57379],[73.94341,18.57445],[73.94341,18.57594],[73.94127,18.57649],[73.94133,18.57688],[73.94678,18.57662],[73.94679,18.57398],[73.94359,18.57398],[73.94658,18.57006],[73.94813,18.56774],[73.94525,18.5667],[73.94459,18.56632],[73.94353,18.56496],[73.94383,18.56488],[73.94688,18.5664],[73.94844,18.56755],[73.95414,18.57016],[73.95569,18.57425],[73.95569,18.57502],[73.95611,18.57605],[73.95613,18.57775],[73.95671,18.58319],[73.95667,18.58982],[73.95682,18.58996],[73.9574,18.58993],[73.95748,18.59018],[73.95784,18.59238],[73.95811,18.59246],[73.95857,18.59418],[73.95902,18.5965],[73.95901,18.59779],[73.96129,18.59824],[73.96177,18.60429],[73.96163,18.6063],[73.96182,18.60668],[73.96409,18.60717],[73.96408,18.60703],[73.96473,18.60724],[73.96583,18.60732],[73.96825,18.60396],[73.97185,18.6034],[73.97547,18.60323],[73.97636,18.60295],[73.98144,18.60319],[73.98255,18.60389],[73.98318,18.6038],[73.98428,18.6042],[73.98612,18.60569],[73.99268,18.60705],[73.99646,18.60868],[73.9984,18.6099],[73.99993,18.61112],[74.0007,18.61145],[74.00263,18.61327],[74.00441,18.61399],[74.00539,18.61271],[74.00551,18.61173],[74.00653,18.61023],[74.00783,18.60858],[74.00862,18.60808],[74.00909,18.60617]]]}},{"type":"Feature","properties":{"ward_id":"5","name":"05 West Kharadi - Vadgaon Sheri"},"geometry":{"type":"Polygon","coordinates":[[[73.93445,18.5636],[73.93457,18.56346],[73.93543,18.56343],[73.93822,18.56234],[73.93873,18.5624],[73.93755,18.55414],[73.93735,18.55169],[73.93708,18.55081],[73.94545,18.54856],[73.94769,18.54859],[73.94888,18.54837],[73.94903,18.54773],[73.9497,18.54706],[73.94985,18.54669],[73.94956,18.54566],[73.94722,18.54568],[73.94612,18.54551],[73.94508,18.545],[73.94391,18.54414],[73.94284,18.54267],[73.94033,18.5372],[73.93931,18.53612],[73.93831,18.53578],[73.93377,18.53603],[73.93462,18.5399],[73.93182,18.53993],[73.93134,18.54276],[73.93065,18.54546],[73.92902,18.5503],[73.92866,18.55281],[73.92731,18.55282],[73.92734,18.55327],[73.92596,18.55339],[73.9263,18.55535],[73.92563,18.55545],[73.92572,18.55584],[73.92309,18.55614],[73.92308,18.556],[73.92118,18.55658],[73.92134,18.55697],[73.92132,18.55825],[73.92097,18.55885],[73.9213,18.56073],[73.92088,18.56188],[73.92469,18.56291],[73.92769,18.56301],[73.93445,18.5636]]]}},{"type":"Feature","properties":{"ward_id":"6","name":"06 Vadgaon Sheri - Ramwadi"},"geometry":{"type":"Polygon","coordinates":[[[73.9226,18.55611],[73.92572,18.55584],[73.92563,18.55545],[73.9263,18.55535],[73.92596,18.55339],[73.92734,18.55327],[73.92731,18.55282],[73.92866,18.55281],[73.92902,18.5503],[73.93065,18.54546],[73.93134,18.54276],[73.93182,18.53993],[73.93462,18.5399],[73.93377,18.53603],[73.93192,18.53614],[73.9256,18.53824],[73.92259,18.53899],[73.92282,18.54024],[73.92329,18.5411],[73.92345,18.54223],[73.92367,18.54235],[73.92355,18.54288],[73.921,18.54744],[73.91993,18.54859],[73.91901,18.54919],[73.9132,18.54964],[73.91303,18.55003],[73.91302,18.55104],[73.91175,18.55161],[73.90952,18.55177],[73.90874,18.55235],[73.906,18.55244],[73.90622,18.55532],[73.90783,18.55661],[73.90929,18.55753],[73.90917,18.55783],[73.91168,18.55901],[73.91703,18.56082],[73.92088,18.56188],[73.9213,18.56073],[73.92097,18.55885],[73.92132,18.55825],[73.92134,18.55697],[73.92118,18.55658],[73.9226,18.55611]]]}},{"type":"Feature","properties":{"ward_id":"7","name":"07 Kalyaninagar - Nagpur Chawl"},"geometry":{"type":"Polygon","coordinates":[[[73.90137,18.5696],[73.90505,18.56951],[73.90519,18.56964],[73.9051,18.56813],[73.90683,18.56807],[73.90668,18.56669],[73.90701,18.565],[73.90696,18.56388],[73.90644,18.55936],[73.90646,18.55621],[73.90685,18.55574],[73.90622,18.55532],[73.906,18.55244],[73.90874,18.55235],[73.90952,18.55177],[73.91175,18.55161],[73.91302,18.55104],[73.91303,18.55003],[73.9132,18.54964],[73.91901,18.54919],[73.91993,18.54859],[73.921,18.54744],[73.92355,18.54288],[73.92367,18.54235],[73.92345,18.54223],[73.92329,18.5411],[73.92282,18.54024],[73.92256,18.53891],[73.91804,18.53911],[73.91713,18.53927],[73.91606,18.53973],[73.91455,18.53971],[73.91212,18.53996],[73.90904,18.54087],[73.90583,18.54125],[73.90376,18.54113],[73.90115,18.5413],[73.8973,18.54217],[73.89247,18.54356],[73.89052,18.54381],[73.88897,18.54376],[73.88889,18.54648],[73.88929,18.54974],[73.88875,18.54978],[73.88851,18.54954],[73.88797,18.54957],[73.88799,18.55079],[73.88777,18.55156],[73.88729,18.55145],[73.88716,18.55165],[73.88695,18.55159],[73.88641,18.55185],[73.88671,18.55195],[73.88664,18.55307],[73.88965,18.55273],[73.89204,18.56106],[73.89261,18.56235],[73.89422,18.56504],[73.89587,18.5667],[73.89702,18.56817],[73.89852,18.57092],[73.89989,18.57269],[73.90037,18.57177],[73.90081,18.5716],[73.90117,18.57044],[73.90096,18.57038],[73.90097,18.57004],[73.90137,18.5696]]]}},{"type":"Feature","properties":{"ward_id":"8","name":"08 Kalas - Phulenagar"},"geometry":{"type":"Polygon","coordinates":[[[73.87663,18.58292],[73.8766,18.5821],[73.87535,18.58208],[73.87622,18.58055],[73.8764,18.5799],[73.87677,18.57545],[73.87817,18.57276],[73.87881,18.57086],[73.87921,18.56893],[73.88014,18.57041],[73.88152,18.57135],[73.88246,18.57122],[73.88262,18.57203],[73.88379,18.57307],[73.88379,18.57337],[73.88513,18.5735],[73.88507,18.57221],[73.88482,18.57218],[73.8848,18.57205],[73.88541,18.56909],[73.88541,18.5669],[73.88525,18.56552],[73.8849,18.56493],[73.88492,18.5647],[73.89204,18.56106],[73.88965,18.55273],[73.88412,18.55343],[73.88326,18.55342],[73.87754,18.55256],[73.87294,18.55208],[73.87424,18.55399],[73.8746,18.55539],[73.87556,18.55745],[73.87498,18.558],[73.87268,18.55852],[73.87207,18.56411],[73.87142,18.56602],[73.87267,18.57031],[73.87282,18.57245],[73.87174,18.57438],[73.87097,18.57547],[73.8706,18.57576],[73.87052,18.57609],[73.87182,18.57898],[73.87235,18.57909],[73.8723,18.57923],[73.87168,18.57937],[73.87165,18.58098],[73.87188,18.58099],[73.87191,18.58208],[73.87166,18.58207],[73.87185,18.58241],[73.87252,18.5825],[73.87239,18.5828],[73.87344,18.58295],[73.87337,18.5824],[73.87512,18.58227],[73.87511,18.58296],[73.87663,18.58292]]]}},{"type":"Feature","properties":{"ward_id":"9","name":"09 Yerwada"},"geometry":{"type":"Polygon","coordinates":[[[73.88641,18.55185],[73.88716,18.55165],[73.88729,18.55145],[73.88777,18.55156],[73.88799,18.55079],[73.88797,18.54957],[73.88851,18.54954],[73.88875,18.54978],[73.88929,18.54974],[73.88889,18.54648],[73.88897,18.54376],[73.88009,18.54293],[73.88005,18.54397],[73.87921,18.54371],[73.87861,18.54376],[73.87698,18.54484],[73.8797,18.55288],[73.88326,18.55342],[73.88626,18.55315],[73.88664,18.55307],[73.88671,18.55195],[73.88641,18.55185]]]}},{"type":"Feature","properties":{"ward_id":"10","name":"10 Shivajinagar Gaothan - Sangamwadi"},"geometry":{"type":"Polygon","coordinates":[[[73.8797,18.55288],[73.87698,18.54484],[73.87861,18.54376],[73.87921,18.54371],[73.88005,18.54397],[73.88009,18.54293],[73.87816,18.54264],[73.86997,18.54008],[73.86696,18.5388],[73.86433,18.53703],[73.86275,18.53505],[73.861,18.53224],[73.8605,18.53186],[73.86065,18.5287],[73.86034,18.52796],[73.85964,18.52706],[73.85579,18.52315],[73.85504,18.52256],[73.85338,18.52182],[73.85165,18.52131],[73.84945,18.52102],[73.84914,18.5225],[73.84559,18.52391],[73.84134,18.52476],[73.8417,18.52626],[73.84214,18.52709],[73.84034,18.52702],[73.83776,18.52721],[73.83647,18.52794],[73.83614,18.52828],[73.83482,18.53109],[73.83421,18.53295],[73.8346,18.53321],[73.83691,18.53624],[73.83383,18.53863],[73.83654,18.54115],[73.83728,18.54086],[73.83753,18.5401],[73.83882,18.54122],[73.8388,18.54223],[73.83911,18.54281],[73.8404,18.5429],[73.84062,18.54306],[73.84076,18.54393],[73.84057,18.54434],[73.84803,18.54447],[73.84762,18.5459],[73.84973,18.54671],[73.85097,18.54883],[73.85098,18.54916],[73.85133,18.5493],[73.85181,18.5498],[73.85248,18.55061],[73.85303,18.55161],[73.85435,18.55137],[73.85452,18.55213],[73.85555,18.55126],[73.85678,18.55059],[73.85637,18.54996],[73.85544,18.54732],[73.85435,18.54414],[73.85395,18.54236],[73.85623,18.54247],[73.85987,18.54316],[73.86594,18.54208],[73.86467,18.54053],[73.86383,18.54094],[73.86337,18.54015],[73.86306,18.53918],[73.86385,18.53909],[73.86417,18.5395],[73.86482,18.53891],[73.86509,18.53925],[73.86478,18.53953],[73.8649,18.54059],[73.86607,18.54211],[73.86881,18.54214],[73.87356,18.54292],[73.87362,18.54643],[73.87191,18.54627],[73.86997,18.54737],[73.87088,18.54861],[73.87102,18.54912],[73.87276,18.552],[73.8797,18.55288]]]}},{"type":"Feature","properties":{"ward_id":"11","name":"11 Bopodi - Savitribai Phule Pune University"},"geometry":{"type":"Polygon","coordinates":[[[73.84375,18.57075],[73.84349,18.56763],[73.84077,18.56766],[73.84079,18.56727],[73.83964,18.56562],[73.83885,18.56506],[73.84025,18.56287],[73.83934,18.56216],[73.83264,18.55858],[73.83288,18.55676],[73.83476,18.55113],[73.83497,18.54854],[73.83429,18.54813],[73.83404,18.54747],[73.83453,18.54532],[73.83773,18.54442],[73.84008,18.54421],[73.84057,18.54434],[73.84076,18.54393],[73.84074,18.54338],[73.8404,18.5429],[73.83911,18.54281],[73.8388,18.54223],[73.83882,18.54122],[73.83753,18.5401],[73.83728,18.54086],[73.83654,18.54115],[73.83383,18.53863],[73.83691,18.53624],[73.8346,18.53321],[73.83421,18.53295],[73.83535,18.52986],[73.83158,18.52913],[73.82996,18.52901],[73.83028,18.53747],[73.82974,18.53974],[73.82979,18.54014],[73.83081,18.54084],[73.82765,18.54309],[73.81838,18.55579],[73.81447,18.5608],[73.81378,18.56185],[73.81226,18.56518],[73.81148,18.56724],[73.81148,18.56786],[73.81271,18.56789],[73.81425,18.56836],[73.82213,18.56937],[73.82666,18.56819],[73.82798,18.5681],[73.82934,18.56868],[73.82999,18.56936],[73.83047,18.57009],[73.83122,18.57195],[73.83188,18.57299],[73.83237,18.57342],[73.83554,18.57516],[73.83641,18.57537],[73.83773,18.57528],[73.84413,18.57273],[73.84375,18.57075]]]}},{"type":"Feature","properties":{"ward_id":"12","name":"12 Aundh - Balewadi"},"geometry":{"type":"Polygon","coordinates":[[[73.76868,18.58726],[73.77032,18.58729],[73.77374,18.58826],[73.77505,18.5884],[73.77577,18.58831],[73.77635,18.58798],[73.77799,18.58646],[73.77899,18.58432],[73.78066,18.57895],[73.78121,18.57788],[73.78665,18.57356],[73.78928,18.57199],[73.7898,18.57093],[73.78986,18.56965],[73.78942,18.56847],[73.78857,18.56804],[73.78807,18.56679],[73.78798,18.566],[73.788,18.56513],[73.78832,18.56461],[73.78898,18.56406],[73.79245,18.56328],[73.79281,18.56336],[73.79308,18.56383],[73.79303,18.56409],[73.79444,18.56501],[73.79578,18.56662],[73.79685,18.5674],[73.79816,18.56826],[73.80013,18.5692],[73.80136,18.56944],[73.80425,18.56919],[73.80874,18.56801],[73.81148,18.56786],[73.81148,18.56724],[73.81226,18.56518],[73.81378,18.56185],[73.81447,18.5608],[73.81838,18.55579],[73.82678,18.5442],[73.82765,18.54309],[73.8288,18.5422],[73.82681,18.54186],[73.82433,18.54167],[73.82166,18.54101],[73.81946,18.54026],[73.81129,18.53952],[73.80612,18.53824],[73.80479,18.53936],[73.80473,18.54413],[73.80247,18.54406],[73.80252,18.54621],[73.80225,18.54628],[73.80232,18.548],[73.80459,18.54745],[73.80497,18.55098],[73.80443,18.55521],[73.80475,18.55522],[73.80446,18.55711],[73.80367,18.55841],[73.80297,18.56086],[73.79986,18.56016],[73.79898,18.56029],[73.79878,18.56013],[73.79829,18.56027],[73.79786,18.55991],[73.79756,18.55998],[73.79737,18.56043],[73.79649,18.56089],[73.79598,18.56105],[73.79562,18.56088],[73.79536,18.56024],[73.79605,18.5601],[73.79688,18.55936],[73.79781,18.55643],[73.79901,18.55616],[73.79915,18.55571],[73.79813,18.55502],[73.79612,18.55508],[73.79498,18.55576],[73.79377,18.55733],[73.79242,18.55835],[73.79155,18.5589],[73.78998,18.55945],[73.78878,18.56007],[73.78737,18.56131],[73.78693,18.56149],[73.78435,18.56184],[73.78371,18.56283],[73.78221,18.56389],[73.78099,18.56424],[73.7774,18.56421],[73.77531,18.56454],[73.76861,18.56705],[73.76826,18.56726],[73.76792,18.56801],[73.76713,18.56849],[73.76525,18.56947],[73.76265,18.57034],[73.76228,18.5757],[73.76253,18.57642],[73.76205,18.57753],[73.7619,18.57838],[73.76163,18.58222],[73.76102,18.58615],[73.76097,18.58814],[73.762,18.58852],[73.76313,18.58852],[73.76868,18.58726]]]}},{"type":"Feature","properties":{"ward_id":"13","name":"13 Baner - Sus - Mahalunge"},"geometry":{"type":"Polygon","coordinates":[[[73.76228,18.5757],[73.76265,18.57034],[73.76525,18.56947],[73.76713,18.56849],[73.76792,18.56801],[73.76826,18.56726],[73.76861,18.56705],[73.77531,18.56454],[73.7774,18.56421],[73.78099,18.56424],[73.78221,18.56389],[73.78371,18.56283],[73.78435,18.56184],[73.78693,18.56149],[73.78737,18.56131],[73.78878,18.56007],[73.78998,18.55945],[73.79155,18.5589],[73.79242,18.55835],[73.79377,18.55733],[73.79498,18.55576],[73.79612,18.55508],[73.79813,18.55502],[73.79915,18.55571],[73.79901,18.55616],[73.79781,18.55643],[73.79688,18.55936],[73.79605,18.5601],[73.79536,18.56024],[73.79562,18.56088],[73.79598,18.56105],[73.79649,18.56089],[73.79737,18.56043],[73.79756,18.55998],[73.79786,18.55991],[73.79829,18.56027],[73.79878,18.56013],[73.79898,18.56029],[73.79986,18.56016],[73.80297,18.56086],[73.80367,18.55841],[73.80446,18.55711],[73.80475,18.55522],[73.80443,18.55521],[73.80497,18.55098],[73.80459,18.54745],[73.80217,18.548],[73.80219,18.5483],[73.8027,18.54899],[73.80263,18.54914],[73.7983,18.54952],[73.79818,18.54749],[73.79756,18.5461],[73.79355,18.5462],[73.7935,18.54646],[73.79174,18.54656],[73.7918,18.5472],[73.78811,18.54763],[73.78468,18.54924],[73.78345,18.54798],[73.78195,18.54812],[73.77983,18.54861],[73.77787,18.54874],[73.77679,18.54843],[73.77207,18.54507],[73.76848,18.544],[73.76521,18.54229],[73.76333,18.5418],[73.76228,18.54083],[73.76028,18.54044],[73.75835,18.53947],[73.75803,18.53893],[73.75793,18.53839],[73.75809,18.5373],[73.75389,18.53424],[73.75226,18.53352],[73.75024,18.533],[73.74959,18.53061],[73.7487,18.52995],[73.74734,18.52942],[73.74729,18.52892],[73.74358,18.53187],[73.73936,18.53227],[73.73699,18.53346],[73.73608,18.53416],[73.73605,18.53848],[73.73768,18.54031],[73.73853,18.5408],[73.74024,18.54312],[73.74054,18.54377],[73.74001,18.54723],[73.74039,18.54883],[73.74037,18.54948],[73.73999,18.5507],[73.73901,18.55234],[73.73868,18.5536],[73.73838,18.55585],[73.737,18.55925],[73.73631,18.56054],[73.73603,18.56128],[73.73622,18.56149],[73.73385,18.56353],[73.73309,18.56504],[73.73219,18.56638],[73.73194,18.56744],[73.73339,18.56874],[73.73549,18.56987],[73.73632,18.57051],[73.73759,18.5716],[73.73788,18.57218],[73.73933,18.5731],[73.7398,18.57366],[73.74182,18.5743],[73.74263,18.57432],[73.74375,18.57462],[73.74561,18.57412],[73.74731,18.57396],[73.74785,18.57433],[73.74873,18.5743],[73.75097,18.57478],[73.75138,18.57548],[73.75192,18.57584],[73.75371,18.5795],[73.75402,18.57962],[73.75488,18.58114],[73.75591,18.58235],[73.75665,18.5841],[73.7583,18.58627],[73.76097,18.58814],[73.76102,18.58615],[73.76163,18.58222],[73.7619,18.57838],[73.76205,18.57753],[73.76253,18.57642],[73.76228,18.5757]]]}},{"type":"Feature","properties":{"ward_id":"14","name":"14 Pashan - Bawdhan"},"geometry":{"type":"Polygon","coordinates":[[[73.80252,18.54621],[73.80247,18.54406],[73.80473,18.54413],[73.80479,18.53936],[73.80612,18.53824],[73.80479,18.53776],[73.80384,18.53772],[73.8047,18.53494],[73.80692,18.535],[73.80728,18.53451],[73.80817,18.53399],[73.81052,18.52946],[73.81103,18.52711],[73.81247,18.52435],[73.81081,18.52429],[73.80965,18.52481],[73.80502,18.52454],[73.80371,18.52417],[73.80238,18.52408],[73.80203,18.52384],[73.79984,18.52348],[73.79893,18.52316],[73.79708,18.52159],[73.79548,18.51961],[73.79321,18.51732],[73.79272,18.51703],[73.79231,18.51636],[73.79233,18.51606],[73.79099,18.51594],[73.78823,18.51674],[73.78625,18.51298],[73.78388,18.51268],[73.78229,18.51224],[73.78265,18.51408],[73.78138,18.51687],[73.77911,18.51893],[73.77881,18.51968],[73.77817,18.51963],[73.77819,18.51934],[73.77715,18.51926],[73.77651,18.52014],[73.776,18.51982],[73.7765,18.51922],[73.77678,18.51823],[73.77669,18.5169],[73.77557,18.51554],[73.77506,18.51531],[73.77496,18.51507],[73.77535,18.51466],[73.77458,18.51351],[73.77458,18.51324],[73.774,18.51319],[73.77229,18.5124],[73.77198,18.51272],[73.77084,18.51311],[73.76981,18.51316],[73.76917,18.51282],[73.76882,18.51259],[73.76894,18.51232],[73.76928,18.5123],[73.76907,18.51017],[73.76888,18.50982],[73.76858,18.50969],[73.76644,18.50961],[73.76643,18.50933],[73.76663,18.50917],[73.76764,18.50885],[73.76771,18.50844],[73.76644,18.5072],[73.76602,18.50639],[73.76326,18.50571],[73.7625,18.50579],[73.76199,18.50773],[73.76198,18.50833],[73.75903,18.51312],[73.75862,18.51328],[73.75758,18.51458],[73.7562,18.51561],[73.75376,18.51583],[73.75346,18.51603],[73.75266,18.51722],[73.75239,18.51801],[73.75027,18.52211],[73.74941,18.52244],[73.74788,18.52387],[73.74744,18.52456],[73.74776,18.5267],[73.74761,18.52724],[73.7476,18.52896],[73.74729,18.52892],[73.74734,18.52942],[73.7487,18.52995],[73.74959,18.53061],[73.75024,18.533],[73.75226,18.53352],[73.75389,18.53424],[73.75809,18.5373],[73.75793,18.53839],[73.75803,18.53893],[73.75835,18.53947],[73.76028,18.54044],[73.76228,18.54083],[73.76333,18.5418],[73.76521,18.54229],[73.76848,18.544],[73.77207,18.54507],[73.77679,18.54843],[73.77787,18.54874],[73.77844,18.54874],[73.78345,18.54798],[73.78468,18.54924],[73.78811,18.54763],[73.7918,18.5472],[73.79174,18.54656],[73.7935,18.54646],[73.79355,18.5462],[73.79756,18.5461],[73.79818,18.54749],[73.7983,18.54952],[73.80047,18.54936],[73.80263,18.54914],[73.8027,18.54899],[73.80219,18.5483],[73.80217,18.548],[73.80232,18.548],[73.80225,18.54628],[73.80252,18.54621]]]}},{"type":"Feature","properties":{"ward_id":"15","name":"15 Gokhalenagar - Vadarwadi"},"geometry":{"type":"Polygon","coordinates":[[[73.82974,18.53974],[73.83028,18.53747],[73.83029,18.53655],[73.82996,18.52901],[73.83158,18.52913],[73.83535,18.52986],[73.83614,18.52828],[73.83647,18.52794],[73.83776,18.52721],[73.83606,18.52482],[73.83555,18.5256],[73.83479,18.52612],[73.83478,18.52636],[73.83322,18.52655],[73.83088,18.52493],[73.83245,18.52369],[73.83048,18.52341],[73.83041,18.522],[73.82925,18.52211],[73.82939,18.5228],[73.82878,18.52197],[73.8275,18.51948],[73.82701,18.5192],[73.82467,18.52013],[73.82359,18.52027],[73.82229,18.52091],[73.82059,18.52209],[73.81812,18.52341],[73.81768,18.52424],[73.81478,18.52633],[73.81421,18.52563],[73.81244,18.52442],[73.81103,18.52711],[73.81052,18.52946],[73.80817,18.53399],[73.80728,18.53451],[73.80692,18.535],[73.8047,18.53494],[73.80384,18.53772],[73.80479,18.53776],[73.80886,18.53902],[73.81129,18.53952],[73.81946,18.54026],[73.82166,18.54101],[73.82433,18.54167],[73.82681,18.54186],[73.8288,18.5422],[73.83081,18.54084],[73.82979,18.54014],[73.82974,18.53974]]]}},{"type":"Feature","properties":{"ward_id":"16","name":"16 Fergusson College - Erandwane"},"geometry":{"type":"Polygon","coordinates":[[[73.83909,18.52707],[73.84214,18.52709],[73.8417,18.52626],[73.84134,18.52476],[73.84559,18.52391],[73.84914,18.5225],[73.84945,18.52102],[73.84823,18.52018],[73.84645,18.51848],[73.84592,18.51785],[73.84501,18.51612],[73.84388,18.51473],[73.84118,18.512],[73.8401,18.51025],[73.83718,18.50742],[73.83654,18.50585],[73.83684,18.50118],[73.83601,18.49878],[73.83274,18.49572],[73.82787,18.48849],[73.82667,18.48906],[73.82715,18.48978],[73.82682,18.49],[73.82467,18.49017],[73.82654,18.49815],[73.82612,18.49819],[73.82609,18.49859],[73.82355,18.49792],[73.82255,18.49958],[73.82125,18.50425],[73.82315,18.5051],[73.82508,18.50563],[73.82666,18.50632],[73.8259,18.50889],[73.8255,18.50972],[73.82469,18.51067],[73.8241,18.51191],[73.82424,18.51198],[73.82408,18.5134],[73.82426,18.51341],[73.8244,18.51467],[73.82465,18.51471],[73.82491,18.51604],[73.82624,18.51705],[73.82701,18.5192],[73.8275,18.51948],[73.82878,18.52197],[73.82939,18.5228],[73.82925,18.52211],[73.83041,18.522],[73.83048,18.52341],[73.83245,18.52369],[73.83088,18.52493],[73.83322,18.52655],[73.83478,18.52636],[73.83479,18.52612],[73.83555,18.5256],[73.83606,18.52482],[73.83776,18.52721],[73.83909,18.52707]]]}},{"type":"Feature","properties":{"ward_id":"17","name":"17 Shaniwar peth - Navi Peth"},"geometry":{"type":"Polygon","coordinates":[[[73.85382,18.5182],[73.85401,18.51802],[73.8543,18.51857],[73.85621,18.5186],[73.85629,18.51573],[73.8543,18.51468],[73.85375,18.5146],[73.85385,18.51295],[73.85371,18.50788],[73.85322,18.50796],[73.85284,18.5086],[73.85043,18.50832],[73.85063,18.50593],[73.84941,18.50583],[73.84951,18.50443],[73.84824,18.50424],[73.84822,18.50219],[73.8455,18.50218],[73.84534,18.50367],[73.84491,18.50517],[73.84341,18.50492],[73.83947,18.50497],[73.83882,18.50471],[73.83884,18.50332],[73.83783,18.50331],[73.83783,18.50296],[73.8368,18.50282],[73.83654,18.50585],[73.83718,18.50742],[73.8401,18.51025],[73.84118,18.512],[73.84323,18.514],[73.84501,18.51612],[73.84592,18.51785],[73.84823,18.52018],[73.84945,18.52102],[73.85165,18.52131],[73.85321,18.52177],[73.85302,18.52171],[73.85299,18.51945],[73.85386,18.51939],[73.85382,18.5182]]]}},{"type":"Feature","properties":{"ward_id":"18","name":"18 Shaniwarwada - Kasba Peth"},"geometry":{"type":"Polygon","coordinates":[[[73.8613,18.52106],[73.8613,18.51921],[73.86235,18.51951],[73.86213,18.51849],[73.86231,18.51814],[73.86303,18.51783],[73.86281,18.5162],[73.86363,18.51618],[73.86487,18.51545],[73.86513,18.51463],[73.86514,18.51397],[73.86435,18.51243],[73.86337,18.51291],[73.86101,18.51325],[73.85765,18.51269],[73.85723,18.51389],[73.85637,18.51527],[73.85621,18.5186],[73.8543,18.51857],[73.85401,18.51802],[73.85382,18.5182],[73.85386,18.51939],[73.85299,18.51945],[73.85302,18.52171],[73.85504,18.52256],[73.85579,18.52315],[73.85964,18.52706],[73.86034,18.52796],[73.86064,18.52865],[73.86335,18.52875],[73.86337,18.52795],[73.86199,18.52715],[73.86036,18.5257],[73.86113,18.52458],[73.86086,18.52355],[73.8615,18.52237],[73.86094,18.52214],[73.8613,18.52106]]]}},{"type":"Feature","properties":{"ward_id":"19","name":"19 Chhatrapati Shivaji Maharaj Stadium - Rasta peth"},"geometry":{"type":"Polygon","coordinates":[[[73.87231,18.52021],[73.8691,18.52011],[73.86859,18.5199],[73.86827,18.51957],[73.86864,18.51539],[73.86487,18.51545],[73.86363,18.51618],[73.86281,18.5162],[73.86303,18.51783],[73.86231,18.51814],[73.86213,18.51849],[73.86235,18.51951],[73.8613,18.51921],[73.8613,18.52106],[73.86094,18.52214],[73.8615,18.52237],[73.86086,18.52355],[73.86113,18.52458],[73.86036,18.5257],[73.86199,18.52715],[73.86337,18.52795],[73.87013,18.52419],[73.87173,18.52085],[73.87253,18.52053],[73.87231,18.52021]]]}},{"type":"Feature","properties":{"ward_id":"20","name":"20 Pune Station -Matoshri Ramabai Ambedkar Road"},"geometry":{"type":"Polygon","coordinates":[[[73.87561,18.53091],[73.87597,18.52948],[73.87933,18.53051],[73.87911,18.52638],[73.87866,18.52461],[73.88053,18.52421],[73.87885,18.52091],[73.87734,18.52167],[73.87626,18.51842],[73.87537,18.5183],[73.87442,18.51838],[73.87438,18.51813],[73.87394,18.51776],[73.87338,18.51772],[73.87316,18.51741],[73.87293,18.51736],[73.87323,18.51646],[73.87347,18.51648],[73.87352,18.516],[73.87321,18.51518],[73.87336,18.51453],[73.87398,18.51345],[73.87486,18.51244],[73.87522,18.51132],[73.87557,18.51106],[73.87187,18.51067],[73.87013,18.51138],[73.86946,18.51259],[73.86911,18.51293],[73.86868,18.51308],[73.86857,18.51678],[73.86827,18.51957],[73.86859,18.5199],[73.8691,18.52011],[73.87192,18.52014],[73.87231,18.52021],[73.87253,18.52053],[73.87173,18.52085],[73.87023,18.52405],[73.86994,18.52434],[73.86385,18.52758],[73.86337,18.52795],[73.86335,18.52875],[73.86064,18.52865],[73.8605,18.53186],[73.861,18.53224],[73.86275,18.53505],[73.86433,18.53703],[73.86555,18.53797],[73.86788,18.53927],[73.86997,18.54008],[73.87886,18.54281],[73.88509,18.54341],[73.88539,18.5415],[73.88383,18.5412],[73.87896,18.53385],[73.87561,18.53091]]]}},{"type":"Feature","properties":{"ward_id":"21","name":"21 Koregaon park - Mundhwa"},"geometry":{"type":"Polygon","coordinates":[[[73.90264,18.54116],[73.90583,18.54125],[73.90904,18.54087],[73.91212,18.53996],[73.91455,18.53971],[73.91606,18.53973],[73.91713,18.53927],[73.91804,18.53911],[73.92259,18.53899],[73.9256,18.53824],[73.93192,18.53614],[73.93377,18.53603],[73.93295,18.53248],[73.93224,18.53148],[73.93248,18.52965],[73.93229,18.52628],[73.90964,18.52905],[73.90962,18.52562],[73.90763,18.52584],[73.90763,18.52562],[73.90703,18.52565],[73.90701,18.52532],[73.90622,18.52531],[73.90662,18.51821],[73.90715,18.51561],[73.90628,18.51529],[73.90279,18.51146],[73.90197,18.51105],[73.9004,18.51102],[73.90029,18.51166],[73.90038,18.51327],[73.89972,18.51429],[73.89932,18.51443],[73.89835,18.51544],[73.89811,18.51587],[73.89812,18.51619],[73.89855,18.51701],[73.89853,18.51859],[73.89881,18.51879],[73.89943,18.51876],[73.89965,18.51892],[73.90058,18.52036],[73.9008,18.52131],[73.90058,18.52169],[73.90053,18.52223],[73.90101,18.5231],[73.89944,18.52542],[73.8983,18.5266],[73.89727,18.52726],[73.89702,18.52669],[73.88715,18.5313],[73.88684,18.52981],[73.88551,18.53004],[73.88573,18.53164],[73.88387,18.53148],[73.88103,18.53089],[73.87597,18.52948],[73.87561,18.53091],[73.87896,18.53385],[73.88383,18.5412],[73.88539,18.5415],[73.88509,18.54341],[73.88959,18.54382],[73.89155,18.54373],[73.8973,18.54217],[73.90115,18.5413],[73.90264,18.54116]],[[73.90077,18.53208],[73.90076,18.53063],[73.90101,18.53012],[73.90629,18.52942],[73.90598,18.5299],[73.90626,18.53062],[73.90643,18.53462],[73.907,18.53637],[73.90433,18.53677],[73.90448,18.53825],[73.9035,18.5383],[73.90329,18.53726],[73.9012,18.53704],[73.90095,18.53656],[73.90092,18.53518],[73.90074,18.53474],[73.90077,18.53344],[73.90059,18.53271],[73.90077,18.53208]],[[73.90116,18.52492],[73.9011,18.52623],[73.90141,18.52704],[73.9017,18.52894],[73.90108,18.52882],[73.8995,18.5275],[73.89878,18.5272],[73.89806,18.52714],[73.89892,18.52636],[73.89962,18.52544],[73.90116,18.52492]]]}},{"type":"Feature","properties":{"ward_id":"22","name":"22 Manjari Bk. - Shewalwadi"},"geometry":{"type":"Polygon","coordinates":[[[73.96104,18.54589],[73.9642,18.5442],[73.96586,18.54361],[73.96697,18.54331],[73.96932,18.54303],[73.97231,18.54102],[73.97252,18.54114],[73.97423,18.53918],[73.97492,18.53775],[73.97595,18.53405],[73.97791,18.53248],[73.97967,18.53034],[73.98657,18.52579],[73.99028,18.52354],[73.99128,18.52267],[73.99178,18.52154],[73.99203,18.52028],[73.99192,18.51785],[73.99158,18.51685],[73.99128,18.51434],[73.99113,18.51119],[73.99129,18.51041],[73.99261,18.50914],[73.99781,18.50559],[73.99706,18.50392],[73.99582,18.50288],[73.99571,18.50247],[73.99352,18.50012],[73.99325,18.49963],[73.99241,18.49908],[73.99208,18.49855],[73.9916,18.49676],[73.99204,18.49494],[73.99194,18.49415],[73.98968,18.49309],[73.98917,18.4922],[73.98931,18.49187],[73.99796,18.49109],[73.99996,18.49061],[74.00294,18.48956],[74.00384,18.48865],[74.00468,18.48827],[74.00673,18.48814],[74.00575,18.48615],[74.00482,18.48163],[74.00235,18.47276],[74.00143,18.47101],[73.99978,18.46664],[73.99656,18.46821],[73.99548,18.46832],[73.99418,18.46876],[73.99352,18.4688],[73.99083,18.46814],[73.99015,18.46826],[73.98443,18.47082],[73.98283,18.47162],[73.98213,18.47241],[73.98058,18.47498],[73.9802,18.47617],[73.9797,18.4765],[73.97231,18.47797],[73.96377,18.47994],[73.96306,18.4805],[73.96217,18.48171],[73.96113,18.48423],[73.96063,18.4873],[73.96083,18.49014],[73.9604,18.4916],[73.95912,18.49314],[73.95688,18.49336],[73.95788,18.49786],[73.95843,18.50115],[73.95864,18.50419],[73.95427,18.50457],[73.9543,18.50538],[73.95666,18.50535],[73.95669,18.50507],[73.9575,18.50483],[73.95821,18.50519],[73.95959,18.50531],[73.96021,18.50566],[73.96065,18.50658],[73.96058,18.50783],[73.95995,18.50853],[73.95912,18.50894],[73.95826,18.50906],[73.95917,18.51778],[73.95359,18.52023],[73.95113,18.52099],[73.95116,18.52384],[73.95103,18.52399],[73.94161,18.52426],[73.94323,18.53024],[73.94166,18.53081],[73.94186,18.53184],[73.94194,18.53406],[73.93723,18.53216],[73.93613,18.53222],[73.93351,18.533],[73.93309,18.53292],[73.93377,18.53603],[73.93831,18.53578],[73.93931,18.53612],[73.93978,18.53651],[73.94069,18.53779],[73.94233,18.54161],[73.94352,18.5437],[73.94449,18.54461],[73.94568,18.54532],[73.94722,18.54568],[73.95349,18.54579],[73.95437,18.54593],[73.95681,18.54677],[73.95838,18.54688],[73.95972,18.5467],[73.96085,18.54628],[73.96104,18.54589]]]}},{"type":"Feature","properties":{"ward_id":"23","name":"23 Sadesataranali - Aakashwani"},"geometry":{"type":"Polygon","coordinates":[[[73.94194,18.53406],[73.94166,18.53081],[73.94323,18.53024],[73.94161,18.52426],[73.95103,18.52399],[73.95116,18.52384],[73.95113,18.52099],[73.95359,18.52023],[73.95917,18.51778],[73.95826,18.50906],[73.95912,18.50894],[73.95995,18.50853],[73.96058,18.50783],[73.96065,18.50658],[73.96021,18.50566],[73.95959,18.50531],[73.95821,18.50519],[73.9575,18.50483],[73.95669,18.50507],[73.95666,18.50535],[73.9543,18.50538],[73.95427,18.50457],[73.95864,18.50419],[73.95843,18.50115],[73.95724,18.49503],[73.95194,18.49723],[73.94398,18.4982],[73.94411,18.49839],[73.94411,18.50089],[73.94589,18.50083],[73.9461,18.50228],[73.94402,18.50225],[73.9441,18.50369],[73.94387,18.50369],[73.94406,18.50628],[73.94418,18.50658],[73.94498,18.50723],[73.94517,18.50757],[73.94524,18.50798],[73.94509,18.50847],[73.94227,18.50884],[73.94119,18.50883],[73.94123,18.5073],[73.94151,18.50639],[73.93978,18.50636],[73.9397,18.50612],[73.93907,18.50596],[73.93915,18.5068],[73.93845,18.50768],[73.93697,18.50761],[73.93577,18.50776],[73.93567,18.50865],[73.93556,18.50866],[73.93573,18.51009],[73.93238,18.51042],[73.93276,18.5114],[73.933,18.51397],[73.93349,18.51446],[73.93369,18.51524],[73.93395,18.51559],[73.93326,18.51732],[73.93338,18.52156],[73.93441,18.52267],[73.93494,18.52354],[73.93223,18.52369],[73.93248,18.52965],[73.93224,18.53148],[73.93234,18.53173],[73.93295,18.53248],[73.93309,18.53292],[73.93351,18.533],[73.93613,18.53222],[73.93723,18.53216],[73.94194,18.53406]]]}},{"type":"Feature","properties":{"ward_id":"24","name":"24 Magarpatta - Sadhana Vidyalaya"},"geometry":{"type":"Polygon","coordinates":[[[73.93347,18.52178],[73.93326,18.51732],[73.93395,18.51559],[73.93369,18.51524],[73.93349,18.51446],[73.933,18.51397],[73.93276,18.5114],[73.93238,18.51042],[73.93573,18.51009],[73.93556,18.50866],[73.93567,18.50865],[73.93577,18.50776],[73.93697,18.50761],[73.93845,18.50768],[73.93915,18.5068],[73.93907,18.50596],[73.9397,18.50612],[73.93978,18.50636],[73.94151,18.50639],[73.94123,18.5073],[73.94119,18.50883],[73.94227,18.50884],[73.94509,18.50847],[73.94524,18.50798],[73.94517,18.50757],[73.94498,18.50723],[73.94418,18.50658],[73.94406,18.50628],[73.94387,18.50369],[73.9441,18.50369],[73.94402,18.50225],[73.9461,18.50228],[73.94589,18.50083],[73.94411,18.50089],[73.94413,18.5001],[73.93382,18.50147],[73.92987,18.50178],[73.92184,18.50394],[73.92239,18.50602],[73.9225,18.50702],[73.9216,18.50781],[73.92131,18.50826],[73.92016,18.51126],[73.91857,18.51435],[73.91837,18.51407],[73.918,18.5145],[73.91714,18.51496],[73.91609,18.51538],[73.91526,18.5155],[73.91533,18.51596],[73.91488,18.51601],[73.91406,18.516],[73.9131,18.51573],[73.91136,18.51508],[73.91014,18.51428],[73.91013,18.51503],[73.91046,18.51541],[73.91093,18.51754],[73.91142,18.51829],[73.91189,18.51866],[73.91299,18.51897],[73.91545,18.51854],[73.9157,18.51963],[73.91742,18.51967],[73.91749,18.52388],[73.91732,18.52808],[73.93229,18.52628],[73.93223,18.52369],[73.93494,18.52354],[73.93441,18.52267],[73.93347,18.52178]]]}},{"type":"Feature","properties":{"ward_id":"25","name":"25 Hadapsar Gaothan - Satavwadi"},"geometry":{"type":"Polygon","coordinates":[[[73.93382,18.50147],[73.94406,18.50011],[73.94411,18.49839],[73.94398,18.4982],[73.95194,18.49723],[73.95724,18.49503],[73.95687,18.49327],[73.95006,18.49387],[73.94922,18.49126],[73.94714,18.49394],[73.94092,18.49856],[73.93961,18.49794],[73.93848,18.49684],[73.93568,18.49738],[73.93312,18.49689],[73.9323,18.49315],[73.92906,18.49332],[73.9289,18.49216],[73.92254,18.49855],[73.92408,18.49887],[73.92432,18.49878],[73.92435,18.49929],[73.92351,18.49978],[73.92327,18.49977],[73.92321,18.50067],[73.92344,18.50155],[73.92368,18.50133],[73.92411,18.50173],[73.92497,18.50185],[73.92461,18.50255],[73.92454,18.50323],[73.92987,18.50178],[73.93382,18.50147]]]}},{"type":"Feature","properties":{"ward_id":"26","name":"26 Wanwadi Gaothan - Vaiduwadi"},"geometry":{"type":"Polygon","coordinates":[[[73.90905,18.52566],[73.90962,18.52562],[73.90952,18.52222],[73.90964,18.51979],[73.9141,18.51969],[73.91547,18.51982],[73.9157,18.51963],[73.91545,18.51854],[73.91299,18.51897],[73.91189,18.51866],[73.91142,18.51829],[73.91093,18.51754],[73.91046,18.51541],[73.91013,18.51503],[73.91014,18.51428],[73.91136,18.51508],[73.9131,18.51573],[73.91406,18.516],[73.91488,18.51601],[73.91533,18.51596],[73.91526,18.5155],[73.91609,18.51538],[73.91714,18.51496],[73.918,18.5145],[73.91837,18.51407],[73.91857,18.51435],[73.92016,18.51126],[73.92131,18.50826],[73.9216,18.50781],[73.9225,18.50702],[73.92239,18.50602],[73.92184,18.50394],[73.92454,18.50323],[73.92461,18.50255],[73.92497,18.50185],[73.92411,18.50173],[73.92368,18.50133],[73.92344,18.50155],[73.92321,18.50067],[73.92327,18.49977],[73.92351,18.49978],[73.92435,18.49929],[73.92432,18.49878],[73.92408,18.49887],[73.92247,18.49852],[73.91515,18.50593],[73.91256,18.50638],[73.91241,18.50277],[73.91176,18.50255],[73.91143,18.50087],[73.91045,18.4988],[73.91116,18.49885],[73.91195,18.49643],[73.91145,18.49358],[73.90822,18.49394],[73.908,18.49374],[73.90708,18.49379],[73.90709,18.49404],[73.90668,18.49406],[73.90668,18.49382],[73.90382,18.49384],[73.90389,18.49404],[73.90198,18.49509],[73.90178,18.49474],[73.899,18.49531],[73.8975,18.49595],[73.89672,18.4968],[73.89834,18.49804],[73.89849,18.49836],[73.89839,18.4989],[73.89901,18.49946],[73.89885,18.50031],[73.89914,18.50128],[73.89924,18.50252],[73.89979,18.50353],[73.89985,18.50441],[73.90407,18.50424],[73.90372,18.50545],[73.90334,18.50568],[73.90258,18.50658],[73.89964,18.50664],[73.89973,18.5073],[73.90025,18.50766],[73.90009,18.50813],[73.90007,18.50913],[73.90036,18.50976],[73.90009,18.51051],[73.9004,18.51102],[73.90197,18.51105],[73.90279,18.51146],[73.90628,18.51529],[73.90715,18.51561],[73.90662,18.51821],[73.90622,18.52531],[73.90701,18.52532],[73.90703,18.52565],[73.90763,18.52562],[73.90763,18.52584],[73.90907,18.52578],[73.90905,18.52566]]]}},{"type":"Feature","properties":{"ward_id":"27","name":"27 Kasewadi - Lohiyanagar"},"geometry":{"type":"Polygon","coordinates":[[[73.87187,18.51067],[73.87557,18.51106],[73.8761,18.51052],[73.87703,18.50886],[73.87639,18.50677],[73.87594,18.50697],[73.87574,18.50649],[73.87486,18.50678],[73.8745,18.50579],[73.87325,18.50547],[73.87355,18.50436],[73.87467,18.50306],[73.87488,18.50196],[73.87079,18.50183],[73.8701,18.50169],[73.86825,18.50123],[73.86527,18.5],[73.8653,18.50096],[73.86495,18.50171],[73.86511,18.50257],[73.86548,18.50292],[73.86607,18.50304],[73.86622,18.50386],[73.86596,18.50607],[73.86767,18.506],[73.86846,18.50626],[73.86817,18.50988],[73.86865,18.51162],[73.86868,18.51308],[73.86911,18.51293],[73.86946,18.51259],[73.87013,18.51138],[73.87187,18.51067]]]}},{"type":"Feature","properties":{"ward_id":"29","name":"29 Ghorpade peth Udyan - Mahatma Phule Mandai"},"geometry":{"type":"Polygon","coordinates":[[[73.85914,18.50862],[73.86327,18.50905],[73.86343,18.50469],[73.86609,18.50478],[73.86622,18.50386],[73.86607,18.50304],[73.86548,18.50292],[73.86511,18.50257],[73.865,18.50203],[73.86498,18.50158],[73.8653,18.50096],[73.86527,18.5],[73.86179,18.50016],[73.86041,18.50048],[73.85853,18.50065],[73.85851,18.50118],[73.85533,18.50414],[73.85042,18.50791],[73.85043,18.50832],[73.85258,18.50861],[73.85284,18.5086],[73.85322,18.50796],[73.85371,18.50788],[73.85385,18.51295],[73.85375,18.5146],[73.8543,18.51468],[73.85629,18.51573],[73.85645,18.51506],[73.85723,18.51389],[73.85781,18.51217],[73.85801,18.50877],[73.85914,18.50862]]]}},{"type":"Feature","properties":{"ward_id":"30","name":"30 Jai Bhavaninagar - Kelewadi"},"geometry":{"type":"Polygon","coordinates":[[[73.82701,18.5192],[73.82624,18.51705],[73.82491,18.51604],[73.82465,18.51471],[73.8244,18.51467],[73.82426,18.51341],[73.82408,18.5134],[73.82424,18.51198],[73.8241,18.51191],[73.82469,18.51067],[73.8255,18.50972],[73.8259,18.50889],[73.82666,18.50632],[73.82508,18.50563],[73.82396,18.50668],[73.82153,18.50954],[73.82026,18.51047],[73.81773,18.51038],[73.81545,18.50996],[73.8146,18.50966],[73.81181,18.50939],[73.81105,18.50898],[73.81046,18.50844],[73.80918,18.50819],[73.80902,18.50953],[73.80906,18.51251],[73.80762,18.51241],[73.8078,18.51313],[73.80787,18.51553],[73.80589,18.51562],[73.80588,18.52159],[73.80603,18.5246],[73.80965,18.52481],[73.81081,18.52429],[73.81247,18.52435],[73.81232,18.5246],[73.81244,18.52442],[73.81363,18.52519],[73.81478,18.52633],[73.81768,18.52424],[73.81812,18.52341],[73.82059,18.52209],[73.82229,18.52091],[73.82359,18.52027],[73.82467,18.52013],[73.82701,18.5192]]]}},{"type":"Feature","properties":{"ward_id":"31","name":"31 Kothrud Gaothan - Shivtirthnagar"},"geometry":{"type":"Polygon","coordinates":[[[73.80918,18.50819],[73.80873,18.50802],[73.80923,18.50671],[73.81087,18.50598],[73.81239,18.50466],[73.81385,18.50381],[73.81481,18.50281],[73.81501,18.50278],[73.81502,18.50216],[73.8158,18.50223],[73.81449,18.50141],[73.81399,18.50055],[73.81365,18.49949],[73.8138,18.49798],[73.81244,18.4982],[73.81002,18.49821],[73.809,18.49841],[73.80789,18.49891],[73.8045,18.49915],[73.80442,18.49816],[73.80261,18.49824],[73.80251,18.49753],[73.80211,18.49753],[73.80216,18.49976],[73.80136,18.4998],[73.80131,18.49936],[73.80098,18.4994],[73.80095,18.4991],[73.80066,18.49913],[73.8007,18.4995],[73.80035,18.49953],[73.80059,18.50138],[73.80081,18.50156],[73.8018,18.50133],[73.80285,18.50703],[73.79902,18.50763],[73.79878,18.50854],[73.79875,18.51194],[73.80372,18.51283],[73.8059,18.51285],[73.80589,18.51562],[73.80787,18.51553],[73.8078,18.51313],[73.80762,18.51241],[73.80906,18.51251],[73.80902,18.50953],[73.80918,18.50819]]]}},{"type":"Feature","properties":{"ward_id":"32","name":"32 Bhusari colony - Bavdhan Khurd"},"geometry":{"type":"Polygon","coordinates":[[[73.80588,18.52159],[73.8059,18.51285],[73.80372,18.51283],[73.79875,18.51194],[73.79878,18.50854],[73.79902,18.50763],[73.80285,18.50703],[73.8018,18.50133],[73.80081,18.50156],[73.80059,18.50138],[73.80011,18.49845],[73.79579,18.49875],[73.79585,18.50014],[73.79567,18.50117],[73.79167,18.50133],[73.79249,18.50288],[73.79246,18.5044],[73.79173,18.50596],[73.79044,18.50702],[73.78947,18.50736],[73.78927,18.50629],[73.78881,18.50629],[73.78887,18.50686],[73.78872,18.50686],[73.78845,18.5075],[73.78475,18.50731],[73.78287,18.50745],[73.77516,18.50912],[73.77408,18.50952],[73.77329,18.51002],[73.77098,18.51186],[73.77003,18.51315],[73.77146,18.51295],[73.77229,18.5124],[73.774,18.51319],[73.77458,18.51324],[73.77458,18.51351],[73.77535,18.51466],[73.77496,18.51507],[73.77506,18.51531],[73.77557,18.51554],[73.77669,18.5169],[73.77678,18.51823],[73.7765,18.51922],[73.776,18.51982],[73.77651,18.52014],[73.77715,18.51926],[73.77819,18.51934],[73.77817,18.51963],[73.77881,18.51968],[73.77911,18.51893],[73.78138,18.51687],[73.78265,18.51408],[73.78229,18.51224],[73.78388,18.51268],[73.78625,18.51298],[73.78823,18.51674],[73.79099,18.51594],[73.79233,18.51606],[73.79231,18.51636],[73.79272,18.51703],[73.79321,18.51732],[73.79548,18.51961],[73.79708,18.52159],[73.79893,18.52316],[73.79984,18.52348],[73.80203,18.52384],[73.80238,18.52408],[73.80603,18.5246],[73.80588,18.52159]]]}},{"type":"Feature","properties":{"ward_id":"33","name":"33 Ideal colony - Mahatma Society"},"geometry":{"type":"Polygon","coordinates":[[[73.77003,18.51315],[73.77098,18.51186],[73.77329,18.51002],[73.77408,18.50952],[73.77516,18.50912],[73.78287,18.50745],[73.78475,18.50731],[73.78845,18.5075],[73.78872,18.50686],[73.78887,18.50686],[73.78881,18.50629],[73.78927,18.50629],[73.78947,18.50736],[73.79044,18.50702],[73.79173,18.50596],[73.79246,18.5044],[73.79249,18.50288],[73.79167,18.50133],[73.79567,18.50117],[73.79585,18.50014],[73.79579,18.49875],[73.80011,18.49845],[73.80035,18.49953],[73.8007,18.4995],[73.80066,18.49913],[73.80095,18.4991],[73.80098,18.4994],[73.80131,18.49936],[73.80136,18.4998],[73.80216,18.49976],[73.80211,18.49753],[73.80251,18.49753],[73.80261,18.49824],[73.80442,18.49816],[73.8045,18.49915],[73.80789,18.49891],[73.809,18.49841],[73.81002,18.49821],[73.81244,18.4982],[73.8138,18.49798],[73.81365,18.49949],[73.81399,18.50055],[73.81449,18.50141],[73.8158,18.50223],[73.81502,18.50216],[73.81501,18.50278],[73.81481,18.50281],[73.81385,18.50381],[73.81239,18.50466],[73.81087,18.50598],[73.80923,18.50671],[73.80873,18.50802],[73.81046,18.50844],[73.81105,18.50898],[73.81181,18.50939],[73.8146,18.50966],[73.81545,18.50996],[73.81773,18.51038],[73.82026,18.51047],[73.82153,18.50954],[73.82396,18.50668],[73.82508,18.50563],[73.82315,18.5051],[73.82125,18.50425],[73.82255,18.49958],[73.82355,18.49792],[73.82609,18.49859],[73.82612,18.49819],[73.82654,18.49815],[73.82467,18.49017],[73.8204,18.49219],[73.81844,18.49279],[73.81852,18.49386],[73.81821,18.49461],[73.81777,18.49404],[73.81742,18.49388],[73.81518,18.49329],[73.8134,18.49254],[73.80868,18.49225],[73.80823,18.49185],[73.8074,18.49163],[73.80591,18.49223],[73.80532,18.49221],[73.80506,18.49204],[73.80414,18.49286],[73.80156,18.49354],[73.80018,18.49314],[73.79996,18.49216],[73.79986,18.49238],[73.79801,18.49239],[73.79703,18.49266],[73.7942,18.49453],[73.79383,18.49463],[73.79369,18.49494],[73.79276,18.49555],[73.79221,18.49634],[73.79148,18.49643],[73.78841,18.49777],[73.78653,18.49899],[73.78578,18.49904],[73.78554,18.49982],[73.78469,18.50036],[73.7832,18.50037],[73.7831,18.49997],[73.78087,18.49794],[73.77968,18.49791],[73.77685,18.49573],[73.7772,18.49453],[73.77581,18.49169],[73.77477,18.49065],[73.77472,18.48977],[73.77403,18.48927],[73.77404,18.48879],[73.77267,18.48794],[73.77119,18.48636],[73.76907,18.48482],[73.76851,18.48615],[73.76626,18.48917],[73.76588,18.49004],[73.76582,18.49086],[73.76549,18.49114],[73.76515,18.49212],[73.76515,18.49309],[73.76533,18.49363],[73.76573,18.49427],[73.766,18.49435],[73.76642,18.49482],[73.7672,18.49633],[73.76591,18.49703],[73.76373,18.49948],[73.76054,18.50229],[73.76027,18.50258],[73.76022,18.50347],[73.76029,18.5039],[73.76047,18.50399],[73.76167,18.50395],[73.76203,18.5043],[73.7621,18.5046],[73.76187,18.50533],[73.7625,18.50579],[73.76326,18.50571],[73.76602,18.50639],[73.76644,18.5072],[73.76771,18.50844],[73.76764,18.50885],[73.76663,18.50917],[73.76643,18.50933],[73.76644,18.50961],[73.76858,18.50969],[73.76888,18.50982],[73.76907,18.51017],[73.76928,18.5123],[73.76894,18.51232],[73.76882,18.51259],[73.76981,18.51316],[73.77003,18.51315]]]}},{"type":"Feature","properties":{"ward_id":"34","name":"34 Warje - Kondhave Dhavde"},"geometry":{"type":"Polygon","coordinates":[[[73.80156,18.49354],[73.80243,18.49318],[73.80169,18.48732],[73.80236,18.48717],[73.80208,18.48579],[73.80334,18.48544],[73.80296,18.4837],[73.80211,18.48328],[73.8018,18.48293],[73.80123,18.48346],[73.80113,18.4834],[73.80103,18.48036],[73.79938,18.4793],[73.79592,18.47599],[73.79021,18.47128],[73.78814,18.47032],[73.78674,18.46929],[73.78634,18.46956],[73.78533,18.4692],[73.785,18.46931],[73.78457,18.47007],[73.7842,18.47019],[73.78378,18.47015],[73.78349,18.46994],[73.78337,18.46968],[73.78346,18.46722],[73.78239,18.46647],[73.78017,18.46749],[73.77947,18.46749],[73.7789,18.46777],[73.77776,18.46946],[73.77737,18.4695],[73.77669,18.46918],[73.77594,18.46965],[73.77563,18.46949],[73.77558,18.46916],[73.77629,18.46773],[73.77631,18.46689],[73.77613,18.46636],[73.77533,18.46587],[73.77488,18.46522],[73.7746,18.46506],[73.77357,18.46513],[73.77319,18.46358],[73.77245,18.46352],[73.77243,18.46316],[73.76906,18.46318],[73.76885,18.46291],[73.76882,18.4623],[73.76972,18.4613],[73.77049,18.46073],[73.77028,18.46029],[73.76981,18.46025],[73.7714,18.45946],[73.77184,18.45948],[73.77244,18.45918],[73.77282,18.4581],[73.77237,18.45758],[73.77114,18.45528],[73.77033,18.45298],[73.77013,18.45187],[73.77019,18.44922],[73.7708,18.44747],[73.77088,18.44677],[73.77081,18.44646],[73.77061,18.44645],[73.77031,18.44546],[73.77013,18.44268],[73.76588,18.43568],[73.76248,18.43287],[73.75835,18.43224],[73.75192,18.43206],[73.75089,18.43154],[73.74956,18.43472],[73.74918,18.43529],[73.74769,18.4367],[73.74629,18.43701],[73.74349,18.43997],[73.74211,18.44102],[73.74108,18.44134],[73.74071,18.44162],[73.73976,18.44236],[73.73902,18.44334],[73.73777,18.44442],[73.73715,18.4456],[73.73844,18.44741],[73.73878,18.44866],[73.73969,18.44983],[73.74003,18.45076],[73.74026,18.4507],[73.74081,18.4519],[73.74106,18.45192],[73.74152,18.45289],[73.7419,18.45299],[73.74261,18.4543],[73.74289,18.45446],[73.74313,18.45537],[73.74376,18.45579],[73.74411,18.45646],[73.74318,18.4581],[73.74319,18.45859],[73.74246,18.4588],[73.74231,18.45899],[73.74241,18.45953],[73.74172,18.45987],[73.74174,18.46],[73.74209,18.46003],[73.74212,18.4606],[73.74179,18.46085],[73.74123,18.46187],[73.74028,18.46193],[73.73939,18.46306],[73.73817,18.46392],[73.73739,18.4641],[73.73722,18.46433],[73.73679,18.46433],[73.73653,18.46473],[73.7361,18.4645],[73.73554,18.46475],[73.73547,18.46595],[73.73461,18.46717],[73.73461,18.46807],[73.73391,18.46908],[73.73358,18.46993],[73.73372,18.47048],[73.73256,18.47201],[73.73227,18.47276],[73.73262,18.47273],[73.73265,18.4745],[73.73295,18.47622],[73.73399,18.47867],[73.73584,18.47924],[73.73679,18.47938],[73.73699,18.47924],[73.73742,18.47928],[73.73735,18.48232],[73.73718,18.48234],[73.73697,18.48488],[73.73729,18.486],[73.73726,18.48691],[73.73757,18.48713],[73.73761,18.48736],[73.73883,18.48778],[73.74286,18.48833],[73.74356,18.4866],[73.74431,18.4854],[73.74469,18.48516],[73.74456,18.4844],[73.74536,18.48405],[73.74603,18.48399],[73.74756,18.48454],[73.74843,18.48554],[73.74855,18.48612],[73.74901,18.48644],[73.74979,18.48663],[73.75061,18.48874],[73.7512,18.48892],[73.7527,18.48862],[73.7532,18.48811],[73.75391,18.48802],[73.75436,18.48819],[73.75493,18.48796],[73.75608,18.48691],[73.7567,18.48687],[73.75671,18.48662],[73.75721,18.48619],[73.75828,18.48554],[73.76004,18.48502],[73.76021,18.48441],[73.76003,18.48376],[73.76022,18.48347],[73.76212,18.48358],[73.76317,18.48299],[73.76385,18.48284],[73.76571,18.48286],[73.76665,18.48376],[73.76861,18.48444],[73.76991,18.48535],[73.77119,18.48636],[73.77267,18.48794],[73.77404,18.48879],[73.77403,18.48927],[73.77472,18.48977],[73.77477,18.49065],[73.77581,18.49169],[73.7772,18.49453],[73.77685,18.49573],[73.77968,18.49791],[73.78087,18.49794],[73.7831,18.49997],[73.7832,18.50037],[73.78469,18.50036],[73.78554,18.49982],[73.78578,18.49904],[73.78653,18.49899],[73.78841,18.49777],[73.79148,18.49643],[73.79221,18.49634],[73.79276,18.49555],[73.79369,18.49494],[73.79383,18.49463],[73.7942,18.49453],[73.79703,18.49266],[73.79801,18.49239],[73.79986,18.49238],[73.79996,18.49216],[73.80018,18.49314],[73.80156,18.49354]]]}},{"type":"Feature","properties":{"ward_id":"35","name":"35 Ramnagar - Uttamnagar Shivane"},"geometry":{"type":"Polygon","coordinates":[[[73.80786,18.49174],[73.80693,18.49018],[73.80676,18.48937],[73.80686,18.48891],[73.80763,18.48719],[73.80787,18.48711],[73.80983,18.48444],[73.81013,18.48428],[73.80944,18.48335],[73.80572,18.48049],[73.80427,18.48031],[73.80936,18.47458],[73.80868,18.47294],[73.80327,18.46886],[73.80111,18.46762],[73.79916,18.46678],[73.79947,18.46626],[73.79972,18.46619],[73.79569,18.46336],[73.79379,18.46242],[73.79092,18.46204],[73.79024,18.46232],[73.78589,18.46275],[73.78416,18.4625],[73.78293,18.46181],[73.78099,18.46116],[73.77619,18.46033],[73.77459,18.45961],[73.77282,18.4581],[73.77244,18.45918],[73.77184,18.45948],[73.7714,18.45946],[73.76981,18.46025],[73.77028,18.46029],[73.77049,18.46073],[73.76972,18.4613],[73.76882,18.4623],[73.76885,18.46291],[73.76906,18.46318],[73.77243,18.46316],[73.77245,18.46352],[73.77319,18.46358],[73.77357,18.46513],[73.7746,18.46506],[73.77488,18.46522],[73.77533,18.46587],[73.77613,18.46636],[73.77631,18.46689],[73.77629,18.46773],[73.77572,18.46878],[73.77563,18.46949],[73.77619,18.46961],[73.77669,18.46918],[73.77737,18.4695],[73.77776,18.46946],[73.7789,18.46777],[73.77947,18.46749],[73.78017,18.46749],[73.78239,18.46647],[73.78346,18.46722],[73.78337,18.46968],[73.78349,18.46994],[73.78378,18.47015],[73.7842,18.47019],[73.78457,18.47007],[73.785,18.46931],[73.78533,18.4692],[73.78634,18.46956],[73.78674,18.46929],[73.78814,18.47032],[73.79021,18.47128],[73.79592,18.47599],[73.79938,18.4793],[73.80103,18.48036],[73.80113,18.4834],[73.80123,18.48346],[73.8018,18.48293],[73.80211,18.48328],[73.80296,18.4837],[73.80334,18.48544],[73.80208,18.48579],[73.80236,18.48717],[73.80169,18.48732],[73.80243,18.49318],[73.80156,18.49354],[73.80414,18.49286],[73.80506,18.49204],[73.80563,18.49226],[73.80714,18.49169],[73.80786,18.49174]]]}},{"type":"Feature","properties":{"ward_id":"36","name":"36 Karvenagar"},"geometry":{"type":"Polygon","coordinates":[[[73.82467,18.49017],[73.82682,18.49],[73.82715,18.48978],[73.82667,18.48906],[73.82787,18.48849],[73.82648,18.48522],[73.82602,18.48436],[73.82512,18.48332],[73.82418,18.48275],[73.82081,18.48272],[73.81949,18.4825],[73.81791,18.48186],[73.81645,18.48098],[73.81231,18.47922],[73.81171,18.47875],[73.8112,18.478],[73.80947,18.4746],[73.80913,18.4748],[73.80427,18.48031],[73.80572,18.48049],[73.80944,18.48335],[73.81013,18.48428],[73.80983,18.48444],[73.80787,18.48711],[73.80763,18.48719],[73.80676,18.48937],[73.80693,18.49018],[73.80786,18.49174],[73.80852,18.49202],[73.80868,18.49225],[73.8134,18.49254],[73.81518,18.49329],[73.81742,18.49388],[73.81777,18.49404],[73.81821,18.49461],[73.81852,18.49386],[73.81844,18.49279],[73.8204,18.49219],[73.82467,18.49017]]]}},{"type":"Feature","properties":{"ward_id":"37","name":"37 Janata Vasahat - Dattawadi"},"geometry":{"type":"Polygon","coordinates":[[[73.84534,18.50367],[73.84561,18.5012],[73.84588,18.50106],[73.84632,18.49973],[73.847,18.49989],[73.84861,18.49986],[73.85023,18.4989],[73.84963,18.49809],[73.84905,18.49611],[73.84755,18.49698],[73.84721,18.49696],[73.84615,18.49554],[73.84525,18.49551],[73.84444,18.49467],[73.84383,18.49438],[73.84328,18.49384],[73.8428,18.49368],[73.8425,18.49292],[73.8417,18.49233],[73.84086,18.49127],[73.84077,18.48983],[73.84038,18.48862],[73.84038,18.48767],[73.83919,18.48758],[73.83832,18.4878],[73.83795,18.48758],[73.83636,18.48826],[73.83477,18.48787],[73.83419,18.48788],[73.83239,18.48721],[73.83145,18.48667],[73.83027,18.48729],[73.83102,18.4881],[73.83403,18.48919],[73.83582,18.48962],[73.83728,18.48961],[73.83805,18.48981],[73.83606,18.49188],[73.83588,18.4928],[73.83534,18.49333],[73.83556,18.49355],[73.83306,18.49606],[73.83601,18.49878],[73.83684,18.50118],[73.8368,18.50282],[73.83783,18.50296],[73.83783,18.50331],[73.83884,18.50332],[73.83882,18.50471],[73.83947,18.50497],[73.84341,18.50492],[73.84491,18.50517],[73.84534,18.50367]]]}},{"type":"Feature","properties":{"ward_id":"38","name":"38 Shivdarshan - Padmavati"},"geometry":{"type":"Polygon","coordinates":[[[73.85851,18.50118],[73.85791,18.49669],[73.85781,18.4933],[73.85738,18.48891],[73.85754,18.4853],[73.85716,18.48209],[73.85715,18.4776],[73.85631,18.47598],[73.85632,18.47453],[73.85341,18.47447],[73.85161,18.47598],[73.85102,18.47675],[73.84975,18.48408],[73.84977,18.48486],[73.8501,18.48604],[73.84984,18.48943],[73.85048,18.48958],[73.85044,18.49159],[73.85087,18.49243],[73.85096,18.4932],[73.85128,18.49403],[73.85133,18.49489],[73.85155,18.4953],[73.84922,18.49643],[73.84963,18.49809],[73.85023,18.4989],[73.84861,18.49986],[73.847,18.49989],[73.84632,18.49973],[73.84588,18.50106],[73.84561,18.5012],[73.84544,18.50209],[73.84727,18.50226],[73.84822,18.50219],[73.84824,18.50424],[73.84951,18.50443],[73.84941,18.50583],[73.85063,18.50593],[73.85042,18.50791],[73.85533,18.50414],[73.85851,18.50118]]]}},{"type":"Feature","properties":{"ward_id":"39","name":"39 Market yard - Maharshinagar"},"geometry":{"type":"Polygon","coordinates":[[[73.85744,18.48727],[73.85738,18.48891],[73.85781,18.4933],[73.85791,18.49669],[73.85853,18.50065],[73.86041,18.50048],[73.86179,18.50016],[73.86527,18.5],[73.86825,18.50123],[73.86935,18.50153],[73.86938,18.49251],[73.87239,18.48097],[73.87061,18.48059],[73.86526,18.48101],[73.86233,18.48106],[73.86123,18.48093],[73.86099,18.48177],[73.85972,18.48407],[73.8595,18.48491],[73.8579,18.48697],[73.85744,18.48727]]]}},{"type":"Feature","properties":{"ward_id":"40","name":"40 Bibvewadi - Gangadham"},"geometry":{"type":"Polygon","coordinates":[[[73.8905,18.48309],[73.88961,18.48241],[73.8891,18.48176],[73.88823,18.48147],[73.88795,18.48122],[73.88783,18.4808],[73.88886,18.48069],[73.88886,18.48002],[73.88814,18.4799],[73.88764,18.47963],[73.88742,18.47946],[73.88715,18.47882],[73.88465,18.47883],[73.88467,18.47818],[73.8837,18.47824],[73.88365,18.4776],[73.88118,18.47801],[73.87956,18.47555],[73.87989,18.47415],[73.87959,18.47299],[73.87961,18.47202],[73.87802,18.47188],[73.87622,18.472],[73.87487,18.47225],[73.87481,18.47241],[73.87358,18.47225],[73.87363,18.47127],[73.87294,18.47127],[73.87101,18.47149],[73.86944,18.47203],[73.86897,18.47242],[73.86871,18.47219],[73.86647,18.47199],[73.86637,18.47285],[73.86294,18.47269],[73.86284,18.47294],[73.86242,18.47461],[73.86233,18.47631],[73.86159,18.47868],[73.86123,18.48093],[73.86233,18.48106],[73.86526,18.48101],[73.87061,18.48059],[73.87239,18.48097],[73.86938,18.49251],[73.86935,18.50153],[73.87079,18.50183],[73.87481,18.50195],[73.87482,18.50065],[73.87376,18.50057],[73.87344,18.50027],[73.87424,18.49986],[73.87646,18.49791],[73.87751,18.49722],[73.87712,18.49587],[73.87708,18.49516],[73.8776,18.4915],[73.87738,18.48871],[73.8786,18.48847],[73.88023,18.48957],[73.88286,18.48999],[73.88343,18.49027],[73.88359,18.48993],[73.88414,18.48967],[73.88865,18.49003],[73.88956,18.48624],[73.88968,18.48479],[73.89014,18.4841],[73.89019,18.48321],[73.8905,18.48309]]]}},{"type":"Feature","properties":{"ward_id":"41","name":"41 Kondhva Kh - Mithanagar"},"geometry":{"type":"Polygon","coordinates":[[[73.89103,18.48276],[73.89121,18.48196],[73.89105,18.48039],[73.89038,18.47789],[73.88972,18.4767],[73.88914,18.47363],[73.88893,18.47113],[73.88897,18.46831],[73.88965,18.46468],[73.88797,18.46481],[73.88555,18.46447],[73.88415,18.46453],[73.88369,18.46474],[73.8798,18.46432],[73.87982,18.46457],[73.87752,18.46469],[73.87688,18.46598],[73.87613,18.46867],[73.87513,18.47131],[73.875,18.47223],[73.87802,18.47188],[73.87961,18.47202],[73.87959,18.47299],[73.87989,18.47415],[73.87956,18.47555],[73.88118,18.47801],[73.88365,18.4776],[73.8837,18.47824],[73.88467,18.47818],[73.88465,18.47883],[73.88715,18.47882],[73.88742,18.47946],[73.88764,18.47963],[73.88814,18.4799],[73.88886,18.48002],[73.88886,18.48069],[73.88783,18.4808],[73.88795,18.48122],[73.88823,18.48147],[73.8891,18.48176],[73.88961,18.48241],[73.8905,18.48309],[73.89103,18.48276]]]}},{"type":"Feature","properties":{"ward_id":"42","name":"42 Ramtekadi - Sayyadnagar"},"geometry":{"type":"Polygon","coordinates":[[[73.91515,18.50593],[73.93211,18.48893],[73.93137,18.48078],[73.92942,18.48083],[73.92962,18.48296],[73.927,18.48358],[73.92667,18.48286],[73.92668,18.48224],[73.92621,18.48152],[73.92619,18.48002],[73.92495,18.47857],[73.92377,18.47901],[73.92278,18.47791],[73.92259,18.47745],[73.92271,18.47654],[73.92256,18.47572],[73.92221,18.47574],[73.91919,18.47492],[73.91574,18.47524],[73.91541,18.47497],[73.91505,18.47491],[73.91607,18.47437],[73.91516,18.47388],[73.91443,18.47308],[73.91696,18.47187],[73.91616,18.47052],[73.91497,18.46991],[73.91475,18.46873],[73.91367,18.46821],[73.91319,18.46738],[73.91314,18.46654],[73.91198,18.46678],[73.91153,18.46654],[73.90944,18.46608],[73.9089,18.46561],[73.90851,18.46568],[73.90801,18.46551],[73.90753,18.46466],[73.90721,18.46335],[73.90432,18.46344],[73.90458,18.46498],[73.90284,18.46512],[73.90228,18.46599],[73.89975,18.46499],[73.88967,18.46458],[73.88897,18.46831],[73.88893,18.47113],[73.88912,18.47339],[73.8916,18.47343],[73.89168,18.47301],[73.89279,18.47308],[73.89276,18.47284],[73.89607,18.47293],[73.89604,18.47473],[73.89841,18.47452],[73.89853,18.47419],[73.90066,18.47442],[73.90067,18.47414],[73.90702,18.47499],[73.90739,18.4763],[73.90785,18.47715],[73.91005,18.48288],[73.91024,18.48319],[73.9118,18.48394],[73.9116,18.48492],[73.91174,18.48528],[73.9116,18.49162],[73.91144,18.49307],[73.91161,18.49495],[73.91195,18.49643],[73.91116,18.49885],[73.91045,18.4988],[73.91143,18.50087],[73.91176,18.50255],[73.91241,18.50277],[73.91256,18.50638],[73.91515,18.50593]]]}},{"type":"Feature","properties":{"ward_id":"43","name":"43 Wanawadi - Kausar Baug"},"geometry":{"type":"Polygon","coordinates":[[[73.91145,18.49358],[73.91174,18.48528],[73.9116,18.48492],[73.9118,18.48394],[73.91024,18.48319],[73.91005,18.48288],[73.90785,18.47715],[73.90739,18.4763],[73.90702,18.47499],[73.90067,18.47414],[73.90066,18.47442],[73.89853,18.47419],[73.89841,18.47452],[73.89604,18.47473],[73.89607,18.47293],[73.89276,18.47284],[73.89279,18.47308],[73.89168,18.47301],[73.8916,18.47343],[73.88912,18.47339],[73.88972,18.4767],[73.89038,18.47789],[73.89105,18.48039],[73.89121,18.48196],[73.89103,18.48276],[73.89291,18.48247],[73.89283,18.4877],[73.89321,18.48812],[73.89491,18.48816],[73.8952,18.48906],[73.89575,18.48962],[73.8959,18.49069],[73.89649,18.49134],[73.89666,18.49213],[73.89745,18.49284],[73.89708,18.49396],[73.89634,18.49415],[73.8964,18.49511],[73.89619,18.49631],[73.89672,18.4968],[73.8975,18.49595],[73.899,18.49531],[73.90178,18.49474],[73.90198,18.49509],[73.90389,18.49404],[73.90382,18.49384],[73.90668,18.49382],[73.90668,18.49406],[73.90709,18.49404],[73.90708,18.49379],[73.908,18.49374],[73.90822,18.49394],[73.91145,18.49358]]]}},{"type":"Feature","properties":{"ward_id":"44","name":"44 Kale Boratenagar - Sasanenagar"},"geometry":{"type":"Polygon","coordinates":[[[73.94714,18.49394],[73.94932,18.49117],[73.94809,18.48728],[73.94546,18.48389],[73.9436,18.47689],[73.94182,18.47702],[73.93691,18.47664],[73.93521,18.47666],[73.9356,18.47711],[73.93563,18.47772],[73.93415,18.4775],[73.93142,18.47755],[73.93127,18.48032],[73.93166,18.48317],[73.93211,18.48893],[73.9289,18.49216],[73.92906,18.49332],[73.9323,18.49315],[73.93312,18.49689],[73.93568,18.49738],[73.93848,18.49684],[73.93961,18.49794],[73.94092,18.49856],[73.94714,18.49394]]]}},{"type":"Feature","properties":{"ward_id":"45","name":"45 Fursungi"},"geometry":{"type":"Polygon","coordinates":[[[73.95006,18.49387],[73.95912,18.49314],[73.9604,18.4916],[73.96083,18.49014],[73.96063,18.4873],[73.96113,18.48423],[73.96217,18.48171],[73.96306,18.4805],[73.96377,18.47994],[73.97231,18.47797],[73.9782,18.47683],[73.97741,18.47593],[73.97711,18.47484],[73.97613,18.47436],[73.97545,18.47333],[73.97437,18.47246],[73.9743,18.47042],[73.97396,18.46957],[73.97413,18.46888],[73.97329,18.46887],[73.97253,18.46844],[73.97071,18.46893],[73.97032,18.46861],[73.9701,18.46796],[73.9672,18.46718],[73.96607,18.46661],[73.96403,18.46507],[73.96344,18.46548],[73.96172,18.46532],[73.95917,18.46639],[73.95616,18.46672],[73.9519,18.46775],[73.95196,18.46893],[73.95177,18.46931],[73.95103,18.46962],[73.95016,18.46967],[73.94961,18.4695],[73.94919,18.46902],[73.94794,18.46932],[73.94737,18.46917],[73.94757,18.46947],[73.94375,18.47294],[73.94232,18.47343],[73.94346,18.47689],[73.9436,18.47689],[73.94546,18.48389],[73.94809,18.48728],[73.95006,18.49387]]]}},{"type":"Feature","properties":{"ward_id":"46","name":"46 Mohammad wadi - Uruli Devachi"},"geometry":{"type":"Polygon","coordinates":[[[73.93137,18.48078],[73.93127,18.48032],[73.93142,18.47755],[73.93415,18.4775],[73.93563,18.47772],[73.9356,18.47711],[73.93521,18.47666],[73.93691,18.47664],[73.94182,18.47702],[73.94346,18.47689],[73.94232,18.47343],[73.94375,18.47294],[73.94757,18.46947],[73.94737,18.46917],[73.94794,18.46932],[73.94919,18.46902],[73.94961,18.4695],[73.95016,18.46967],[73.95103,18.46962],[73.95177,18.46931],[73.95196,18.46893],[73.9519,18.46775],[73.95616,18.46672],[73.95917,18.46639],[73.96172,18.46532],[73.96344,18.46548],[73.96403,18.46507],[73.96607,18.46661],[73.9672,18.46718],[73.9701,18.46796],[73.97032,18.46861],[73.97071,18.46893],[73.97253,18.46844],[73.97329,18.46887],[73.97413,18.46888],[73.97396,18.46957],[73.9743,18.47042],[73.97437,18.47246],[73.97545,18.47333],[73.97613,18.47436],[73.97711,18.47484],[73.97741,18.47593],[73.9782,18.47683],[73.9797,18.4765],[73.9802,18.47617],[73.98058,18.47498],[73.98213,18.47241],[73.98283,18.47162],[73.98443,18.47082],[73.99015,18.46826],[73.99083,18.46814],[73.99352,18.4688],[73.99418,18.46876],[73.99548,18.46832],[73.99656,18.46821],[73.99978,18.46664],[73.99863,18.46371],[73.997,18.45776],[73.99321,18.45804],[73.99019,18.4577],[73.97061,18.45819],[73.96951,18.45696],[73.96952,18.45473],[73.97048,18.45225],[73.97071,18.45085],[73.97071,18.44942],[73.96922,18.44707],[73.96853,18.44689],[73.96841,18.44662],[73.9682,18.44428],[73.96776,18.44271],[73.96571,18.44249],[73.96481,18.44224],[73.96448,18.44192],[73.96419,18.44122],[73.96425,18.43861],[73.96395,18.4383],[73.96404,18.43779],[73.96376,18.43757],[73.96378,18.43727],[73.96402,18.43706],[73.96218,18.43558],[73.96197,18.43511],[73.96115,18.43446],[73.95917,18.43334],[73.95787,18.43184],[73.95836,18.42586],[73.95773,18.42329],[73.9557,18.42233],[73.95431,18.41961],[73.95196,18.41332],[73.94869,18.41386],[73.94845,18.41414],[73.94813,18.4142],[73.94436,18.41243],[73.9435,18.41227],[73.94186,18.4126],[73.9409,18.41238],[73.93847,18.41122],[73.93605,18.41184],[73.93482,18.4118],[73.9349,18.41295],[73.93421,18.41286],[73.93285,18.41367],[73.93166,18.41375],[73.93073,18.41362],[73.92998,18.41325],[73.928,18.41278],[73.92647,18.41267],[73.92614,18.41294],[73.92371,18.4122],[73.92262,18.41086],[73.92121,18.40985],[73.92039,18.40861],[73.91885,18.40728],[73.9188,18.40695],[73.9171,18.40714],[73.91339,18.40695],[73.91105,18.40749],[73.90992,18.40879],[73.90422,18.40885],[73.90365,18.4093],[73.90288,18.40955],[73.90314,18.41055],[73.90354,18.41124],[73.90376,18.41122],[73.90412,18.41278],[73.90443,18.41318],[73.90436,18.41329],[73.90373,18.41322],[73.90359,18.41378],[73.90404,18.41441],[73.90438,18.41424],[73.90606,18.41706],[73.90744,18.41849],[73.90931,18.42001],[73.90949,18.42213],[73.90882,18.42339],[73.90892,18.42379],[73.90863,18.42392],[73.90866,18.42652],[73.90966,18.42886],[73.90964,18.42932],[73.90954,18.43008],[73.90839,18.43221],[73.90936,18.43582],[73.90954,18.43808],[73.9101,18.44004],[73.91076,18.44453],[73.91109,18.44531],[73.91096,18.45139],[73.91195,18.45374],[73.91201,18.45427],[73.91135,18.4553],[73.91121,18.45581],[73.91136,18.45652],[73.90859,18.4577],[73.90834,18.45799],[73.90565,18.45846],[73.90464,18.45882],[73.90453,18.45913],[73.90369,18.45966],[73.90239,18.46009],[73.90203,18.46045],[73.90158,18.46058],[73.89799,18.45972],[73.8937,18.45773],[73.89097,18.45726],[73.89098,18.4599],[73.89032,18.46235],[73.88968,18.46335],[73.8899,18.46463],[73.89975,18.46499],[73.90228,18.46599],[73.90284,18.46512],[73.90458,18.46498],[73.90432,18.46344],[73.90721,18.46335],[73.90753,18.46466],[73.90801,18.46551],[73.90851,18.46568],[73.9089,18.46561],[73.90944,18.46608],[73.91153,18.46654],[73.91198,18.46678],[73.91314,18.46654],[73.91319,18.46738],[73.91367,18.46821],[73.91475,18.46873],[73.91497,18.46991],[73.91616,18.47052],[73.91696,18.47187],[73.91443,18.47308],[73.91516,18.47388],[73.91607,18.47437],[73.91505,18.47491],[73.91541,18.47497],[73.91574,18.47524],[73.91919,18.47492],[73.92221,18.47574],[73.92256,18.47572],[73.92271,18.47654],[73.92259,18.47745],[73.92278,18.47791],[73.92377,18.47901],[73.92495,18.47857],[73.92619,18.48002],[73.92621,18.48152],[73.92668,18.48224],[73.92667,18.48286],[73.927,18.48358],[73.92962,18.48296],[73.92942,18.48083],[73.93137,18.48078]]]}},{"type":"Feature","properties":{"ward_id":"47","name":"47 Kondhva Bk - Yewalewadi"},"geometry":{"type":"Polygon","coordinates":[[[73.88797,18.46481],[73.8899,18.46463],[73.88968,18.46335],[73.89032,18.46235],[73.89098,18.4599],[73.89097,18.45726],[73.8937,18.45773],[73.89799,18.45972],[73.90158,18.46058],[73.90203,18.46045],[73.90239,18.46009],[73.90369,18.45966],[73.90453,18.45913],[73.90464,18.45882],[73.90565,18.45846],[73.90834,18.45799],[73.90859,18.4577],[73.91136,18.45652],[73.91121,18.45581],[73.91135,18.4553],[73.91201,18.45427],[73.91195,18.45374],[73.91096,18.45139],[73.91109,18.44531],[73.91076,18.44453],[73.9101,18.44004],[73.90954,18.43808],[73.90936,18.43582],[73.90839,18.43221],[73.90954,18.43008],[73.90964,18.42932],[73.90966,18.42886],[73.90866,18.42652],[73.90863,18.42392],[73.90892,18.42379],[73.90882,18.42339],[73.90949,18.42213],[73.90931,18.42001],[73.90744,18.41849],[73.90606,18.41706],[73.90438,18.41424],[73.90404,18.41441],[73.90359,18.41378],[73.90373,18.41322],[73.90436,18.41329],[73.90443,18.41318],[73.90412,18.41278],[73.90376,18.41122],[73.90354,18.41124],[73.90314,18.41055],[73.90288,18.40955],[73.90258,18.40946],[73.89993,18.40997],[73.89818,18.40986],[73.89491,18.41017],[73.89261,18.4098],[73.89172,18.40938],[73.88941,18.41182],[73.88832,18.41523],[73.88323,18.42123],[73.88277,18.42208],[73.88235,18.42339],[73.88125,18.42525],[73.88073,18.42702],[73.87909,18.42851],[73.87954,18.42881],[73.88011,18.43035],[73.88134,18.43279],[73.88176,18.43524],[73.88185,18.43703],[73.88181,18.43721],[73.88058,18.43819],[73.87828,18.43839],[73.87802,18.43963],[73.87714,18.44218],[73.87726,18.44301],[73.87689,18.4441],[73.87765,18.44438],[73.8767,18.44659],[73.87613,18.44656],[73.87551,18.44873],[73.87533,18.45],[73.87438,18.44983],[73.87358,18.45652],[73.87553,18.45674],[73.87549,18.45795],[73.87808,18.45814],[73.87752,18.46469],[73.87982,18.46457],[73.8798,18.46432],[73.88369,18.46474],[73.88415,18.46453],[73.88555,18.46447],[73.88797,18.46481]]]}},{"type":"Feature","properties":{"ward_id":"48","name":"48 Upper Super Indiranagar"},"geometry":{"type":"Polygon","coordinates":[[[73.875,18.47223],[73.87513,18.47131],[73.87613,18.46867],[73.87688,18.46598],[73.87752,18.46469],[73.87781,18.46127],[73.8682,18.46101],[73.86638,18.46135],[73.86535,18.46248],[73.86508,18.46316],[73.86732,18.46342],[73.86735,18.46424],[73.86777,18.46455],[73.86625,18.46484],[73.86469,18.46484],[73.86462,18.46667],[73.86387,18.47067],[73.86316,18.47257],[73.86294,18.47269],[73.86637,18.47285],[73.86647,18.47199],[73.86871,18.47219],[73.86897,18.47242],[73.86944,18.47203],[73.87101,18.47149],[73.87294,18.47127],[73.87363,18.47127],[73.87358,18.47225],[73.87481,18.47241],[73.875,18.47223]]]}},{"type":"Feature","properties":{"ward_id":"49","name":"49 Balajinagar - Shankar Maharaj Math"},"geometry":{"type":"Polygon","coordinates":[[[73.86099,18.48177],[73.86159,18.47868],[73.86233,18.47631],[73.86242,18.47461],[73.86263,18.47367],[73.86294,18.47269],[73.86316,18.47257],[73.86362,18.47154],[73.86457,18.46692],[73.86143,18.46653],[73.8621,18.46448],[73.8628,18.46362],[73.86318,18.46183],[73.86337,18.46152],[73.86341,18.45966],[73.86308,18.45929],[73.8628,18.45949],[73.86267,18.45984],[73.85992,18.46004],[73.85959,18.46028],[73.85805,18.46035],[73.85819,18.4642],[73.85787,18.46746],[73.85753,18.46951],[73.85643,18.47349],[73.85629,18.47533],[73.85631,18.47598],[73.85715,18.4776],[73.85716,18.48209],[73.85754,18.4853],[73.85744,18.48727],[73.8579,18.48697],[73.8595,18.48491],[73.85972,18.48407],[73.86099,18.48177]]]}},{"type":"Feature","properties":{"ward_id":"50","name":"50 Sahakarnagar - Taljai"},"geometry":{"type":"Polygon","coordinates":[[[73.84922,18.49643],[73.85155,18.4953],[73.85133,18.49489],[73.85128,18.49403],[73.85096,18.4932],[73.85087,18.49243],[73.85044,18.49159],[73.85048,18.48958],[73.84984,18.48943],[73.8501,18.48604],[73.84977,18.48486],[73.84975,18.48408],[73.8509,18.4771],[73.85161,18.47598],[73.85341,18.47447],[73.85639,18.4745],[73.85643,18.47349],[73.85774,18.46837],[73.85339,18.46795],[73.85287,18.46847],[73.85211,18.46826],[73.85171,18.46783],[73.85072,18.46783],[73.84998,18.4684],[73.84653,18.46863],[73.84482,18.46841],[73.84421,18.4705],[73.84426,18.47187],[73.84372,18.47217],[73.84405,18.47469],[73.84392,18.47685],[73.84424,18.48014],[73.84527,18.48199],[73.84427,18.48167],[73.84385,18.48169],[73.84321,18.48293],[73.8426,18.48483],[73.84238,18.48615],[73.8422,18.48643],[73.84136,18.48674],[73.84139,18.4873],[73.84038,18.48767],[73.84038,18.48862],[73.84077,18.48983],[73.84086,18.49127],[73.8417,18.49233],[73.8425,18.49292],[73.8429,18.49377],[73.84328,18.49384],[73.84383,18.49438],[73.84444,18.49467],[73.84525,18.49551],[73.84615,18.49554],[73.84721,18.49696],[73.84755,18.49698],[73.84905,18.49611],[73.84922,18.49643]]]}},{"type":"Feature","properties":{"ward_id":"51","name":"51 Vadgaon Bk - Manikbaug"},"geometry":{"type":"Polygon","coordinates":[[[73.84038,18.48767],[73.84139,18.4873],[73.84136,18.48674],[73.8422,18.48643],[73.84238,18.48615],[73.8426,18.48483],[73.84321,18.48293],[73.84385,18.48169],[73.84427,18.48167],[73.84527,18.48199],[73.84424,18.48014],[73.84392,18.47685],[73.84405,18.47469],[73.84372,18.47217],[73.84426,18.47187],[73.84421,18.4705],[73.8446,18.46939],[73.84554,18.46522],[73.84196,18.46479],[73.8423,18.46308],[73.83992,18.46293],[73.83892,18.4647],[73.83745,18.46475],[73.83659,18.46545],[73.83513,18.46548],[73.83488,18.46502],[73.83471,18.46498],[73.83202,18.46483],[73.83152,18.46428],[73.83136,18.46161],[73.83029,18.46181],[73.82809,18.46167],[73.82781,18.46179],[73.82314,18.46035],[73.81612,18.45909],[73.81548,18.45911],[73.81448,18.45977],[73.81263,18.45968],[73.8128,18.46096],[73.81441,18.46204],[73.81596,18.46486],[73.81686,18.46617],[73.81877,18.4677],[73.82009,18.46935],[73.82165,18.47327],[73.82339,18.47708],[73.82504,18.48008],[73.82643,18.47918],[73.82625,18.47885],[73.8265,18.4788],[73.82667,18.47854],[73.82767,18.47819],[73.82814,18.47963],[73.82893,18.47909],[73.8295,18.47907],[73.83176,18.47827],[73.83247,18.47988],[73.83248,18.48025],[73.83201,18.4815],[73.83086,18.48238],[73.82953,18.48402],[73.82931,18.4848],[73.82931,18.48551],[73.82953,18.48648],[73.82988,18.48697],[73.83027,18.48729],[73.83145,18.48667],[73.83239,18.48721],[73.83419,18.48788],[73.83477,18.48787],[73.83636,18.48826],[73.83795,18.48758],[73.83832,18.4878],[73.83919,18.48758],[73.84038,18.48767]]]}},{"type":"Feature","properties":{"ward_id":"52","name":"52 Nanded City - Sun City"},"geometry":{"type":"Polygon","coordinates":[[[73.83102,18.4881],[73.82953,18.48648],[73.82931,18.4848],[73.8297,18.48368],[73.83086,18.48238],[73.83201,18.4815],[73.83239,18.48065],[73.83247,18.47988],[73.83176,18.47827],[73.8295,18.47907],[73.82893,18.47909],[73.82814,18.47963],[73.82767,18.47819],[73.82667,18.47854],[73.8265,18.4788],[73.82625,18.47885],[73.82643,18.47918],[73.82504,18.48008],[73.82339,18.47708],[73.82165,18.47327],[73.82009,18.46935],[73.81877,18.4677],[73.81686,18.46617],[73.81596,18.46486],[73.8147,18.46239],[73.81377,18.46151],[73.81143,18.46001],[73.80987,18.45951],[73.80884,18.45848],[73.80797,18.45811],[73.80398,18.45731],[73.80204,18.45722],[73.79978,18.45658],[73.79924,18.45672],[73.79704,18.45629],[73.79726,18.45519],[73.79621,18.45457],[73.79538,18.45447],[73.79514,18.45355],[73.79424,18.45352],[73.7907,18.45274],[73.79016,18.45288],[73.78878,18.45375],[73.78837,18.45377],[73.78787,18.45581],[73.78747,18.45597],[73.78653,18.45944],[73.78673,18.45944],[73.78652,18.46111],[73.78664,18.46267],[73.79024,18.46232],[73.79092,18.46204],[73.79171,18.46205],[73.79379,18.46242],[73.79569,18.46336],[73.79972,18.46619],[73.79947,18.46626],[73.79916,18.46678],[73.80111,18.46762],[73.80327,18.46886],[73.80868,18.47294],[73.80936,18.47458],[73.8112,18.478],[73.81171,18.47875],[73.81231,18.47922],[73.81645,18.48098],[73.81791,18.48186],[73.81949,18.4825],[73.82081,18.48272],[73.82418,18.48275],[73.82512,18.48332],[73.82602,18.48436],[73.82787,18.48849],[73.82891,18.49019],[73.83306,18.49606],[73.83556,18.49355],[73.83534,18.49333],[73.83588,18.4928],[73.83606,18.49188],[73.83805,18.48981],[73.83728,18.48961],[73.83582,18.48962],[73.83403,18.48919],[73.83102,18.4881]]]}},{"type":"Feature","properties":{"ward_id":"53","name":"53 Khadakwasla - Narhe"},"geometry":{"type":"Polygon","coordinates":[[[73.78664,18.46267],[73.78652,18.46111],[73.78673,18.45944],[73.78653,18.45944],[73.78747,18.45597],[73.78787,18.45581],[73.78837,18.45377],[73.78878,18.45375],[73.79016,18.45288],[73.7907,18.45274],[73.79424,18.45352],[73.79514,18.45355],[73.79538,18.45447],[73.79621,18.45457],[73.79726,18.45519],[73.79704,18.45629],[73.79924,18.45672],[73.79978,18.45658],[73.80204,18.45722],[73.80398,18.45731],[73.80797,18.45811],[73.80884,18.45848],[73.80987,18.45951],[73.81143,18.46001],[73.8128,18.46096],[73.81263,18.45968],[73.81448,18.45977],[73.81548,18.45911],[73.81387,18.45913],[73.81349,18.4593],[73.81387,18.45826],[73.81529,18.45786],[73.8155,18.45758],[73.8164,18.45728],[73.81701,18.45652],[73.81729,18.45644],[73.81906,18.45196],[73.81921,18.45064],[73.8196,18.45032],[73.81996,18.44971],[73.82062,18.44718],[73.8178,18.44684],[73.81623,18.44699],[73.81501,18.44671],[73.81388,18.4472],[73.81302,18.44716],[73.81228,18.44738],[73.80763,18.44714],[73.80717,18.44718],[73.80673,18.44748],[73.80551,18.44751],[73.80419,18.4471],[73.80332,18.44715],[73.80182,18.44695],[73.80046,18.44725],[73.79687,18.44705],[73.7972,18.44595],[73.79814,18.44578],[73.80026,18.43768],[73.80051,18.43707],[73.80107,18.43685],[73.80116,18.43562],[73.80185,18.43435],[73.80159,18.43171],[73.80179,18.43087],[73.80177,18.42796],[73.80199,18.42792],[73.80176,18.42693],[73.80242,18.42681],[73.80308,18.42496],[73.80352,18.42434],[73.8041,18.42407],[73.80491,18.42272],[73.80853,18.41861],[73.80937,18.41818],[73.80904,18.41732],[73.80891,18.4164],[73.81122,18.41167],[73.81156,18.41154],[73.81157,18.41127],[73.81193,18.41106],[73.81199,18.41051],[73.81258,18.40953],[73.81615,18.40862],[73.81716,18.40736],[73.81809,18.40712],[73.81829,18.40676],[73.81883,18.40663],[73.82134,18.40372],[73.82278,18.39793],[73.82458,18.39498],[73.82366,18.39191],[73.82083,18.38916],[73.81697,18.38934],[73.81198,18.38815],[73.80495,18.38539],[73.80302,18.38587],[73.80186,18.38563],[73.80006,18.38639],[73.7958,18.39285],[73.79498,18.39343],[73.79497,18.39525],[73.79342,18.40176],[73.79274,18.40379],[73.78701,18.40742],[73.78521,18.40875],[73.78422,18.41004],[73.78194,18.40984],[73.78166,18.40961],[73.77927,18.41038],[73.77827,18.41052],[73.77824,18.41106],[73.77856,18.41169],[73.77948,18.41145],[73.78093,18.41136],[73.78163,18.41144],[73.78177,18.41173],[73.78064,18.41281],[73.78041,18.41333],[73.77868,18.41502],[73.77867,18.41609],[73.77771,18.41616],[73.77709,18.416],[73.77387,18.41765],[73.77252,18.41814],[73.76734,18.41952],[73.76496,18.41958],[73.76483,18.42017],[73.76457,18.42015],[73.76381,18.42055],[73.76348,18.42164],[73.76293,18.42268],[73.7626,18.42421],[73.76206,18.42478],[73.76227,18.42549],[73.76172,18.42641],[73.76166,18.42738],[73.75927,18.43241],[73.76248,18.43287],[73.76588,18.43568],[73.77013,18.44268],[73.77031,18.44546],[73.77061,18.44645],[73.77081,18.44646],[73.77088,18.44677],[73.7708,18.44747],[73.77019,18.44922],[73.77013,18.45187],[73.77033,18.45298],[73.77114,18.45528],[73.77207,18.45707],[73.77282,18.4581],[73.77459,18.45961],[73.77619,18.46033],[73.78099,18.46116],[73.78293,18.46181],[73.78416,18.4625],[73.78589,18.46275],[73.78664,18.46267]]]}},{"type":"Feature","properties":{"ward_id":"54","name":"54 Dhayari - Ambegaon"},"geometry":{"type":"Polygon","coordinates":[[[73.83964,18.4537],[73.85205,18.4501],[73.852,18.44977],[73.84953,18.44988],[73.84889,18.44724],[73.84872,18.44568],[73.84842,18.44483],[73.84774,18.44372],[73.84742,18.44243],[73.84651,18.44246],[73.84576,18.44269],[73.8458,18.44361],[73.84541,18.44365],[73.84439,18.44305],[73.84456,18.44195],[73.84505,18.44129],[73.84561,18.44101],[73.8457,18.44082],[73.84672,18.4406],[73.84642,18.44021],[73.84695,18.44018],[73.84641,18.43833],[73.84613,18.43654],[73.84437,18.4351],[73.84407,18.43456],[73.84359,18.43285],[73.84364,18.43213],[73.84349,18.43164],[73.84239,18.42954],[73.84242,18.42931],[73.84412,18.42776],[73.84656,18.42607],[73.84661,18.42571],[73.84749,18.42479],[73.84754,18.42444],[73.8488,18.42404],[73.85013,18.42325],[73.84871,18.41988],[73.84778,18.41917],[73.84792,18.41682],[73.84783,18.41398],[73.84767,18.41316],[73.84901,18.40912],[73.85048,18.40239],[73.85102,18.40186],[73.84709,18.3991],[73.83692,18.3945],[73.83175,18.39288],[73.83067,18.39023],[73.82886,18.39004],[73.82366,18.39191],[73.82458,18.39498],[73.82278,18.39793],[73.82134,18.40372],[73.81883,18.40663],[73.81829,18.40676],[73.81809,18.40712],[73.81716,18.40736],[73.81615,18.40862],[73.81258,18.40953],[73.81199,18.41051],[73.81193,18.41106],[73.81157,18.41127],[73.81156,18.41154],[73.81122,18.41167],[73.80891,18.4164],[73.80904,18.41732],[73.80937,18.41818],[73.80853,18.41861],[73.80491,18.42272],[73.8041,18.42407],[73.80352,18.42434],[73.80308,18.42496],[73.80242,18.42681],[73.80176,18.42693],[73.80199,18.42792],[73.80177,18.42796],[73.80179,18.43087],[73.80159,18.43171],[73.80185,18.43435],[73.80116,18.43562],[73.80107,18.43685],[73.80051,18.43707],[73.80026,18.43768],[73.79814,18.44578],[73.7972,18.44595],[73.79687,18.44705],[73.80046,18.44725],[73.80182,18.44695],[73.80332,18.44715],[73.80419,18.4471],[73.80551,18.44751],[73.80673,18.44748],[73.80717,18.44718],[73.80763,18.44714],[73.81228,18.44738],[73.81302,18.44716],[73.81388,18.4472],[73.81501,18.44671],[73.81623,18.44699],[73.8178,18.44684],[73.82062,18.44718],[73.81996,18.44971],[73.8196,18.45032],[73.81921,18.45064],[73.81906,18.45196],[73.8185,18.4533],[73.81974,18.4535],[73.8197,18.45373],[73.82033,18.45377],[73.82055,18.45362],[73.82267,18.45356],[73.82376,18.45318],[73.82518,18.45377],[73.82575,18.45381],[73.82735,18.45324],[73.82857,18.45307],[73.82897,18.45317],[73.82806,18.45432],[73.82867,18.45593],[73.82867,18.45653],[73.82839,18.4565],[73.82737,18.45735],[73.82586,18.45825],[73.82596,18.45851],[73.83089,18.45654],[73.83964,18.4537]]]}},{"type":"Feature","properties":{"ward_id":"55","name":"55 Dhankawadi - Ambegaon Pathar"},"geometry":{"type":"Polygon","coordinates":[[[73.85251,18.46834],[73.85227,18.46761],[73.85222,18.46611],[73.85189,18.46571],[73.85137,18.46543],[73.85036,18.46533],[73.84947,18.46576],[73.8494,18.46517],[73.84833,18.46474],[73.84834,18.46392],[73.8487,18.46255],[73.84574,18.46369],[73.8461,18.46166],[73.84609,18.46121],[73.84577,18.46089],[73.84592,18.45915],[73.84895,18.46027],[73.85026,18.46027],[73.85056,18.4604],[73.85108,18.45984],[73.851,18.45939],[73.85044,18.45858],[73.8502,18.45705],[73.84961,18.45663],[73.84958,18.45628],[73.84912,18.45594],[73.84941,18.45367],[73.8481,18.45373],[73.84808,18.45312],[73.84749,18.45311],[73.84725,18.4515],[73.83964,18.4537],[73.83089,18.45654],[73.82596,18.45851],[73.82586,18.45825],[73.82737,18.45735],[73.82839,18.4565],[73.82867,18.45653],[73.82867,18.45593],[73.82806,18.45432],[73.82891,18.4531],[73.82735,18.45324],[73.82575,18.45381],[73.82518,18.45377],[73.82376,18.45318],[73.82267,18.45356],[73.82055,18.45362],[73.82033,18.45377],[73.8197,18.45373],[73.81974,18.4535],[73.8185,18.4533],[73.81729,18.45644],[73.81701,18.45652],[73.8164,18.45728],[73.8155,18.45758],[73.81529,18.45786],[73.81387,18.45826],[73.81351,18.45915],[73.81349,18.4593],[73.81387,18.45913],[73.81612,18.45909],[73.82251,18.46022],[73.82781,18.46179],[73.82809,18.46167],[73.83029,18.46181],[73.83136,18.46161],[73.83152,18.46428],[73.83202,18.46483],[73.83471,18.46498],[73.83488,18.46502],[73.83513,18.46548],[73.83659,18.46545],[73.83745,18.46475],[73.83892,18.4647],[73.83992,18.46293],[73.8423,18.46308],[73.84196,18.46479],[73.84554,18.46522],[73.84482,18.46841],[73.84653,18.46863],[73.84998,18.4684],[73.85072,18.46783],[73.85171,18.46783],[73.85211,18.46826],[73.85251,18.46834]]]}},{"type":"Feature","properties":{"ward_id":"56","name":"56 Chaitanyanagar - Bharati Vidyapeeth"},"geometry":{"type":"Polygon","coordinates":[[[73.85774,18.46837],[73.85819,18.4642],[73.85799,18.459],[73.85866,18.45533],[73.85806,18.45118],[73.85829,18.44913],[73.85855,18.44815],[73.84725,18.4515],[73.84749,18.45311],[73.84808,18.45312],[73.8481,18.45373],[73.84941,18.45367],[73.84912,18.45594],[73.84958,18.45628],[73.84961,18.45663],[73.8502,18.45705],[73.85044,18.45858],[73.851,18.45939],[73.85108,18.45984],[73.85056,18.4604],[73.85026,18.46027],[73.84895,18.46027],[73.84592,18.45915],[73.84577,18.46062],[73.84582,18.46101],[73.84609,18.46121],[73.8461,18.46166],[73.84574,18.46369],[73.8487,18.46255],[73.84834,18.46392],[73.84833,18.46474],[73.8494,18.46517],[73.84947,18.46576],[73.85036,18.46533],[73.85137,18.46543],[73.85189,18.46571],[73.85222,18.46611],[73.85227,18.46761],[73.85251,18.46834],[73.85287,18.46847],[73.85339,18.46795],[73.85774,18.46837]]]}},{"type":"Feature","properties":{"ward_id":"57","name":"57 Sukhsagarnagar - Rajiv Gandhinagar"},"geometry":{"type":"Polygon","coordinates":[[[73.87781,18.46127],[73.87808,18.45814],[73.87549,18.45795],[73.87553,18.45674],[73.87358,18.45652],[73.87438,18.44983],[73.87368,18.44968],[73.87148,18.44972],[73.86871,18.4486],[73.86767,18.44834],[73.86754,18.4461],[73.86781,18.44614],[73.86774,18.44482],[73.86788,18.44363],[73.86765,18.44328],[73.86778,18.44237],[73.86739,18.44227],[73.86737,18.44198],[73.86852,18.44128],[73.86932,18.44058],[73.86951,18.44023],[73.86968,18.43943],[73.86938,18.4394],[73.86952,18.43757],[73.86925,18.43725],[73.86888,18.43545],[73.86851,18.43541],[73.8684,18.43518],[73.86781,18.43509],[73.86751,18.4347],[73.86738,18.43353],[73.86755,18.43298],[73.86642,18.43272],[73.86642,18.43247],[73.86529,18.43229],[73.86429,18.43446],[73.86318,18.43441],[73.86301,18.43535],[73.86131,18.43569],[73.86132,18.43607],[73.86166,18.43685],[73.86134,18.43915],[73.86335,18.44289],[73.86422,18.44389],[73.86419,18.44522],[73.86374,18.4463],[73.86401,18.44811],[73.86283,18.44947],[73.86276,18.45022],[73.86309,18.45149],[73.8638,18.45318],[73.86507,18.45529],[73.86278,18.45661],[73.86295,18.45681],[73.86309,18.45764],[73.86271,18.45839],[73.86272,18.4592],[73.8629,18.45942],[73.86308,18.45929],[73.86341,18.45966],[73.86337,18.46152],[73.86318,18.46183],[73.8628,18.46362],[73.8621,18.46448],[73.86143,18.46653],[73.86457,18.46692],[73.86469,18.46484],[73.86625,18.46484],[73.86777,18.46455],[73.86735,18.46424],[73.86732,18.46342],[73.86508,18.46316],[73.86535,18.46248],[73.86638,18.46135],[73.86663,18.46125],[73.86888,18.46101],[73.87245,18.46122],[73.87781,18.46127]]]}},{"type":"Feature","properties":{"ward_id":"58","name":"58 Katraj - Gokulnagar"},"geometry":{"type":"Polygon","coordinates":[[[73.8629,18.45942],[73.86272,18.4592],[73.86271,18.45839],[73.86309,18.45764],[73.86295,18.45681],[73.86278,18.45661],[73.86507,18.45529],[73.8638,18.45318],[73.86309,18.45149],[73.86276,18.45022],[73.86283,18.44947],[73.86401,18.44811],[73.86374,18.4463],[73.86419,18.44522],[73.86422,18.44389],[73.86335,18.44289],[73.86134,18.43915],[73.86166,18.43685],[73.86132,18.43607],[73.86136,18.43559],[73.86215,18.43559],[73.86301,18.43535],[73.86318,18.43441],[73.86429,18.43446],[73.86529,18.43229],[73.86642,18.43247],[73.86642,18.43272],[73.86755,18.43298],[73.86738,18.43353],[73.86751,18.4347],[73.86781,18.43509],[73.8684,18.43518],[73.86851,18.43541],[73.86888,18.43545],[73.86925,18.43725],[73.86952,18.43757],[73.86939,18.43945],[73.86968,18.43943],[73.86932,18.44058],[73.86852,18.44128],[73.86737,18.44198],[73.86739,18.44227],[73.86778,18.44237],[73.86765,18.44328],[73.86788,18.44363],[73.86774,18.44482],[73.86781,18.44614],[73.86754,18.4461],[73.86767,18.44834],[73.86871,18.4486],[73.87148,18.44972],[73.87368,18.44968],[73.87533,18.45],[73.87551,18.44873],[73.87613,18.44656],[73.8767,18.44659],[73.87765,18.44438],[73.87689,18.4441],[73.87726,18.44301],[73.87714,18.44218],[73.87802,18.43963],[73.87828,18.43839],[73.88058,18.43819],[73.88181,18.43721],[73.88185,18.43703],[73.88176,18.43524],[73.88134,18.43279],[73.88011,18.43035],[73.87954,18.42881],[73.87909,18.42851],[73.88073,18.42702],[73.88125,18.42525],[73.88235,18.42339],[73.88277,18.42208],[73.88323,18.42123],[73.88832,18.41523],[73.88941,18.41182],[73.89172,18.40938],[73.89093,18.40798],[73.88996,18.40564],[73.88572,18.4011],[73.88328,18.40126],[73.87701,18.39525],[73.8761,18.39635],[73.87297,18.39729],[73.8721,18.40062],[73.86918,18.40041],[73.86604,18.39911],[73.85982,18.40081],[73.85102,18.40186],[73.85048,18.40239],[73.84901,18.40912],[73.84767,18.41316],[73.84783,18.41398],[73.84792,18.41682],[73.84778,18.41917],[73.84871,18.41988],[73.85013,18.42325],[73.8488,18.42404],[73.84754,18.42444],[73.84749,18.42479],[73.84661,18.42571],[73.84656,18.42607],[73.84412,18.42776],[73.84242,18.42931],[73.84239,18.42954],[73.84349,18.43164],[73.84364,18.43213],[73.84359,18.43285],[73.84407,18.43456],[73.84437,18.4351],[73.84613,18.43654],[73.84641,18.43833],[73.84695,18.44018],[73.84642,18.44021],[73.84672,18.4406],[73.8457,18.44082],[73.84561,18.44101],[73.84505,18.44129],[73.84456,18.44195],[73.84439,18.44305],[73.84541,18.44365],[73.8458,18.44361],[73.84576,18.44269],[73.84651,18.44246],[73.84742,18.44243],[73.84774,18.44372],[73.84842,18.44483],[73.84872,18.44568],[73.84889,18.44724],[73.84953,18.44988],[73.852,18.44977],[73.85205,18.4501],[73.85239,18.45005],[73.85855,18.44815],[73.85829,18.44913],[73.85806,18.45118],[73.85866,18.45533],[73.85799,18.459],[73.85805,18.46035],[73.85959,18.46028],[73.85992,18.46004],[73.86267,18.45984],[73.8629,18.45942]]]}},{"type":"Feature","properties":{"ward_id":"28","name":"28 Mahatma Phule Smarak \u2013Bhavani Peth"},"geometry":{"type":"Polygon","coordinates":[[[73.86864,18.51539],[73.86868,18.5119],[73.86817,18.50988],[73.86846,18.50626],[73.86767,18.506],[73.86596,18.50607],[73.86609,18.50478],[73.86343,18.50469],[73.86327,18.50905],[73.8597,18.50861],[73.85801,18.50877],[73.85787,18.5119],[73.85765,18.51269],[73.86101,18.51325],[73.86337,18.51291],[73.86435,18.51243],[73.86514,18.51397],[73.86513,18.51463],[73.86487,18.51545],[73.86864,18.51539]]]}}],"bbox":[73.73194,18.38539,74.01838,18.62185]}